IP,Country Code,Country Name,City Name,Lattitude,Longitude
66.249.71.105,US,United States,None,37.751,-97.822
207.46.199.185,US,United States,Chicago,41.8483,-87.6517
77.88.43.25,RU,Russia,None,55.7386,37.6068
220.181.7.51,CN,China,Beijing,39.9288,116.3889
207.46.13.133,US,United States,None,47.6062,-122.3321
217.39.49.239,GB,United Kingdom,Skipton,54.0283,-2.1506
203.217.89.136,AU,Australia,Brunswick,-37.7667,144.9667
190.81.93.72,PE,Peru,None,-12.0433,-77.0283
65.55.207.72,US,United States,Redmond,47.6718,-122.1232
207.46.204.230,US,United States,Chicago,41.8483,-87.6517
207.46.204.243,US,United States,Chicago,41.8483,-87.6517
65.55.215.76,US,United States,None,47.6062,-122.3321
207.46.204.190,US,United States,Chicago,41.8483,-87.6517
207.46.13.137,US,United States,None,47.6062,-122.3321
207.46.199.22,US,United States,Chicago,41.8483,-87.6517
207.46.199.49,US,United States,Chicago,41.8483,-87.6517
65.55.106.187,US,United States,Boydton,36.6544,-78.3752
65.55.106.185,US,United States,Boydton,36.6544,-78.3752
65.55.106.137,US,United States,Boydton,36.6544,-78.3752
207.46.204.184,US,United States,Chicago,41.8483,-87.6517
65.55.207.75,US,United States,Redmond,47.6718,-122.1232
75.83.76.96,US,United States,Pacoima,34.2556,-118.4208
65.55.207.52,US,United States,Redmond,47.6718,-122.1232
207.46.204.240,US,United States,Chicago,41.8483,-87.6517
200.83.174.119,CL,Chile,Maipu,-33.5167,-70.7667
208.80.193.34,US,United States,None,37.751,-97.822
207.46.204.170,US,United States,Chicago,41.8483,-87.6517
208.80.193.38,US,United States,None,37.751,-97.822
207.46.199.184,US,United States,Chicago,41.8483,-87.6517
124.190.0.218,AU,Australia,None,-33.494,143.2104
207.46.204.183,US,United States,Chicago,41.8483,-87.6517
207.46.199.177,US,United States,Chicago,41.8483,-87.6517
24.205.145.134,US,United States,Temple City,34.1016,-118.0537
69.110.5.208,US,United States,Berkeley,37.8927,-122.2761
207.46.199.52,US,United States,Chicago,41.8483,-87.6517
207.46.204.192,US,United States,Chicago,41.8483,-87.6517
207.46.13.86,US,United States,None,47.6062,-122.3321
165.12.252.111,AU,Australia,Canberra,-35.2835,149.1281
82.45.195.35,GB,United Kingdom,Glenrothes,56.2,-3.2167
193.128.243.6,GB,United Kingdom,None,51.4964,-0.1224
207.46.204.236,US,United States,Chicago,41.8483,-87.6517
204.218.240.143,US,United States,None,37.751,-97.822
93.81.13.246,RU,Russia,Kineshma,57.4517,42.1164
72.30.161.230,US,United States,None,37.751,-97.822
89.149.244.240,NL,Netherlands,None,52.3824,4.8995
207.46.13.131,US,United States,None,47.6062,-122.3321
95.144.192.84,GB,United Kingdom,Dollar,56.1832,-3.6261
65.55.106.234,US,United States,Chicago,41.8483,-87.6517
118.100.15.252,MY,Malaysia,Petaling Jaya,3.107,101.6305
207.46.195.225,US,United States,Chicago,41.8483,-87.6517
207.46.199.39,US,United States,Chicago,41.8483,-87.6517
65.55.109.203,US,United States,Chicago,41.8483,-87.6517
207.46.204.215,US,United States,Chicago,41.8483,-87.6517
65.55.110.230,US,United States,Redmond,47.6718,-122.1232
207.46.199.41,US,United States,Chicago,41.8483,-87.6517
113.169.88.26,VN,Vietnam,None,16,106
65.55.109.93,US,United States,Chicago,41.8483,-87.6517
207.46.204.169,US,United States,Chicago,41.8483,-87.6517
207.46.204.181,US,United States,Chicago,41.8483,-87.6517
65.55.110.156,US,United States,Redmond,47.6718,-122.1232
207.46.199.40,US,United States,Chicago,41.8483,-87.6517
81.19.67.243,RU,Russia,Moscow,55.7522,37.6156
84.60.146.18,DE,Germany,Wuppertal,51.2667,7.1833
65.55.216.32,IE,Ireland,Dublin,53.3331,-6.2489
207.46.13.136,US,United States,None,47.6062,-122.3321
207.46.199.188,US,United States,Chicago,41.8483,-87.6517
86.138.127.201,GB,United Kingdom,Kettering,52.3637,-0.6785
212.219.116.229,GB,United Kingdom,None,51.3167,-0.5333
216.129.119.10,US,United States,None,37.751,-97.822
69.63.178.246,US,United States,None,37.751,-97.822
66.220.146.244,US,United States,None,37.751,-97.822
193.35.132.7,GB,United Kingdom,None,51.4964,-0.1224
193.35.132.4,GB,United Kingdom,None,51.4964,-0.1224
193.35.132.25,GB,United Kingdom,None,51.4964,-0.1224
193.35.132.13,GB,United Kingdom,None,51.4964,-0.1224
193.35.132.10,GB,United Kingdom,None,51.4964,-0.1224
193.35.132.22,GB,United Kingdom,None,51.4964,-0.1224
193.35.132.19,GB,United Kingdom,None,51.4964,-0.1224
207.46.13.87,US,United States,None,47.6062,-122.3321
83.85.236.161,NL,Netherlands,Utrecht,52.0719,5.1244
69.63.181.251,US,United States,None,37.751,-97.822
69.63.181.250,US,United States,None,37.751,-97.822
65.55.207.118,US,United States,Redmond,47.6718,-122.1232
207.46.204.197,US,United States,Chicago,41.8483,-87.6517
200.3.122.146,AR,Argentina,Rosario,-32.9511,-60.6664
119.203.66.8,KR,South Korea,None,37.5112,126.97409999999999
123.19.51.169,VN,Vietnam,Tam Ky,15.5667,108.4833
66.220.146.245,US,United States,None,37.751,-97.822
87.25.5.41,IT,Italy,None,43.1479,12.1097
95.144.190.40,GB,United Kingdom,Neasden,51.55,-0.25
207.46.199.198,US,United States,Chicago,41.8483,-87.6517
207.46.204.189,US,United States,Chicago,41.8483,-87.6517
24.10.190.114,US,United States,Salt Lake City,40.7043,-111.8142
190.4.235.39,CL,Chile,None,-33.4378,-70.6503
200.71.233.164,AR,Argentina,None,-34.6033,-58.3817
207.46.13.43,US,United States,None,47.6062,-122.3321
75.101.215.253,US,United States,Ashburn,39.0481,-77.4728
207.46.199.200,US,United States,Chicago,41.8483,-87.6517
38.111.117.1,US,United States,None,37.751,-97.822
207.46.204.185,US,United States,Chicago,41.8483,-87.6517
207.46.195.201,US,United States,Chicago,41.8483,-87.6517
169.139.176.84,US,United States,Daytona Beach,29.2012,-81.0371
207.46.199.179,US,United States,Chicago,41.8483,-87.6517
86.177.202.81,GB,United Kingdom,Bishop Auckland,54.6667,-1.65
65.55.216.9,IE,Ireland,Dublin,53.3331,-6.2489
81.96.79.92,GB,United Kingdom,None,51.4964,-0.1224
210.17.251.159,HK,Hong Kong,None,22.25,114.1667
83.183.220.124,SE,Sweden,Tyringe,56.1667,13.5833
190.47.111.125,CL,Chile,Santiago,-33.45,-70.6667
65.55.207.21,US,United States,Redmond,47.6718,-122.1232
200.7.40.36,SX,Sint Maarten,None,18.0417,-63.0667
207.46.199.55,US,United States,Chicago,41.8483,-87.6517
207.46.199.199,US,United States,Chicago,41.8483,-87.6517
207.46.204.193,US,United States,Chicago,41.8483,-87.6517
207.46.12.67,US,United States,Chicago,41.8483,-87.6517
207.46.195.238,US,United States,Chicago,41.8483,-87.6517
87.54.42.99,DK,Denmark,Silkeborg,56.1697,9.5451
119.224.17.163,NZ,New Zealand,Auckland,-36.8485,174.7635
80.198.105.116,DK,Denmark,Kongens Lyngby,55.7704,12.5038
207.46.199.183,US,United States,Chicago,41.8483,-87.6517
202.57.69.84,PH,Philippines,None,14.5955,120.9721
222.66.83.60,CN,China,None,31.0456,121.3997
65.55.207.126,US,United States,Redmond,47.6718,-122.1232
216.104.15.134,US,United States,None,37.751,-97.822
216.104.15.142,US,United States,None,37.751,-97.822
216.104.15.138,US,United States,None,37.751,-97.822
216.104.15.130,US,United States,None,37.751,-97.822
149.169.206.74,US,United States,None,37.751,-97.822
207.46.12.66,US,United States,Chicago,41.8483,-87.6517
200.90.247.207,CL,Chile,Tome,-36.6167,-72.95
195.244.169.41,BE,Belgium,Brussels,50.8466,4.3528
66.249.65.201,US,United States,None,37.751,-97.822
207.46.204.241,US,United States,Chicago,41.8483,-87.6517
207.46.204.188,US,United States,Chicago,41.8483,-87.6517
208.115.111.242,US,United States,Cle Elum,47.2063,-120.9685
123.125.66.87,CN,China,Beijing,39.9288,116.3889
220.181.7.77,CN,China,Beijing,39.9288,116.3889
125.65.165.184,CN,China,Chengdu,30.6667,104.0667
93.158.144.28,RU,Russia,None,55.7386,37.6068
67.218.116.130,US,United States,None,37.751,-97.822
67.218.116.164,US,United States,None,37.751,-97.822
220.181.7.47,CN,China,Beijing,39.9288,116.3889
204.236.211.159,US,United States,Ashburn,39.0481,-77.4728
123.125.66.78,CN,China,Beijing,39.9288,116.3889
220.181.7.70,CN,China,Beijing,39.9288,116.3889
207.46.13.99,US,United States,None,47.6062,-122.3321
207.46.195.223,US,United States,Chicago,41.8483,-87.6517
207.46.199.54,US,United States,Chicago,41.8483,-87.6517
207.46.13.90,US,United States,None,47.6062,-122.3321
84.9.15.15,GB,United Kingdom,Reading,51.4563,-0.9711
150.70.84.76,JP,Japan,None,35.69,139.69
78.33.237.147,GB,United Kingdom,Glasgow,55.8651,-4.2576
123.125.66.63,CN,China,Beijing,39.9288,116.3889
220.181.7.122,CN,China,Beijing,39.9288,116.3889
207.46.195.236,US,United States,Chicago,41.8483,-87.6517
207.46.204.178,US,United States,Chicago,41.8483,-87.6517
216.158.1.201,US,United States,Lewes,38.7381,-75.1747
207.46.13.143,US,United States,None,47.6062,-122.3321
216.129.119.44,US,United States,None,37.751,-97.822
216.129.119.40,US,United States,None,37.751,-97.822
66.249.65.237,US,United States,None,37.751,-97.822
207.46.13.53,US,United States,None,47.6062,-122.3321
67.218.116.133,US,United States,None,37.751,-97.822
123.125.66.79,CN,China,Beijing,39.9288,116.3889
220.181.7.127,CN,China,Beijing,39.9288,116.3889
207.46.13.47,US,United States,None,47.6062,-122.3321
186.10.26.144,CL,Chile,Santiago,-33.45,-70.6667
91.214.44.233,LU,Luxembourg,None,49.75,6.1667
207.46.13.50,US,United States,None,47.6062,-122.3321
74.125.74.131,FI,Finland,Lappeenranta,61.0645,28.176
140.117.30.34,TW,Taiwan,None,23.5,121
67.218.116.165,US,United States,None,37.751,-97.822
207.46.13.92,US,United States,None,47.6062,-122.3321
200.46.83.245,PA,Panama,None,9,-80
213.81.85.15,GB,United Kingdom,None,51.4964,-0.1224
66.249.65.197,US,United States,None,37.751,-97.822
123.125.66.73,CN,China,Beijing,39.9288,116.3889
220.181.7.57,CN,China,Beijing,39.9288,116.3889
91.214.45.238,LU,Luxembourg,None,49.75,6.1667
216.129.119.42,US,United States,None,37.751,-97.822
66.249.65.232,US,United States,None,37.751,-97.822
74.222.2.74,US,United States,Los Angeles,34.0584,-118.278
216.129.119.12,US,United States,None,37.751,-97.822
220.181.7.85,CN,China,Beijing,39.9288,116.3889
123.125.66.123,CN,China,Beijing,39.9288,116.3889
207.46.204.227,US,United States,Chicago,41.8483,-87.6517
67.218.116.134,US,United States,None,37.751,-97.822
67.218.116.162,US,United States,None,37.751,-97.822
220.181.7.61,CN,China,Beijing,39.9288,116.3889
123.125.66.72,CN,China,Beijing,39.9288,116.3889
207.46.199.45,US,United States,Chicago,41.8483,-87.6517
207.46.199.47,US,United States,Chicago,41.8483,-87.6517
207.46.13.42,US,United States,None,47.6062,-122.3321
207.46.13.89,US,United States,None,47.6062,-122.3321
207.46.195.241,US,United States,Chicago,41.8483,-87.6517
117.3.4.67,VN,Vietnam,None,16,106
207.46.13.52,US,United States,None,47.6062,-122.3321
38.99.96.115,US,United States,None,37.751,-97.822
207.46.195.228,US,United States,Chicago,41.8483,-87.6517
207.46.195.227,US,United States,Chicago,41.8483,-87.6517
212.219.203.8,GB,United Kingdom,None,51.4964,-0.1224
66.249.65.250,US,United States,None,37.751,-97.822
216.129.119.13,US,United States,None,37.751,-97.822
207.46.199.42,US,United States,Chicago,41.8483,-87.6517
207.46.204.244,US,United States,Chicago,41.8483,-87.6517
207.46.13.95,US,United States,None,47.6062,-122.3321
220.181.7.81,CN,China,Beijing,39.9288,116.3889
123.125.66.120,CN,China,Beijing,39.9288,116.3889
213.120.115.56,GB,United Kingdom,Sidcup,51.4187,0.1178
204.236.226.210,US,United States,Ashburn,39.0481,-77.4728
82.147.20.75,GB,United Kingdom,Warwick,52.2836,-1.5814
66.249.65.205,US,United States,None,37.751,-97.822
220.181.7.119,CN,China,Beijing,39.9288,116.3889
123.125.66.70,CN,China,Beijing,39.9288,116.3889
207.46.199.50,US,United States,Chicago,41.8483,-87.6517
216.129.119.14,US,United States,None,37.751,-97.822
41.201.78.27,DZ,Algeria,Bab Ezzouar,36.7261,3.1829
123.125.66.64,CN,China,Beijing,39.9288,116.3889
220.181.7.121,CN,China,Beijing,39.9288,116.3889
123.125.66.60,CN,China,Beijing,39.9288,116.3889
164.133.154.130,DE,Germany,Halle,51.5034,11.9622
216.129.119.43,US,United States,None,37.751,-97.822
123.125.66.85,CN,China,Beijing,39.9288,116.3889
220.181.7.78,CN,China,Beijing,39.9288,116.3889
41.233.47.81,EG,Egypt,Alexandria,31.2156,29.9553
207.46.13.141,US,United States,None,47.6062,-122.3321
200.29.170.58,CL,Chile,None,-33.4378,-70.6503
205.178.184.153,US,United States,Jacksonville,30.1459,-81.5739
205.178.184.152,US,United States,Jacksonville,30.1459,-81.5739
205.178.184.156,US,United States,Jacksonville,30.1459,-81.5739
220.181.7.72,CN,China,Beijing,39.9288,116.3889
123.125.66.81,CN,China,Beijing,39.9288,116.3889
67.218.116.163,US,United States,None,37.751,-97.822
220.181.125.71,CN,China,Beijing,39.9288,116.3889
207.46.199.38,US,United States,Chicago,41.8483,-87.6517
207.46.195.210,US,United States,Chicago,41.8483,-87.6517
123.125.66.61,CN,China,Beijing,39.9288,116.3889
220.181.7.91,CN,China,Beijing,39.9288,116.3889
134.36.36.100,GB,United Kingdom,Dundee,56.482,-2.9356
80.229.196.97,GB,United Kingdom,Royal Tunbridge Wells,51.1325,0.2633
207.46.204.177,US,United States,Chicago,41.8483,-87.6517
207.46.13.88,US,United States,None,47.6062,-122.3321
67.218.116.166,US,United States,None,37.751,-97.822
123.125.66.121,CN,China,Beijing,39.9288,116.3889
207.46.13.44,US,United States,None,47.6062,-122.3321
207.46.199.51,US,United States,Chicago,41.8483,-87.6517
76.99.226.69,US,United States,West Chester,39.9845,-75.5962
207.46.12.211,US,United States,Chicago,41.8483,-87.6517
207.46.199.14,US,United States,Chicago,41.8483,-87.6517
80.218.3.81,CH,Switzerland,Zurich,47.3667,8.55
216.129.119.11,US,United States,None,37.751,-97.822
216.129.119.41,US,United States,None,37.751,-97.822
207.46.13.138,US,United States,None,47.6062,-122.3321
207.46.204.229,US,United States,Chicago,41.8483,-87.6517
207.46.13.85,US,United States,None,47.6062,-122.3321
207.46.204.162,US,United States,Chicago,41.8483,-87.6517
207.46.13.146,US,United States,None,47.6062,-122.3321
207.46.12.170,US,United States,Chicago,41.8483,-87.6517
80.58.205.38,ES,Spain,None,40.4172,-3.684
96.9.143.181,OM,Oman,Muscat,23.6133,58.5933
123.125.66.96,CN,China,Beijing,39.9288,116.3889
220.181.7.80,CN,China,Beijing,39.9288,116.3889
207.46.199.30,US,United States,Chicago,41.8483,-87.6517
200.17.137.79,BR,Brazil,Camaragibe,-7.9878,-34.9914
207.46.204.180,US,United States,Chicago,41.8483,-87.6517
91.125.54.118,GB,United Kingdom,Aylesbury,51.8167,-0.8146
207.46.13.93,US,United States,None,47.6062,-122.3321
207.46.13.97,US,United States,None,47.6062,-122.3321
220.181.7.66,CN,China,Beijing,39.9288,116.3889
201.158.83.83,MX,Mexico,Saltillo,25.4167,-101.0167
88.234.211.237,TR,Turkey,Istanbul,41.0349,28.9481
200.75.9.162,CL,Chile,None,-33.4378,-70.6503
72.14.194.1,US,United States,None,37.751,-97.822
67.218.116.132,US,United States,None,37.751,-97.822
220.181.7.69,CN,China,Beijing,39.9288,116.3889
207.46.13.144,US,United States,None,47.6062,-122.3321
195.3.157.254,UA,Ukraine,Kyiv,50.4547,30.5238
208.80.193.32,US,United States,None,37.751,-97.822
119.63.198.12,JP,Japan,None,35.69,139.69
123.125.66.88,CN,China,Beijing,39.9288,116.3889
220.181.7.92,CN,China,Beijing,39.9288,116.3889
207.46.13.84,US,United States,None,47.6062,-122.3321
208.80.193.39,US,United States,None,37.751,-97.822
220.181.7.128,CN,China,Beijing,39.9288,116.3889
123.125.66.124,CN,China,Beijing,39.9288,116.3889
190.152.115.209,EC,Ecuador,None,-2,-77.5
220.181.7.55,CN,China,Beijing,39.9288,116.3889
123.125.66.91,CN,China,Beijing,39.9288,116.3889
81.18.50.103,RS,Serbia,Belgrade,44.8186,20.4681
67.195.113.215,US,United States,None,37.751,-97.822
66.249.65.235,US,United States,None,37.751,-97.822
190.226.137.123,AR,Argentina,Rosario,-32.9511,-60.6664
66.249.71.35,US,United States,None,37.751,-97.822
207.46.204.234,US,United States,Chicago,41.8483,-87.6517
207.46.199.43,US,United States,Chicago,41.8483,-87.6517
74.93.61.201,US,United States,Ocklawaha,29.0643,-81.8857
150.70.84.204,JP,Japan,None,35.69,139.69
61.147.97.249,CN,China,None,32.0617,118.7778
70.249.223.164,US,United States,None,37.751,-97.822
71.104.224.47,US,United States,None,37.751,-97.822
207.46.195.235,US,United States,Chicago,41.8483,-87.6517
207.46.195.232,US,United States,Chicago,41.8483,-87.6517
173.212.214.130,DE,Germany,Nuremberg,49.4075,11.1649
212.175.32.126,TR,Turkey,Istanbul,41.0087,28.9502
62.190.94.91,GB,United Kingdom,London,51.5265,-0.0986
207.46.195.224,US,United States,Chicago,41.8483,-87.6517
118.101.251.39,MY,Malaysia,Kuantan,3.8109,103.2884
207.46.204.237,US,United States,Chicago,41.8483,-87.6517
207.46.204.195,US,United States,Chicago,41.8483,-87.6517
88.131.106.32,SE,Sweden,None,59.3247,18.056
208.80.193.28,US,United States,None,37.751,-97.822
208.80.193.37,US,United States,None,37.751,-97.822
66.235.124.58,US,United States,None,37.751,-97.822
207.46.199.53,US,United States,Chicago,41.8483,-87.6517
79.158.218.209,ES,Spain,Catarroja,39.4,-0.4
65.55.110.218,US,United States,Redmond,47.6718,-122.1232
190.229.236.231,AR,Argentina,San Miguel de Tucumán,-26.8167,-65.2167
65.55.109.20,US,United States,Chicago,41.8483,-87.6517
190.82.221.98,CL,Chile,Santiago,-33.45,-70.6667
65.55.110.216,US,United States,Redmond,47.6718,-122.1232
207.46.204.182,US,United States,Chicago,41.8483,-87.6517
207.46.195.239,US,United States,Chicago,41.8483,-87.6517
190.222.64.236,PE,Peru,None,-12.0433,-77.0283
203.82.94.34,MY,Malaysia,None,2.5,112.5
207.46.204.238,US,United States,Chicago,41.8483,-87.6517
88.232.254.133,TR,Turkey,Ankara,39.9115,32.858
91.5.244.32,DE,Germany,Berlin,52.5565,13.4482
165.138.0.20,US,United States,Kokomo,40.4509,-86.1352
165.139.0.20,US,United States,Indianapolis,39.772,-86.1535
92.23.128.188,GB,United Kingdom,Newcastle upon Tyne,54.9881,-1.6194
86.178.70.127,GB,United Kingdom,Rugby,52.3284,-1.2051
92.237.222.66,GB,United Kingdom,Dundee,56.5304,-3.0695
168.176.5.162,CO,Colombia,Bogotá,4.6492,-74.0628
198.96.80.15,CA,Canada,London,42.9976,-81.2563
212.41.84.34,CH,Switzerland,Stein,47.544,7.9526
207.46.199.201,US,United States,Chicago,41.8483,-87.6517
86.141.181.11,GB,United Kingdom,Malton,54.0451,-0.8053
188.222.125.89,GB,United Kingdom,Norwich,52.6278,1.2983
66.235.124.18,US,United States,None,37.751,-97.822
199.133.17.236,US,United States,Capitol Heights,38.8897,-76.8925
95.133.135.144,UA,Ukraine,Kherson,46.6558,32.6178
62.254.8.67,GB,United Kingdom,Manchester,53.4688,-2.3119
65.55.37.203,US,United States,Redmond,47.6718,-122.1232
207.46.195.230,US,United States,Chicago,41.8483,-87.6517
90.218.176.175,GB,United Kingdom,Truro,50.2633,-5.0547
207.46.204.228,US,United States,Chicago,41.8483,-87.6517
207.46.204.196,US,United States,Chicago,41.8483,-87.6517
207.46.199.178,US,United States,Chicago,41.8483,-87.6517
92.27.153.191,GB,United Kingdom,Addlestone,51.3714,-0.4935
217.131.211.130,TR,Turkey,Bursa,40.1686,28.9208
220.181.7.112,CN,China,Beijing,39.9288,116.3889
189.190.61.172,MX,Mexico,Puebla City,19.0376,-98.2074
87.220.83.36,ES,Spain,Madrid,40.4165,-3.7026
66.249.71.5,US,United States,None,37.751,-97.822
72.30.161.253,US,United States,None,37.751,-97.822
220.181.7.52,CN,China,Beijing,39.9288,116.3889
213.22.137.66,PT,Portugal,Porto,41.1496,-8.611
207.46.12.215,US,United States,Chicago,41.8483,-87.6517
207.46.12.18,US,United States,Chicago,41.8483,-87.6517
207.46.12.70,US,United States,Chicago,41.8483,-87.6517
190.20.78.164,CL,Chile,Santiago,-33.45,-70.6667
207.46.199.44,US,United States,Chicago,41.8483,-87.6517
207.46.12.27,US,United States,Chicago,41.8483,-87.6517
188.92.72.172,LV,Latvia,None,57,25
125.71.200.6,CN,China,None,30.6667,104.0667
88.110.181.123,GB,United Kingdom,Rotherham,53.4044,-1.3465
207.46.195.226,US,United States,Chicago,41.8483,-87.6517
123.125.66.134,CN,China,Beijing,39.9288,116.3889
220.181.7.64,CN,China,Beijing,39.9288,116.3889
207.46.12.204,US,United States,Chicago,41.8483,-87.6517
207.46.195.214,US,United States,Chicago,41.8483,-87.6517
123.125.66.59,CN,China,Beijing,39.9288,116.3889
220.181.7.132,CN,China,Beijing,39.9288,116.3889
190.10.54.132,CR,Costa Rica,None,10,-84
123.125.66.127,CN,China,Beijing,39.9288,116.3889
220.181.7.58,CN,China,Beijing,39.9288,116.3889
110.32.107.33,AU,Australia,None,-33.494,143.2104
85.101.232.61,TR,Turkey,Istanbul,41.0034,28.936
67.159.60.65,US,United States,Chicago,41.8785,-87.633
123.125.66.97,CN,China,Beijing,39.9288,116.3889
220.181.7.65,CN,China,Beijing,39.9288,116.3889
207.46.13.98,US,United States,None,47.6062,-122.3321
207.46.195.237,US,United States,Chicago,41.8483,-87.6517
207.46.204.163,US,United States,Chicago,41.8483,-87.6517
220.181.7.76,CN,China,Beijing,39.9288,116.3889
91.212.226.18,Not found,Not found,Not found,Not found,Not found
220.181.7.96,CN,China,Beijing,39.9288,116.3889
122.24.198.239,JP,Japan,Suginami-ku,35.7074,139.6001
207.46.13.96,US,United States,None,47.6062,-122.3321
67.195.111.218,US,United States,None,37.751,-97.822
123.125.66.90,CN,China,Beijing,39.9288,116.3889
207.46.204.167,US,United States,Chicago,41.8483,-87.6517
212.33.246.66,RU,Russia,Perm,58,56.25
206.81.181.10,DE,Germany,Frankfurt am Main,50.1153,8.6823
82.144.245.36,GB,United Kingdom,Reading,51.4014,-0.9201
207.46.204.209,US,United States,Chicago,41.8483,-87.6517
114.78.248.21,AU,Australia,None,-33.494,143.2104
67.218.116.131,US,United States,None,37.751,-97.822
123.125.66.129,CN,China,Beijing,39.9288,116.3889
207.46.204.242,US,United States,Chicago,41.8483,-87.6517
220.181.7.86,CN,China,Beijing,39.9288,116.3889
81.106.219.129,GB,United Kingdom,Bury St Edmunds,52.2463,0.7111
213.55.66.220,ET,Ethiopia,None,8,38
207.46.195.233,US,United States,Chicago,41.8483,-87.6517
220.181.7.62,CN,China,Beijing,39.9288,116.3889
123.125.66.71,CN,China,Beijing,39.9288,116.3889
144.32.126.11,GB,United Kingdom,York,53.9576,-1.0827
207.46.12.213,US,United States,Chicago,41.8483,-87.6517
188.112.104.7,SK,Slovakia,Bratislava,48.1482,17.1067
201.167.123.129,MX,Mexico,Aguascalientes,21.8823,-102.2826
78.86.201.175,GB,United Kingdom,None,51.4964,-0.1224
190.95.211.18,EC,Ecuador,None,-2,-77.5
131.111.37.76,GB,United Kingdom,Cambridge,52.191,0.1249
123.125.66.132,CN,China,Beijing,39.9288,116.3889
220.181.7.75,CN,China,Beijing,39.9288,116.3889
186.105.127.219,CL,Chile,Santiago,-33.45,-70.6667
207.46.13.145,US,United States,None,47.6062,-122.3321
207.46.12.114,US,United States,Chicago,41.8483,-87.6517
207.46.13.132,US,United States,None,47.6062,-122.3321
207.46.13.54,US,United States,None,47.6062,-122.3321
123.125.66.77,CN,China,Beijing,39.9288,116.3889
220.181.7.116,CN,China,Beijing,39.9288,116.3889
77.87.32.102,UA,Ukraine,Luhansk,48.567,39.3171
212.69.11.40,RS,Serbia,None,44,21
81.35.239.146,ES,Spain,Pola de Lena,43.1696,-5.8438
200.144.29.106,BR,Brazil,Cotia,-23.6704,-46.9472
207.46.12.156,US,United States,Chicago,41.8483,-87.6517
113.166.45.82,VN,Vietnam,None,16,106
207.46.13.48,US,United States,None,47.6062,-122.3321
204.84.6.88,US,United States,Kannapolis,35.502,-80.6359
123.125.66.76,CN,China,Beijing,39.9288,116.3889
220.181.7.130,CN,China,Beijing,39.9288,116.3889
82.45.165.2,GB,United Kingdom,Crawley,51.113,-0.1831
144.122.120.60,TR,Turkey,Ankara,39.923,32.8378
71.200.247.45,US,United States,Lehigh Acres,26.5936,-81.6619
195.191.40.13,RU,Russia,None,55.7386,37.6068
207.46.195.231,US,United States,Chicago,41.8483,-87.6517
207.46.13.46,US,United States,None,47.6062,-122.3321
220.181.7.67,CN,China,Beijing,39.9288,116.3889
207.46.204.239,US,United States,Chicago,41.8483,-87.6517
123.125.66.89,CN,China,Beijing,39.9288,116.3889
220.181.7.120,CN,China,Beijing,39.9288,116.3889
207.46.195.229,US,United States,Chicago,41.8483,-87.6517
161.38.221.197,US,United States,None,37.751,-97.822
119.63.198.46,JP,Japan,None,35.69,139.69
123.125.66.57,CN,China,Beijing,39.9288,116.3889
189.100.174.41,BR,Brazil,São Paulo,-23.627,-46.635
67.195.113.235,US,United States,None,37.751,-97.822
66.249.65.238,US,United States,None,37.751,-97.822
216.129.119.45,US,United States,None,37.751,-97.822
189.32.163.238,BR,Brazil,Sao Jose do Rio Preto,-20.7691,-49.356700000000004
123.125.66.84,CN,China,Beijing,39.9288,116.3889
205.175.121.127,US,United States,Seattle,47.6849,-122.2968
65.55.51.69,US,United States,Redmond,47.6718,-122.1232
220.181.7.83,CN,China,Beijing,39.9288,116.3889
190.232.218.210,PE,Peru,Lima,-12.05,-77.05
84.9.15.23,GB,United Kingdom,Reading,51.4563,-0.9711
66.249.65.231,US,United States,None,37.751,-97.822
123.125.66.58,CN,China,Beijing,39.9288,116.3889
220.181.7.59,CN,China,Beijing,39.9288,116.3889
124.115.6.11,CN,China,None,34.2583,108.9286
220.181.7.115,CN,China,Beijing,39.9288,116.3889
124.115.0.110,CN,China,None,34.2583,108.9286
222.124.207.5,ID,Indonesia,Bandung,-6.9222,107.6069
203.173.161.117,NZ,New Zealand,Auckland,-36.8485,174.7635
207.46.204.179,US,United States,Chicago,41.8483,-87.6517
207.46.199.180,US,United States,Chicago,41.8483,-87.6517
65.55.51.114,US,United States,Redmond,47.6718,-122.1232
219.133.105.219,CN,China,None,23.1167,113.25
209.59.172.198,US,United States,Lansing,42.7376,-84.6244
66.249.65.230,US,United States,None,37.751,-97.822
38.99.98.110,US,United States,None,37.751,-97.822
93.158.147.28,RU,Russia,None,55.7386,37.6068
220.181.7.60,CN,China,Beijing,39.9288,116.3889
123.125.66.133,CN,China,Beijing,39.9288,116.3889
74.52.245.146,US,United States,Dallas,32.9322,-96.8353
65.55.51.70,US,United States,Redmond,47.6718,-122.1232
220.181.7.73,CN,China,Beijing,39.9288,116.3889
118.97.12.43,ID,Indonesia,Yogyakarta,-7.8014,110.3647
220.181.7.56,CN,China,Beijing,39.9288,116.3889
124.115.4.202,CN,China,None,34.2583,108.9286
208.71.173.74,US,United States,San Clemente,33.4615,-117.6375
65.55.51.115,US,United States,Redmond,47.6718,-122.1232
66.249.65.243,US,United States,None,37.751,-97.822
66.249.71.69,US,United States,None,37.751,-97.822
123.125.66.68,CN,China,Beijing,39.9288,116.3889
201.216.217.101,AR,Argentina,Córdoba,-31.4,-64.1833
163.10.199.46,AR,Argentina,La Plata,-34.9314,-57.9489
220.181.7.95,CN,China,Beijing,39.9288,116.3889
201.197.32.18,CR,Costa Rica,None,10,-84
220.181.7.131,CN,China,Beijing,39.9288,116.3889
123.125.66.117,CN,China,Beijing,39.9288,116.3889
213.218.142.100,FR,France,None,48.8582,2.3387000000000002
217.20.118.75,DE,Germany,None,51.2993,9.491
220.181.7.87,CN,China,Beijing,39.9288,116.3889
123.125.66.86,CN,China,Beijing,39.9288,116.3889
80.176.135.205,GB,United Kingdom,Puckeridge,51.9018,0.0803
82.69.17.167,GB,United Kingdom,Marylebone,51.5085,-0.1257
207.46.199.193,US,United States,Chicago,41.8483,-87.6517
220.181.7.117,CN,China,Beijing,39.9288,116.3889
123.125.66.69,CN,China,Beijing,39.9288,116.3889
38.99.97.115,US,United States,None,37.751,-97.822
220.181.7.124,CN,China,Beijing,39.9288,116.3889
66.249.71.17,US,United States,None,37.751,-97.822
74.125.75.4,US,United States,Charleston,32.7766,-79.9309
200.89.58.117,CL,Chile,Punta Arenas,-53.15,-70.9167
75.172.54.106,US,United States,Seattle,47.6488,-122.3964
62.194.121.218,NL,Netherlands,Barneveld,52.1317,5.5815
208.80.193.121,US,United States,None,37.751,-97.822
220.181.7.79,CN,China,Beijing,39.9288,116.3889
84.92.243.246,GB,United Kingdom,Cannock,52.7063,-2.0021
187.37.165.10,BR,Brazil,São Paulo,-23.627,-46.635
66.249.65.245,US,United States,None,37.751,-97.822
85.180.126.196,DE,Germany,Berlin,52.4712,13.4486
99.18.90.201,US,United States,None,37.751,-97.822
190.177.142.21,AR,Argentina,None,-34.6033,-58.3817
66.235.124.56,US,United States,None,37.751,-97.822
71.192.176.112,US,United States,Shelton,41.3047,-73.1294
193.47.80.47,FR,France,None,48.8582,2.3387000000000002
93.158.145.27,RU,Russia,None,55.7386,37.6068
67.182.232.196,US,United States,Ogden,41.2627,-111.9837
98.154.110.162,US,United States,None,37.751,-97.822
67.195.115.229,US,United States,None,37.751,-97.822
24.21.133.140,US,United States,Portland,45.5472,-122.5001
218.22.21.2,CN,China,Hefei,31.8639,117.2808
69.204.247.46,US,United States,New York,40.8019,-73.9531
206.51.228.161,US,United States,Tampa,28.0091,-82.5034
140.109.103.226,TW,Taiwan,Taipei,25.0478,121.5318
75.183.5.217,US,United States,Greensboro,36.0334,-79.8626
74.137.15.242,US,United States,London,37.0995,-84.1131
209.125.235.88,US,United States,None,37.751,-97.822
131.217.6.9,AU,Australia,Hobart,-42.8794,147.3294
88.108.246.1,GB,United Kingdom,Manchester,53.4551,-2.2645
195.34.233.214,RU,Russia,Lipetsk,52.6186,39.5689
79.234.49.197,DE,Germany,Korbach,51.2756,8.873
99.28.241.142,US,United States,None,37.751,-97.822
81.213.126.80,TR,Turkey,Tekirdağ,41.05,27.3
217.158.27.130,GB,United Kingdom,Hampstead,51.5407,-0.1964
192.134.152.230,FR,France,Paris,48.8709,2.3561
69.63.178.251,US,United States,None,37.751,-97.822
64.229.192.152,CA,Canada,Brampton,43.6665,-79.8054
129.234.158.27,GB,United Kingdom,Durham,54.7667,-1.5667
131.111.30.34,GB,United Kingdom,Cambridge,52.191,0.1249
80.254.147.36,GB,United Kingdom,London,51.5161,-0.0949
131.111.37.50,GB,United Kingdom,Cambridge,52.191,0.1249
58.107.66.231,AU,Australia,Canberra,-35.276,149.1344
163.1.78.251,GB,United Kingdom,Oxford,51.7158,-1.2925
66.219.58.34,US,United States,Boulder,40.0497,-105.2143
71.176.116.235,US,United States,Syracuse,43.0677,-76.1102
24.188.123.50,US,United States,Island Park,40.604,-73.6554
193.1.217.20,IE,Ireland,Dublin,53.3331,-6.2489
83.69.96.3,RU,Russia,None,55.7386,37.6068
86.173.116.57,GB,United Kingdom,Bedford,52.118,-0.56
84.35.93.11,NL,Netherlands,None,52.3824,4.8995
82.22.245.120,GB,United Kingdom,Mansfield,53.1333,-1.2
188.58.188.194,TR,Turkey,None,41.0214,28.9948
190.15.203.203,AR,Argentina,Mendoza,-33.1561,-68.8288
193.140.134.23,TR,Turkey,None,41.0214,28.9948
153.5.129.165,SI,Slovenia,None,46,15
131.111.41.167,GB,United Kingdom,Cambridge,52.191,0.1249
117.199.114.22,IN,India,Jaipur,26.9167,75.8167
86.165.147.31,GB,United Kingdom,Lambeth,51.4891,-0.1107
213.106.86.169,GB,United Kingdom,Papworth Everard,52.2279,0.0427
72.3.221.188,US,United States,San Antonio,29.4969,-98.4032
86.107.62.34,US,United States,Miami,25.7704,-80.1855
200.41.129.168,AR,Argentina,None,-34.6033,-58.3817
24.44.58.160,US,United States,Milford,41.2175,-73.0549
138.23.91.179,US,United States,Riverside,33.9533,-117.3962
190.95.57.16,CL,Chile,None,-33.4378,-70.6503
66.249.67.99,US,United States,None,37.751,-97.822
157.140.129.6,GB,United Kingdom,None,51.4964,-0.1224
74.125.16.65,CN,China,Taoyuan,26.7688,115.065
95.54.11.26,RU,Russia,St Petersburg,59.8944,30.2642
213.123.60.37,GB,United Kingdom,Bristol,51.4335,-2.5472
84.50.9.195,EE,Estonia,Rakvere,59.3464,26.3558
77.161.222.240,NL,Netherlands,Veldhoven,51.4147,5.4112
204.76.240.247,US,United States,Wesley Chapel,28.2397,-82.3279
74.12.52.56,CA,Canada,Toronto,43.6784,-79.2941
78.175.87.103,TR,Turkey,Istanbul,41.0177,28.9744
82.12.246.119,GB,United Kingdom,Stevenage,51.9022,-0.2026
98.202.202.101,US,United States,Riverton,40.4954,-111.9444
99.227.247.231,CA,Canada,Scarborough,43.7812,-79.3036
187.67.231.164,BR,Brazil,Rio de Janeiro,-22.9201,-43.3307
190.18.113.167,AR,Argentina,Buenos Aires,-34.6033,-58.3816
86.137.253.206,GB,United Kingdom,Ilminster,50.9492,-2.9665
188.179.206.255,DK,Denmark,Kongens Lyngby,55.7704,12.5038
88.80.10.1,SE,Sweden,None,59.3247,18.056
220.181.7.40,CN,China,Beijing,39.9288,116.3889
98.200.10.186,US,United States,Houston,29.7348,-95.522
66.249.65.138,US,United States,None,37.751,-97.822
66.249.65.172,US,United States,None,37.751,-97.822
69.143.43.246,US,United States,Baltimore,39.3316,-76.6336
122.174.113.132,IN,India,Tiruchi,10.805,78.6856
98.246.35.236,US,United States,Portland,45.527,-122.6854
63.110.125.22,US,United States,None,37.751,-97.822
84.159.103.23,DE,Germany,Waldsassen,50.0017,12.3043
200.111.150.2,CL,Chile,Santiago,-33.45,-70.6667
208.80.193.42,US,United States,None,37.751,-97.822
208.80.193.30,US,United States,None,37.751,-97.822
203.128.250.31,ID,Indonesia,None,-6.175,106.8286
85.210.170.201,GB,United Kingdom,Manchester,53.4698,-2.2295
86.138.141.39,GB,United Kingdom,Tewkesbury,51.9833,-2
217.227.131.203,DE,Germany,Sangerhausen,51.4722,11.2953
82.6.96.33,GB,United Kingdom,Ware,51.8203,-0.009
217.227.182.234,DE,Germany,Penig,50.9334,12.7042
217.44.85.20,GB,United Kingdom,Bishop Auckland,54.6793,-1.8451
190.14.186.130,AR,Argentina,Comodoro Rivadavia,-45.6083,-67.75
81.234.118.27,SE,Sweden,Ulricehamn,57.7916,13.4142
94.68.160.208,GR,Greece,Thessaloniki,40.6403,22.9439
66.235.124.55,US,United States,None,37.751,-97.822
154.20.181.97,CA,Canada,Abbotsford,49.0423,-122.2835
190.162.28.87,CL,Chile,Las Condes,-33.3667,-70.5167
83.67.65.16,GB,United Kingdom,Sutton Coldfield,52.5667,-1.8167
88.234.187.178,TR,Turkey,Istanbul,41.0177,28.9744
220.181.7.49,CN,China,Beijing,39.9288,116.3889
66.249.65.177,US,United States,None,37.751,-97.822
190.177.75.229,AR,Argentina,Lomas de Zamora,-34.7667,-58.4
66.249.67.117,US,United States,None,37.751,-97.822
65.55.106.109,SG,Singapore,Singapore,1.2931,103.8558
67.195.112.176,US,United States,None,37.751,-97.822
124.189.35.155,AU,Australia,Tatura,-36.4396,145.2299
98.21.99.88,US,United States,Hughesville,41.256,-76.7141
66.249.71.245,US,United States,None,37.751,-97.822
71.121.200.250,US,United States,Nottingham,39.3914,-76.4871
58.64.41.68,TH,Thailand,None,13.75,100.4667
117.202.131.3,IN,India,Chennai,13.0833,80.2833
216.157.145.63,US,United States,None,37.751,-97.822
141.65.161.67,DE,Germany,None,51.2993,9.491
72.55.156.8,CA,Canada,Montreal,45.4594,-73.5501
75.101.221.99,US,United States,Ashburn,39.0481,-77.4728
78.157.175.21,CZ,Czechia,None,50.0848,14.411200000000001
122.100.132.199,MO,Macao,Macao,22.2,113.55
77.101.254.213,GB,United Kingdom,East Kilbride,55.7641,-4.1767
217.127.72.187,ES,Spain,Oleiros,43.3382,-8.3736
65.55.106.180,US,United States,Boydton,36.6544,-78.3752
125.166.216.178,ID,Indonesia,Cimahi,-6.6983,107.2753
80.229.151.110,GB,United Kingdom,Crawley,51.1182,-0.1246
190.64.98.54,UY,Uruguay,None,-33,-56
91.135.234.156,GB,United Kingdom,None,51.4964,-0.1224
92.201.107.133,DE,Germany,Wesseling,50.8271,6.9747
217.42.14.206,GB,United Kingdom,Slough,51.5353,-0.6658
91.156.167.21,FI,Finland,Kotka,60.4489,26.8858
95.159.216.167,SI,Slovenia,Logatec,45.9144,14.2258
83.237.232.133,RU,Russia,Moscow,55.7522,37.6156
77.193.230.246,FR,France,Balanod,46.4571,5.3551
87.186.102.73,DE,Germany,Pfronten,47.5822,10.5496
74.6.22.176,US,United States,None,37.751,-97.822
62.56.108.172,GB,United Kingdom,St Austell,50.3365,-4.757
66.249.65.182,US,United States,None,37.751,-97.822
78.159.121.20,DE,Germany,None,51.2993,9.491
83.208.2.240,CZ,Czechia,Brno,49.2333,16.65
205.178.184.154,US,United States,Jacksonville,30.1459,-81.5739
71.199.94.4,US,United States,Lake City,30.1601,-82.6396
88.233.2.0,TR,Turkey,Istanbul,41.0186,28.9322
190.183.1.121,AR,Argentina,Paraná,-31.7333,-60.5333
65.243.186.2,US,United States,Port Angeles,48.1065,-123.4384
69.113.196.156,US,United States,Baldwin,40.6548,-73.6097
208.114.40.192,US,United States,Hennessey,36.0868,-97.8926
66.249.65.134,US,United States,None,37.751,-97.822
66.249.65.146,US,United States,None,37.751,-97.822
72.187.245.65,US,United States,None,37.751,-97.822
195.93.21.73,GB,United Kingdom,None,51.4964,-0.1224
76.171.179.192,US,United States,Downey,33.9218,-118.1395
88.255.219.130,TR,Turkey,Adana,36.95,35.35
208.80.193.29,US,United States,None,37.751,-97.822
80.52.164.107,PL,Poland,Lopuszno,50.9465,20.25
87.112.95.56,GB,United Kingdom,Witney,51.7836,-1.4854
81.231.105.33,SE,Sweden,Piteå,65.3333,21.5
86.1.97.172,GB,United Kingdom,Johnstone,55.8333,-4.486
125.194.108.50,JP,Japan,Sendai,38.2643,140.8687
142.177.190.66,CA,Canada,Montague,46.1668,-62.6487
131.123.1.227,US,United States,Kent,41.1537,-81.3579
77.204.37.124,FR,France,Athis-Mons,48.7052,2.3915
84.45.231.177,GB,United Kingdom,Knutsford,53.3033,-2.3715
84.163.126.206,DE,Germany,Ulm,48.4171,9.9635
217.166.60.242,NL,Netherlands,Goes,51.514,3.8796
119.40.118.196,MY,Malaysia,Kuala Selangor,3.35,101.25
143.107.211.154,BR,Brazil,Piracicaba,-22.7158,-47.773
200.11.0.12,BR,Brazil,Rio de Janeiro,-22.9201,-43.3307
61.160.216.63,CN,China,None,32.0617,118.7778
88.250.237.33,TR,Turkey,Izmir,38.4067,27.14
81.36.36.88,ES,Spain,Alicante,38.3452,-0.4815
212.240.32.98,GB,United Kingdom,None,51.4964,-0.1224
87.83.218.34,GB,United Kingdom,Cambridge,52.2333,0.15
74.125.126.82,US,United States,None,37.751,-97.822
74.125.126.81,US,United States,None,37.751,-97.822
72.14.192.68,US,United States,None,37.751,-97.822
200.0.182.62,AR,Argentina,Mar del Plata,-38,-57.55
96.240.169.115,US,United States,None,37.751,-97.822
74.95.178.201,US,United States,Somerset,40.5007,-74.5013
174.129.57.51,US,United States,Ashburn,39.0481,-77.4728
82.152.45.101,GB,United Kingdom,Prudhoe,54.9705,-1.8655
80.185.181.172,FR,France,Conde,49.1537,6.4303
217.131.205.249,TR,Turkey,Istanbul,41.0177,28.9744
79.121.234.138,GB,United Kingdom,Leicester,52.6042,-1.1463
78.170.207.163,TR,Turkey,Osmaniye,37.0742,36.2478
165.29.106.3,US,United States,Hamburg,33.2058,-91.8023
144.122.127.130,TR,Turkey,Ankara,39.923,32.8378
88.253.4.229,TR,Turkey,Istanbul,40.9887,29.0236
67.195.37.184,US,United States,None,37.751,-97.822
129.49.105.148,US,United States,Coram,40.885,-73.0069
220.181.7.34,CN,China,Beijing,39.9288,116.3889
190.12.66.81,PE,Peru,None,-12.0433,-77.0283
96.31.166.228,US,United States,None,37.751,-97.822
69.20.70.86,US,United States,San Antonio,29.4969,-98.4032
38.99.96.11,US,United States,None,37.751,-97.822
220.181.7.37,CN,China,Beijing,39.9288,116.3889
187.152.19.44,MX,Mexico,Guadalajara,20.6668,-103.3918
123.125.66.118,CN,China,Beijing,39.9288,116.3889
220.181.7.129,CN,China,Beijing,39.9288,116.3889
212.84.104.108,GB,United Kingdom,None,51.4964,-0.1224
123.125.66.130,CN,China,Beijing,39.9288,116.3889
207.46.204.233,US,United States,Chicago,41.8483,-87.6517
123.125.66.126,CN,China,Beijing,39.9288,116.3889
220.181.7.125,CN,China,Beijing,39.9288,116.3889
207.46.13.134,US,United States,None,47.6062,-122.3321
220.181.7.94,CN,China,Beijing,39.9288,116.3889
207.46.199.46,US,United States,Chicago,41.8483,-87.6517
207.46.195.234,US,United States,Chicago,41.8483,-87.6517
70.16.158.35,US,United States,None,37.751,-97.822
123.125.66.131,CN,China,Beijing,39.9288,116.3889
123.125.66.92,CN,China,Beijing,39.9288,116.3889
207.46.199.37,US,United States,Chicago,41.8483,-87.6517
207.46.13.49,US,United States,None,47.6062,-122.3321
131.111.48.93,GB,United Kingdom,Cambridge,52.191,0.1249
196.6.221.4,ZA,South Africa,Mmabatho,-25.85,25.6333
220.181.7.93,CN,China,Beijing,39.9288,116.3889
207.46.13.91,US,United States,None,47.6062,-122.3321
131.111.150.66,GB,United Kingdom,Cambridge,52.191,0.1249
195.221.174.217,FR,France,Montpellier,43.6109,3.8772
207.46.13.41,US,United States,None,47.6062,-122.3321
86.155.91.137,GB,United Kingdom,Sutton,51.35,-0.2
78.170.201.167,TR,Turkey,Osmaniye,37.0742,36.2478
201.234.0.134,AR,Argentina,None,-34.6033,-58.3817
65.83.116.10,US,United States,Sanford,28.7644,-81.282
207.46.204.194,US,United States,Chicago,41.8483,-87.6517
207.46.13.142,US,United States,None,47.6062,-122.3321
67.169.216.38,US,United States,Sherwood,45.3514,-122.8567
189.145.47.232,MX,Mexico,Torreón,25.5752,-103.4222
93.158.148.30,RU,Russia,None,55.7386,37.6068
83.237.53.215,RU,Russia,None,55.7386,37.6068
207.46.195.240,US,United States,Chicago,41.8483,-87.6517
220.181.7.74,CN,China,Beijing,39.9288,116.3889
123.125.66.95,CN,China,Beijing,39.9288,116.3889
207.46.12.159,US,United States,Chicago,41.8483,-87.6517
178.208.75.89,RU,Russia,None,55.7386,37.6068
220.181.7.89,CN,China,Beijing,39.9288,116.3889
65.55.216.44,IE,Ireland,Dublin,53.3331,-6.2489
78.175.65.247,TR,Turkey,Diyarbakır,37.9995,40.0008
220.181.7.118,CN,China,Beijing,39.9288,116.3889
207.46.204.235,US,United States,Chicago,41.8483,-87.6517
92.10.174.101,GB,United Kingdom,Manchester,53.4482,-2.2257
190.42.71.178,PE,Peru,Lima,-12.05,-77.05
207.46.13.40,US,United States,None,47.6062,-122.3321
123.125.66.74,CN,China,Beijing,39.9288,116.3889
207.46.12.20,US,United States,Chicago,41.8483,-87.6517
69.63.189.246,US,United States,None,37.751,-97.822
123.125.66.66,CN,China,Beijing,39.9288,116.3889
92.226.192.83,DE,Germany,Frankfurt am Main,50.1039,8.6886
88.108.107.235,GB,United Kingdom,Birmingham,52.4814,-1.8998
207.46.199.48,US,United States,Chicago,41.8483,-87.6517
38.100.226.146,US,United States,Issaquah,47.5585,-122.0055
38.101.148.126,US,United States,None,37.751,-97.822
119.63.198.7,JP,Japan,None,35.69,139.69
207.46.204.186,US,United States,Chicago,41.8483,-87.6517
196.205.170.26,EG,Egypt,None,30.0355,31.223
63.196.142.33,US,United States,None,37.751,-97.822
66.249.66.119,US,United States,None,37.751,-97.822
67.195.115.185,US,United States,None,37.751,-97.822
187.112.182.148,BR,Brazil,Curitiba,-25.5039,-49.2908
220.181.7.113,CN,China,Beijing,39.9288,116.3889
212.84.98.59,GB,United Kingdom,None,51.4964,-0.1224
207.46.199.32,US,United States,Chicago,41.8483,-87.6517
220.181.7.126,CN,China,Beijing,39.9288,116.3889
24.130.88.151,US,United States,Sebastopol,38.3941,-122.8433
118.97.69.146,ID,Indonesia,Jakarta,-6.1744,106.8294
208.80.193.35,US,United States,None,37.751,-97.822
220.181.7.71,CN,China,Beijing,39.9288,116.3889
123.125.66.119,CN,China,Beijing,39.9288,116.3889
207.46.12.13,US,United States,Chicago,41.8483,-87.6517
220.181.7.90,CN,China,Beijing,39.9288,116.3889
123.125.66.93,CN,China,Beijing,39.9288,116.3889
125.160.221.98,ID,Indonesia,Malang,-7.9797,112.6304
65.52.108.58,US,United States,Boydton,36.6544,-78.3752
85.26.173.176,RU,Russia,Borogontsy,62.6683,131.1683
220.181.7.68,CN,China,Beijing,39.9288,116.3889
84.26.11.235,NL,Netherlands,Venlo,51.3802,6.177
82.21.151.16,GB,United Kingdom,Notting Hill Gate,51.5016,-0.2133
220.181.7.123,CN,China,Beijing,39.9288,116.3889
207.46.204.210,US,United States,Chicago,41.8483,-87.6517
86.186.97.227,GB,United Kingdom,Presteigne,52.2664,-3.044
67.218.116.171,US,United States,None,37.751,-97.822
67.218.116.168,US,United States,None,37.751,-97.822
216.129.119.49,US,United States,None,37.751,-97.822
67.218.116.167,US,United States,None,37.751,-97.822
67.218.116.169,US,United States,None,37.751,-97.822
216.129.119.47,US,United States,None,37.751,-97.822
216.129.119.46,US,United States,None,37.751,-97.822
216.129.119.48,US,United States,None,37.751,-97.822
178.63.9.74,DE,Germany,None,51.2993,9.491
207.46.199.182,US,United States,Chicago,41.8483,-87.6517
123.125.66.62,CN,China,Beijing,39.9288,116.3889
201.240.112.249,PE,Peru,Lima,-12.05,-77.05
221.130.7.102,CN,China,Beijing,39.9288,116.3889
95.130.10.37,FR,France,None,48.8582,2.3387000000000002
123.125.66.80,CN,China,Beijing,39.9288,116.3889
207.46.194.64,IE,Ireland,Dublin,53.3331,-6.2489
92.75.233.143,DE,Germany,Kassel,51.336,9.4457
207.46.12.117,US,United States,Chicago,41.8483,-87.6517
190.174.20.90,AR,Argentina,La Plata,-34.9314,-57.9489
207.46.194.71,IE,Ireland,Dublin,53.3331,-6.2489
131.111.139.104,GB,United Kingdom,Cambridge,52.191,0.1249
78.40.195.72,NL,Netherlands,None,52.3824,4.8995
67.195.112.85,US,United States,None,37.751,-97.822
65.55.207.74,US,United States,Redmond,47.6718,-122.1232
82.41.47.55,GB,United Kingdom,Liverpool,53.3805,-2.9086
66.249.67.85,US,United States,None,37.751,-97.822
65.55.106.184,US,United States,Boydton,36.6544,-78.3752
65.55.207.132,US,United States,Redmond,47.6718,-122.1232
65.55.207.22,US,United States,Redmond,47.6718,-122.1232
65.100.37.183,US,United States,Vancouver,45.6644,-122.5212
72.30.161.221,US,United States,None,37.751,-97.822
202.89.58.19,NZ,New Zealand,None,-41,174
65.55.106.160,US,United States,Boydton,36.6544,-78.3752
65.55.207.131,US,United States,Redmond,47.6718,-122.1232
212.55.66.90,UA,Ukraine,Cherkasy,49.4285,32.0621
65.55.106.158,US,United States,Boydton,36.6544,-78.3752
65.55.207.71,US,United States,Redmond,47.6718,-122.1232
65.55.207.138,US,United States,Redmond,47.6718,-122.1232
65.55.207.125,US,United States,Redmond,47.6718,-122.1232
131.193.92.220,US,United States,Chicago,41.8805,-87.6873
65.55.207.47,US,United States,Redmond,47.6718,-122.1232
65.55.218.158,US,United States,Chicago,41.8483,-87.6517
65.55.106.114,SG,Singapore,Singapore,1.2931,103.8558
145.36.234.116,GB,United Kingdom,None,51.4964,-0.1224
207.241.173.20,US,United States,None,37.751,-97.822
65.55.207.93,US,United States,Redmond,47.6718,-122.1232
65.55.106.210,US,United States,Chicago,41.8483,-87.6517
65.55.107.182,US,United States,Redmond,47.6718,-122.1232
65.55.207.49,US,United States,Redmond,47.6718,-122.1232
68.6.201.245,US,United States,Encinitas,33.0535,-117.2689
65.55.207.134,US,United States,Redmond,47.6718,-122.1232
65.55.207.122,US,United States,Redmond,47.6718,-122.1232
65.55.106.111,SG,Singapore,Singapore,1.2931,103.8558
65.55.106.138,US,United States,Boydton,36.6544,-78.3752
65.55.110.26,US,United States,Redmond,47.6718,-122.1232
65.55.216.55,IE,Ireland,Dublin,53.3331,-6.2489
119.152.164.17,PK,Pakistan,Hassan Abdal,33.823,72.6873
88.5.212.39,ES,Spain,Madrid,40.4165,-3.7026
65.55.207.25,US,United States,Redmond,47.6718,-122.1232
65.55.106.156,US,United States,Boydton,36.6544,-78.3752
65.55.106.231,US,United States,Chicago,41.8483,-87.6517
65.55.106.139,US,United States,Boydton,36.6544,-78.3752
65.55.106.183,US,United States,Boydton,36.6544,-78.3752
65.55.110.197,US,United States,Redmond,47.6718,-122.1232
65.55.106.162,US,United States,Boydton,36.6544,-78.3752
65.55.106.182,US,United States,Boydton,36.6544,-78.3752
77.51.218.133,RU,Russia,None,55.7386,37.6068
83.149.3.27,RU,Russia,None,55.7386,37.6068
218.186.11.228,SG,Singapore,None,1.3667,103.8
218.186.11.12,SG,Singapore,None,1.3667,103.8
65.55.106.208,US,United States,Chicago,41.8483,-87.6517
65.55.207.100,US,United States,Redmond,47.6718,-122.1232
65.55.207.26,US,United States,Redmond,47.6718,-122.1232
72.14.193.66,None,None,None,47,8
91.42.168.153,DE,Germany,Kassel,51.3056,9.4652
65.55.207.45,US,United States,Redmond,47.6718,-122.1232
65.55.207.96,US,United States,Redmond,47.6718,-122.1232
168.167.220.254,BW,Botswana,None,-22,24
87.112.37.15,GB,United Kingdom,Brighton,50.8614,-0.1204
80.164.14.21,DK,Denmark,Hellerup,55.732,12.5709
65.55.106.179,US,United States,Boydton,36.6544,-78.3752
65.55.216.10,IE,Ireland,Dublin,53.3331,-6.2489
65.55.207.48,US,United States,Redmond,47.6718,-122.1232
92.234.17.65,GB,United Kingdom,Birmingham,52.5457,-1.8851
65.55.106.134,US,United States,Boydton,36.6544,-78.3752
65.55.106.233,US,United States,Chicago,41.8483,-87.6517
65.55.106.159,US,United States,Boydton,36.6544,-78.3752
65.55.106.115,SG,Singapore,Singapore,1.2931,103.8558
79.229.61.236,DE,Germany,Moelln,53.617,10.6874
61.89.27.53,JP,Japan,Nara,34.6853,135.8328
217.87.245.167,DE,Germany,Witten,51.4644,7.3739
65.55.215.74,US,United States,None,47.6062,-122.3321
65.55.107.179,US,United States,Redmond,47.6718,-122.1232
65.55.106.157,US,United States,Boydton,36.6544,-78.3752
65.55.106.133,US,United States,Boydton,36.6544,-78.3752
65.55.207.30,US,United States,Redmond,47.6718,-122.1232
61.183.15.9,CN,China,None,30.5801,114.2734
208.80.193.27,US,United States,None,37.751,-97.822
83.43.67.149,ES,Spain,Madrid,40.4167,-3.6837999999999997
65.55.106.186,US,United States,Boydton,36.6544,-78.3752
65.55.207.23,US,United States,Redmond,47.6718,-122.1232
128.54.6.208,US,United States,La Jolla,32.8473,-117.2742
65.55.207.76,US,United States,Redmond,47.6718,-122.1232
65.55.207.70,US,United States,Redmond,47.6718,-122.1232
65.55.207.78,US,United States,Redmond,47.6718,-122.1232
221.208.241.248,CN,China,None,45.75,126.65
65.55.106.207,US,United States,Redmond,47.6718,-122.1232
65.55.207.133,US,United States,Redmond,47.6718,-122.1232
65.55.207.99,US,United States,Redmond,47.6718,-122.1232
65.55.106.229,US,United States,Chicago,41.8483,-87.6517
220.181.7.33,CN,China,Beijing,39.9288,116.3889
220.181.7.23,CN,China,Beijing,39.9288,116.3889
133.70.80.17,JP,Japan,Shizuoka,34.9502,138.4317
212.84.97.184,GB,United Kingdom,None,51.4964,-0.1224
123.125.66.65,CN,China,Beijing,39.9288,116.3889
207.46.12.217,US,United States,Chicago,41.8483,-87.6517
207.46.12.207,US,United States,Chicago,41.8483,-87.6517
123.125.66.125,CN,China,Beijing,39.9288,116.3889
66.249.65.251,US,United States,None,37.751,-97.822
38.105.83.12,US,United States,Washington,38.9202,-77.0375
220.181.7.63,CN,China,Beijing,39.9288,116.3889
85.103.55.116,TR,Turkey,Istanbul,41.0318,28.9684
91.86.30.107,BE,Belgium,Ans,50.65,5.5333
123.125.66.83,CN,China,Beijing,39.9288,116.3889
208.80.193.40,US,United States,None,37.751,-97.822
60.52.86.7,MY,Malaysia,Bayan Lepas,5.3294,100.2907
128.176.85.113,DE,Germany,Münster,51.9597,7.6349
67.218.116.170,US,United States,None,37.751,-97.822
146.83.205.130,CL,Chile,Temuco,-38.7333,-72.6
86.132.49.124,GB,United Kingdom,East Grinstead,51.1167,-0.0167
190.178.65.153,AR,Argentina,Allen,-38.9774,-67.8271
62.254.10.169,GB,United Kingdom,Manchester,53.4688,-2.3119
66.249.65.240,US,United States,None,37.751,-97.822
64.118.27.112,CA,Canada,Westport,44.6833,-76.4
66.249.66.247,US,United States,None,37.751,-97.822
64.233.172.1,US,United States,None,37.751,-97.822
190.177.185.228,AR,Argentina,Bariloche,-41.15,-71.3
69.63.181.245,US,United States,None,37.751,-97.822
66.249.65.219,US,United States,None,37.751,-97.822
66.249.65.213,US,United States,None,37.751,-97.822
92.243.84.187,RU,Russia,None,55.7386,37.6068
66.249.65.236,US,United States,None,37.751,-97.822
123.125.66.122,CN,China,Beijing,39.9288,116.3889
92.236.82.48,GB,United Kingdom,Bonnyrigg,55.8733,-3.1051
66.249.67.23,US,United States,None,37.751,-97.822
220.181.7.17,CN,China,Beijing,39.9288,116.3889
220.181.7.88,CN,China,Beijing,39.9288,116.3889
207.46.12.25,US,United States,Chicago,41.8483,-87.6517
207.46.12.19,US,United States,Chicago,41.8483,-87.6517
66.249.65.147,US,United States,None,37.751,-97.822
207.46.204.231,US,United States,Chicago,41.8483,-87.6517
65.55.104.67,US,United States,Washington,38.7078,-78.1566
41.238.23.134,EG,Egypt,None,30.0355,31.223
65.55.104.53,US,United States,Washington,38.7078,-78.1566
65.55.106.113,SG,Singapore,Singapore,1.2931,103.8558
65.55.104.68,US,United States,Washington,38.7078,-78.1566
207.46.204.222,US,United States,Chicago,41.8483,-87.6517
65.55.104.70,US,United States,Washington,38.7078,-78.1566
207.46.12.60,US,United States,Chicago,41.8483,-87.6517
65.55.104.58,US,United States,Washington,38.7078,-78.1566
212.117.165.179,LU,Luxembourg,None,49.75,6.1667
65.55.104.60,US,United States,Washington,38.7078,-78.1566
139.130.192.34,AU,Australia,Campbellfield,-37.6833,144.95
65.55.104.74,US,United States,Washington,38.7078,-78.1566
207.46.12.72,US,United States,Chicago,41.8483,-87.6517
65.55.104.63,US,United States,Washington,38.7078,-78.1566
65.55.104.72,US,United States,Washington,38.7078,-78.1566
218.108.29.104,CN,China,None,30.2936,120.1614
134.206.126.189,FR,France,Lille,50.633,3.0586
41.182.204.226,,Namibia,Tsumeb,-19.2333,17.7167
85.115.58.180,DE,Germany,None,51.2993,9.491
203.6.203.78,AU,Australia,Randwick,-33.9144,151.2489
81.149.214.9,GB,United Kingdom,Kensington,51.5019,-0.2184
65.55.106.163,US,United States,Boydton,36.6544,-78.3752
123.125.66.128,CN,China,Beijing,39.9288,116.3889
66.220.153.245,US,United States,None,37.751,-97.822
207.46.204.164,US,United States,Chicago,41.8483,-87.6517
207.46.199.28,US,United States,Chicago,41.8483,-87.6517
162.38.184.98,FR,France,Montpellier,43.6109,3.8772
82.8.197.65,GB,United Kingdom,Wigan,53.5086,-2.5927
80.229.93.121,GB,United Kingdom,Manchester,53.417,-2.2315
207.46.204.205,US,United States,Chicago,41.8483,-87.6517
207.46.195.242,US,United States,Chicago,41.8483,-87.6517
207.46.204.166,US,United States,Chicago,41.8483,-87.6517
65.55.207.51,US,United States,Redmond,47.6718,-122.1232
193.219.186.211,LT,Republic of Lithuania,Kaunas,54.9,23.9
200.72.149.186,CL,Chile,None,-33.4378,-70.6503
86.147.183.211,GB,United Kingdom,Exmouth,50.6172,-3.4023
77.103.5.89,GB,United Kingdom,Liverpool,53.4754,-2.952
207.46.204.220,US,United States,Chicago,41.8483,-87.6517
195.93.21.36,GB,United Kingdom,None,51.4964,-0.1224
195.93.21.1,GB,United Kingdom,None,51.4964,-0.1224
195.93.21.42,GB,United Kingdom,None,51.4964,-0.1224
195.93.21.5,GB,United Kingdom,None,51.4964,-0.1224
195.93.21.8,GB,United Kingdom,None,51.4964,-0.1224
195.93.21.9,GB,United Kingdom,None,51.4964,-0.1224
195.93.21.70,GB,United Kingdom,None,51.4964,-0.1224
195.93.21.40,GB,United Kingdom,None,51.4964,-0.1224
195.93.21.100,GB,United Kingdom,None,51.4964,-0.1224
195.93.21.37,GB,United Kingdom,None,51.4964,-0.1224
195.93.21.3,GB,United Kingdom,None,51.4964,-0.1224
195.93.21.74,GB,United Kingdom,None,51.4964,-0.1224
190.95.83.35,CL,Chile,None,-33.4378,-70.6503
207.46.199.21,US,United States,Chicago,41.8483,-87.6517
187.149.125.35,MX,Mexico,None,19.4371,-99.0111
200.59.236.106,AR,Argentina,Neuquén,-38.95,-68.0667
207.46.204.232,US,United States,Chicago,41.8483,-87.6517
65.55.106.230,US,United States,Chicago,41.8483,-87.6517
86.167.66.215,GB,United Kingdom,Scarborough,54.2548,-0.4748
123.125.66.82,CN,China,Beijing,39.9288,116.3889
201.138.84.32,MX,Mexico,None,19.4371,-99.0111
207.46.12.164,US,United States,Chicago,41.8483,-87.6517
207.46.13.140,US,United States,None,47.6062,-122.3321
203.24.148.50,AU,Australia,Melbourne,-37.8103,144.9544
119.63.193.129,JP,Japan,None,35.69,139.69
208.115.138.254,US,United States,Easton,40.6957,-75.2865
140.147.236.194,US,United States,Washington,38.9122,-77.0177
220.181.125.68,CN,China,Beijing,39.9288,116.3889
201.241.105.239,CL,Chile,Santiago,-33.45,-70.6667
207.46.204.187,US,United States,Chicago,41.8483,-87.6517
81.103.107.191,GB,United Kingdom,Guildford,51.2336,-0.5996
65.55.207.94,US,United States,Redmond,47.6718,-122.1232
88.251.6.53,TR,Turkey,Ankara,39.923,32.8378
78.180.125.125,TR,Turkey,Istanbul,41.0585,28.9296
78.170.93.184,TR,Turkey,Trabzon,40.9965,39.7275
190.227.71.9,AR,Argentina,None,-34.6033,-58.3817
131.111.184.8,GB,United Kingdom,Cambridge,52.191,0.1249
65.55.106.204,US,United States,Redmond,47.6718,-122.1232
72.11.87.44,US,United States,Portland,45.5441,-122.6423
78.162.215.4,TR,Turkey,Ankara,39.923,32.8378
220.181.7.36,CN,China,Beijing,39.9288,116.3889
129.116.69.232,US,United States,Austin,30.2896,-97.7396
82.35.18.160,GB,United Kingdom,Oxford,51.7321,-1.2063
187.15.32.87,BR,Brazil,Rio de Janeiro,-22.9201,-43.3307
207.46.12.109,US,United States,Chicago,41.8483,-87.6517
207.46.199.33,US,United States,Chicago,41.8483,-87.6517
207.46.13.94,US,United States,None,47.6062,-122.3321
207.46.13.51,US,United States,None,47.6062,-122.3321
65.55.106.211,US,United States,Chicago,41.8483,-87.6517
68.80.196.76,US,United States,Philadelphia,39.9677,-75.1735
207.46.204.213,US,United States,Chicago,41.8483,-87.6517
125.165.178.232,ID,Indonesia,Muara Bungo,-1.4902,102.1149
68.2.158.155,US,United States,Mesa,33.4026,-111.7242
207.46.13.45,US,United States,None,47.6062,-122.3321
71.34.180.15,US,United States,Ankeny,41.7212,-93.5682
86.160.8.110,GB,United Kingdom,Bridgend,51.5086,-3.578
71.202.146.53,US,United States,Oakley,37.994,-121.7036
207.46.12.157,US,United States,Chicago,41.8483,-87.6517
188.45.234.35,AT,Austria,None,48.2,16.3667
86.151.110.168,GB,United Kingdom,Southampton,50.9171,-1.4248
62.203.196.110,CH,Switzerland,Dornach,47.4804,7.6164
205.188.116.6,US,United States,None,37.751,-97.822
87.126.162.69,BG,Bulgaria,Plovdiv,42.15,24.75
218.88.35.31,CN,China,Chengdu,30.6667,104.0667
190.137.207.94,AR,Argentina,Santa Fe,-31.6333,-60.7
193.157.203.121,NO,Norway,Oslo,59.905,10.7487
207.46.204.219,US,United States,Chicago,41.8483,-87.6517
207.183.232.130,US,United States,Roseville,38.7346,-121.234
71.202.16.157,US,United States,San Jose,37.3476,-121.887
91.132.35.222,GB,United Kingdom,None,51.4964,-0.1224
81.152.241.52,GB,United Kingdom,Liverpool,53.4106,-2.9779
88.182.101.197,FR,France,Paris,48.8925,2.3444
212.115.225.20,UA,Ukraine,Dnipro,48.4593,35.0386
189.173.6.172,MX,Mexico,Hermosillo,29.1026,-110.9773
65.55.207.54,US,United States,Redmond,47.6718,-122.1232
80.75.1.202,IR,Iran,None,35.6961,51.4231
85.145.157.10,NL,Netherlands,Zutphen,52.1511,6.1965
207.46.12.107,US,United States,Chicago,41.8483,-87.6517
207.46.199.13,US,United States,Chicago,41.8483,-87.6517
207.46.13.135,US,United States,None,47.6062,-122.3321
66.102.62.148,US,United States,Wapakoneta,40.569,-84.1774
58.96.89.126,AU,Australia,Exeter,-41.2975,146.9505
86.143.2.36,GB,United Kingdom,Maidstone,51.2539,0.5327
90.240.113.65,GB,United Kingdom,Crewe,53.2144,-2.3483
86.153.189.0,GB,United Kingdom,Hemel Hempstead,51.7639,-0.4531
131.111.37.93,GB,United Kingdom,Cambridge,52.191,0.1249
134.36.36.106,GB,United Kingdom,Dundee,56.482,-2.9356
134.36.36.98,GB,United Kingdom,Dundee,56.482,-2.9356
66.249.66.55,US,United States,None,37.751,-97.822
220.181.7.28,CN,China,Beijing,39.9288,116.3889
84.9.15.113,GB,United Kingdom,Reading,51.4563,-0.9711
125.163.165.84,ID,Indonesia,Jakarta,-6.1744,106.8294
71.185.144.111,US,United States,None,37.751,-97.822
68.206.137.36,US,United States,Eagle Pass,28.7028,-100.4818
123.125.66.75,CN,China,Beijing,39.9288,116.3889
220.181.66.165,CN,China,Beijing,39.9288,116.3889
78.161.41.227,TR,Turkey,Siirt,37.9326,41.9402
59.177.106.226,IN,India,New Delhi,28.6,77.2
203.82.81.79,MY,Malaysia,None,2.5,112.5
87.113.186.3,GB,United Kingdom,Hitchin,51.9492,-0.285
207.46.199.191,US,United States,Chicago,41.8483,-87.6517
202.29.18.253,TH,Thailand,None,13.75,100.4667
212.138.69.19,SA,Saudi Arabia,None,25,45
212.138.69.18,SA,Saudi Arabia,None,25,45
212.138.47.16,SA,Saudi Arabia,None,25,45
212.138.69.17,SA,Saudi Arabia,None,25,45
212.138.69.24,SA,Saudi Arabia,None,25,45
66.249.65.101,US,United States,None,37.751,-97.822
82.133.117.157,GB,United Kingdom,Tring,51.8023,-0.6023
72.152.246.116,US,United States,None,37.751,-97.822
88.191.117.43,FR,France,Courbevoie,48.8967,2.2567
117.199.121.84,IN,India,Jaipur,26.9167,75.8167
190.138.185.39,AR,Argentina,Buenos Aires,-34.6033,-58.3816
213.105.191.87,GB,United Kingdom,Aylesbury,51.7609,-0.8993
200.106.98.153,PE,Peru,Lima,-12.05,-77.05
90.195.174.244,GB,United Kingdom,Islington,51.5367,-0.0944
77.206.38.104,FR,France,Hayange,49.3343,6.0527
190.48.14.244,AR,Argentina,Almirante Brown,-34.7881,-58.4039
86.159.87.69,GB,United Kingdom,Newark on Trent,53.0667,-0.7833
71.136.42.54,US,United States,None,37.751,-97.822
82.132.248.18,GB,United Kingdom,None,51.4964,-0.1224
186.18.24.83,AR,Argentina,Lomas de Zamora,-34.7667,-58.4
131.111.30.16,GB,United Kingdom,Cambridge,52.191,0.1249
134.36.36.110,GB,United Kingdom,Dundee,56.482,-2.9356
134.36.36.113,GB,United Kingdom,Dundee,56.482,-2.9356
207.46.13.139,US,United States,None,47.6062,-122.3321
220.181.7.45,CN,China,Beijing,39.9288,116.3889
219.13.86.5,JP,Japan,None,35.69,139.69
41.254.1.217,LY,Libya,None,25,17
220.157.216.215,JP,Japan,Setagaya-ku,35.6333,139.65
208.80.193.1,US,United States,None,37.751,-97.822
75.154.99.159,CA,Canada,None,43.6319,-79.3716
123.109.85.148,KR,South Korea,Seoul,37.5985,126.9783
68.121.23.146,US,United States,Los Angeles,34.1074,-118.3652
72.14.164.135,CA,Canada,Hamilton,43.2055,-79.9004
129.34.20.17,US,United States,None,37.751,-97.822
220.181.7.82,CN,China,Beijing,39.9288,116.3889
78.102.178.237,CZ,Czechia,Prague,50.0765,14.5104
202.28.78.138,TH,Thailand,Bangkok,13.7833,100.5167
81.101.136.236,GB,United Kingdom,Bexley,51.4406,0.1446
201.67.207.227,BR,Brazil,Gaspar,-26.924,-48.9826
109.178.137.101,GR,Greece,None,37.9667,23.7167
86.147.246.25,GB,United Kingdom,Longfield,51.3678,0.2767
189.202.68.239,MX,Mexico,Tijuana,32.5027,-117.0037
85.104.107.66,TR,Turkey,Ankara,39.923,32.8378
66.235.124.59,US,United States,None,37.751,-97.822
72.44.48.41,US,United States,Ashburn,39.0481,-77.4728
190.178.117.212,AR,Argentina,Neuquén,-38.95,-68.0667
122.29.116.151,JP,Japan,None,35.69,139.69
85.207.245.213,CZ,Czechia,Jablonne v Podjestedi,50.7667,14.7833
66.220.145.246,US,United States,None,37.751,-97.822
123.125.66.67,CN,China,Beijing,39.9288,116.3889
78.101.238.131,QA,Qatar,Al Khor,25.6839,51.5058
64.38.3.50,US,United States,None,37.751,-97.822
207.46.12.165,US,United States,Chicago,41.8483,-87.6517
207.46.12.203,US,United States,Chicago,41.8483,-87.6517
84.234.228.182,NO,Norway,Larvik,59.056,10.1248
137.205.88.118,GB,United Kingdom,Coventry,52.3833,-1.5833
186.99.234.168,CO,Colombia,None,4.5981,-74.0758
86.145.41.154,GB,United Kingdom,Mount Bures,51.9827,0.7325
190.40.238.53,PE,Peru,Lima,-12.05,-77.05
88.234.220.119,TR,Turkey,Istanbul,41.0186,28.9322
89.241.103.13,GB,United Kingdom,Beaconsfield,51.6122,-0.6473
201.239.161.63,CL,Chile,Santiago,-33.45,-70.6667
207.46.204.191,US,United States,Chicago,41.8483,-87.6517
91.178.216.10,BE,Belgium,Leuze,50.5523,3.7431
151.151.16.15,US,United States,None,37.751,-97.822
207.46.12.68,US,United States,Chicago,41.8483,-87.6517
66.249.67.11,US,United States,None,37.751,-97.822
220.181.7.107,CN,China,Beijing,39.9288,116.3889
207.46.13.100,US,United States,None,47.6062,-122.3321
201.253.225.216,AR,Argentina,None,-34.6033,-58.3817
207.46.12.63,US,United States,Chicago,41.8483,-87.6517
189.104.91.92,BR,Brazil,None,-22.8305,-43.2192
219.124.174.189,JP,Japan,Takamatsu,34.3621,134.1415
71.198.173.68,US,United States,Richmond,37.94,-122.362
207.46.12.26,US,United States,Chicago,41.8483,-87.6517
201.164.163.141,MX,Mexico,Ciudad Nicolás Romero,19.5972,-99.3221
129.187.83.108,DE,Germany,None,51.2993,9.491
111.68.24.27,ID,Indonesia,Yogyakarta,-7.8014,110.3647
85.110.224.111,TR,Turkey,Kahramanmaraş,37.5847,36.9264
194.8.75.157,GB,United Kingdom,None,51.4964,-0.1224
65.55.216.11,IE,Ireland,Dublin,53.3331,-6.2489
88.182.37.178,FR,France,Redon,47.65,-2.0833
208.80.193.43,US,United States,None,37.751,-97.822
193.255.60.254,TR,Turkey,Yalova,40.6108,29.3412
121.52.159.232,PK,Pakistan,None,30,70
94.192.63.155,GB,United Kingdom,Manchester,53.5114,-2.3202
220.253.151.45,AU,Australia,Dianella,-31.8882,115.8719
201.79.142.200,BR,Brazil,Joao Neiva,-19.7253,-40.4376
94.1.65.114,GB,United Kingdom,Newtownabbey,54.6598,-5.9086
66.249.65.252,US,United States,None,37.751,-97.822
207.46.12.205,US,United States,Chicago,41.8483,-87.6517
129.241.46.118,NO,Norway,Trondheim,63.4167,10.4167
131.111.35.138,GB,United Kingdom,Cambridge,52.191,0.1249
74.125.16.1,US,United States,Tulsa,36.154,-95.9928
193.33.26.121,RU,Russia,None,55.7386,37.6068
80.176.84.62,GB,United Kingdom,Coulsdon,51.3096,-0.1732
87.173.128.134,DE,Germany,Ansbach,49.3048,10.5931
192.234.253.4,US,United States,Oviedo,28.6513,-81.2066
88.117.88.100,AT,Austria,Ferlach,46.5269,14.3019
204.236.203.64,US,United States,Ashburn,39.0481,-77.4728
64.237.233.140,PR,Puerto Rico,San Juan,18.4663,-66.1057
159.189.131.110,US,United States,None,37.751,-97.822
208.44.221.71,US,United States,None,37.751,-97.822
204.158.157.32,US,United States,Odessa,31.889,-102.3548
204.236.198.191,US,United States,Ashburn,39.0481,-77.4728
174.129.62.59,US,United States,Ashburn,39.0481,-77.4728
207.46.13.101,US,United States,None,47.6062,-122.3321
200.104.102.234,CL,Chile,Santiago,-33.45,-70.6667
96.31.230.202,US,United States,None,37.751,-97.822
187.3.4.196,BR,Brazil,São Bernardo do Campo,-23.7,-46.55
75.255.20.247,US,United States,None,37.751,-97.822
59.183.56.247,IN,India,Mumbai,18.975,72.8258
78.166.161.21,TR,Turkey,Gaziantep,37.0484,37.3437
186.124.231.159,AR,Argentina,Baradero,-33.7967,-59.5208
200.55.192.130,CL,Chile,None,-33.4378,-70.6503
93.35.153.247,IT,Italy,None,43.1479,12.1097
66.249.65.248,US,United States,None,37.751,-97.822
190.45.150.203,CL,Chile,Santiago,-33.45,-70.6667
66.249.65.199,US,United States,None,37.751,-97.822
66.249.65.241,US,United States,None,37.751,-97.822
81.193.179.207,PT,Portugal,Beja,37.9689,-8.0266
66.249.65.195,US,United States,None,37.751,-97.822
217.131.85.167,TR,Turkey,Istanbul,41.0279,28.94
121.217.253.42,AU,Australia,None,-33.494,143.2104
134.36.36.109,GB,United Kingdom,Dundee,56.482,-2.9356
66.249.71.14,US,United States,None,37.751,-97.822
94.100.181.99,RU,Russia,None,55.7386,37.6068
207.46.12.14,US,United States,Chicago,41.8483,-87.6517
220.181.7.109,CN,China,Beijing,39.9288,116.3889
190.177.37.247,AR,Argentina,Lomas de Zamora,-34.7667,-58.4
88.110.142.186,GB,United Kingdom,Whitchurch,52.9142,-2.8055
150.70.84.48,JP,Japan,None,35.69,139.69
207.46.199.217,US,United States,Chicago,41.8483,-87.6517
131.111.113.4,GB,United Kingdom,Cambridge,52.191,0.1249
194.83.252.163,GB,United Kingdom,None,51.4964,-0.1224
59.177.98.161,IN,India,New Delhi,28.6,77.2
80.3.184.52,GB,United Kingdom,Nottingham,52.9063,-1.2316
207.46.204.161,US,United States,Chicago,41.8483,-87.6517
207.46.12.22,US,United States,Chicago,41.8483,-87.6517
62.62.128.161,FR,France,Vertou,47.1687,-1.4693
86.170.3.133,GB,United Kingdom,Dronfield,53.2995,-1.474
193.145.124.210,ES,Spain,San Cristóbal de La Laguna,28.4853,-16.3201
123.125.66.94,CN,China,Beijing,39.9288,116.3889
109.172.40.197,RU,Russia,Lipetsk,52.6186,39.5689
92.43.64.71,GB,United Kingdom,Grimsby,53.4827,-0.0332
190.138.81.82,AR,Argentina,Concordia,-31.4,-58.0333
212.183.222.26,ES,Spain,León,42.6,-5.5703
94.197.186.18,GB,United Kingdom,None,51.4964,-0.1224
207.46.12.69,US,United States,Chicago,41.8483,-87.6517
88.209.233.194,HU,Hungary,None,47.4925,19.0514
80.176.145.20,GB,United Kingdom,Aylesbury,51.8058,-0.806
207.46.12.23,US,United States,Chicago,41.8483,-87.6517
86.170.206.83,GB,United Kingdom,Alloa,56.1069,-3.7534
187.12.84.146,BR,Brazil,None,-22.8305,-43.2192
209.85.228.84,US,United States,None,37.751,-97.822
62.80.246.145,LT,Republic of Lithuania,Šiauliai,55.9333,23.3167
86.162.155.237,GB,United Kingdom,Wantage,51.5904,-1.3771
66.249.66.110,US,United States,None,37.751,-97.822
92.240.68.153,LV,Latvia,Riga,56.95,24.1
131.111.248.8,GB,United Kingdom,Cambridge,52.191,0.1249
88.131.106.22,SE,Sweden,None,59.3247,18.056
81.151.179.228,GB,United Kingdom,Liskeard,50.4645,-4.4648
190.174.18.228,AR,Argentina,La Plata,-34.9314,-57.9489
88.27.197.3,ES,Spain,Pantoja,40.0434,-3.8327999999999998
220.181.7.104,CN,China,Beijing,39.9288,116.3889
65.55.107.181,US,United States,Redmond,47.6718,-122.1232
207.46.204.203,US,United States,Chicago,41.8483,-87.6517
190.47.29.75,CL,Chile,Viña del Mar,-33.0081,-71.5197
119.235.237.93,JP,Japan,None,35.69,139.69
69.5.144.145,US,United States,Johnston,41.673,-93.7028
65.55.106.107,SG,Singapore,Singapore,1.2931,103.8558
207.46.195.204,US,United States,Chicago,41.8483,-87.6517
207.46.12.120,US,United States,Chicago,41.8483,-87.6517
219.124.174.205,JP,Japan,Takamatsu,34.3621,134.1415
79.31.146.101,IT,Italy,Zanica,45.6409,9.6857
38.99.96.210,US,United States,None,37.751,-97.822
210.7.2.235,FJ,Fiji,Suva,-18.1333,178.4167
95.130.137.74,IT,Italy,Marano Lagunare,45.7635,13.167300000000001
174.121.75.42,US,United States,Dallas,32.9322,-96.8353
66.249.71.72,US,United States,None,37.751,-97.822
212.124.7.164,RU,Russia,Shuya,56.8553,41.3586
188.103.129.230,DE,Germany,Saalfeld,50.6516,11.3764
81.215.160.204,TR,Turkey,Yozgat,39.7935,34.9076
87.113.16.233,GB,United Kingdom,Abbots Langley,51.7052,-0.4173
58.175.155.1,AU,Australia,None,-33.494,143.2104
200.89.58.90,CL,Chile,Punta Arenas,-53.15,-70.9167
115.75.0.99,VN,Vietnam,Ho Chi Minh City,10.8142,106.6438
66.249.66.11,US,United States,None,37.751,-97.822
88.246.202.88,TR,Turkey,Izmir,38.46,27.16
83.220.220.87,IE,Ireland,Dungarvan,52.0881,-7.6253
190.131.103.58,EC,Ecuador,Guayaquil,-2.1667,-79.9
129.7.111.4,US,United States,Houston,29.834,-95.4342
190.21.28.255,CL,Chile,None,-33.4378,-70.6503
207.75.211.180,US,United States,Engadine,46.204,-85.6005
66.249.67.37,US,United States,None,37.751,-97.822
65.49.2.18,US,United States,None,37.751,-97.822
202.88.240.69,IN,India,Thiruvananthapuram,8.5069,76.9569
217.16.22.72,RU,Russia,None,55.7386,37.6068
188.27.217.147,RO,Romania,Cluj-Napoca,46.7667,23.6
75.201.49.186,US,United States,None,37.751,-97.822
83.204.231.116,FR,France,Flexanville,48.8534,1.7378
87.64.38.120,BE,Belgium,Brussels,50.8466,4.3528
198.7.235.70,US,United States,Barrington,41.7443,-71.3175
89.223.219.174,HU,Hungary,None,47.4925,19.0514
71.233.237.37,US,United States,Brighton,42.3478,-71.1566
65.55.106.203,US,United States,Redmond,47.6718,-122.1232
209.82.175.238,US,United States,None,37.751,-97.822
207.46.199.190,US,United States,Chicago,41.8483,-87.6517
65.55.106.227,US,United States,Chicago,41.8483,-87.6517
186.60.4.247,AR,Argentina,San Juan,-31.5375,-68.5364
86.138.31.62,GB,United Kingdom,Annan,54.9884,-3.2565
72.49.217.64,US,United States,Cincinnati,39.0713,-84.3758
187.79.118.167,BR,Brazil,Fortaleza,-3.7227,-38.5247
201.231.2.220,AR,Argentina,San Isidro,-34.4708,-58.5286
190.40.91.123,PE,Peru,None,-12.0433,-77.0283
83.57.31.140,ES,Spain,San Jose,36.7605,-2.1091
66.249.67.101,US,United States,None,37.751,-97.822
118.210.129.61,AU,Australia,Adelaide,-34.9287,138.5986
65.55.216.54,IE,Ireland,Dublin,53.3331,-6.2489
203.160.128.8,ID,Indonesia,Jakarta,-6.1744,106.8294
85.12.25.245,NL,Netherlands,None,52.3824,4.8995
125.161.22.18,ID,Indonesia,Pontianak,-0.0319,109.325
119.152.129.57,PK,Pakistan,Lahore,31.4888,74.3686
41.238.20.40,EG,Egypt,None,30.0355,31.223
217.131.211.141,TR,Turkey,Bursa,40.1686,28.9208
91.202.107.59,UA,Ukraine,Kyiv,50.4333,30.5167
131.111.186.95,GB,United Kingdom,Cambridge,52.191,0.1249
88.235.240.102,TR,Turkey,Istanbul,41.0177,28.9744
81.242.144.2,BE,Belgium,Sinsin,50.3333,5.3667
81.157.12.170,GB,United Kingdom,New Milton,50.7528,-1.658
212.253.165.140,TR,Turkey,Gaziantep,37.25,37.2
216.188.244.90,US,United States,Waco,31.5765,-97.1786
72.14.193.2,None,None,None,47,8
217.18.20.253,GB,United Kingdom,City of Westminster,51.5085,-0.1257
134.2.104.166,DE,Germany,Landkreis Tuebingen,48.5369,9.0536
86.189.1.82,GB,United Kingdom,None,51.4964,-0.1224
85.103.37.1,TR,Turkey,Istanbul,40.9887,29.0236
89.248.172.14,SC,Seychelles,None,-4.5833,55.6667
217.207.136.226,GB,United Kingdom,London,51.5161,-0.0949
87.220.53.146,ES,Spain,Oviedo,43.3603,-5.8448
80.13.147.129,FR,France,None,49.2984,0.8738
78.183.35.39,TR,Turkey,Istanbul,41.0504,28.9184
62.28.37.67,PT,Portugal,Amarante,41.2495,-8.1023
93.138.57.215,HR,Croatia,Zagreb,45.7333,15.9667
70.112.233.74,US,United States,Austin,30.2315,-97.7223
86.154.45.56,GB,United Kingdom,Newcastle upon Tyne,55.0178,-1.5694
201.234.84.50,EC,Ecuador,None,-2,-77.5
189.168.227.1,MX,Mexico,None,19.4371,-99.0111
95.103.172.254,SK,Slovakia,Žilina,49.1992,18.8215
88.242.170.52,TR,Turkey,Adapazarı,40.8406,30.4289
86.137.187.124,GB,United Kingdom,Ely,52.4053,0.2219
147.47.241.114,KR,South Korea,Seoul,37.5985,126.9783
65.102.152.96,US,United States,Seattle,47.5412,-122.275
69.63.181.247,US,United States,None,37.751,-97.822
207.46.12.212,US,United States,Chicago,41.8483,-87.6517
186.105.113.133,CL,Chile,Santiago,-33.45,-70.6667
66.249.67.55,US,United States,None,37.751,-97.822
121.218.59.47,AU,Australia,None,-33.494,143.2104
200.127.26.76,AR,Argentina,San Isidro,-34.4708,-58.5286
220.181.7.54,CN,China,Beijing,39.9288,116.3889
24.240.203.106,US,United States,St Louis,38.6669,-90.3225
190.177.158.244,AR,Argentina,Bariloche,-41.15,-71.3
165.98.236.75,NI,Nicaragua,None,13,-85
148.145.48.99,AU,Australia,Sydney,-33.8591,151.2002
66.249.67.78,US,United States,None,37.751,-97.822
59.165.135.78,IN,India,None,20,77
190.161.13.54,CL,Chile,Santiago,-33.45,-70.6667
65.55.106.232,US,United States,Chicago,41.8483,-87.6517
202.129.240.20,IN,India,Anand,22.5667,72.9333
222.124.203.10,ID,Indonesia,Bandung,-6.9222,107.6069
131.183.246.157,US,United States,Toledo,41.6712,-83.606
81.108.91.51,GB,United Kingdom,Watford,51.6553,-0.396
88.96.198.94,GB,United Kingdom,None,51.4964,-0.1224
204.218.240.159,US,United States,None,37.751,-97.822
58.173.41.198,AU,Australia,None,-33.494,143.2104
95.105.166.195,SK,Slovakia,Bratislava,48.1482,17.1067
65.55.207.121,US,United States,Redmond,47.6718,-122.1232
64.255.180.164,US,United States,Santa Clara,37.3483,-121.9844
77.220.15.146,KE,Kenya,None,1,38
193.190.117.55,BE,Belgium,Ghent,51.05,3.7167
65.55.106.135,US,United States,Boydton,36.6544,-78.3752
162.38.231.76,FR,France,Montpellier,43.6109,3.8772
190.176.225.75,AR,Argentina,Pontevedra,-34.7517,-58.7117
86.142.91.162,GB,United Kingdom,Derby,52.9057,-1.5068000000000001
78.48.132.230,DE,Germany,Hueckelhoven,51.0555,6.2266
201.209.202.141,VE,Venezuela,Ambrosio,10.4272,-71.4558
118.68.49.100,VN,Vietnam,None,16,106
95.32.138.48,RU,Russia,Voronezh,51.6664,39.17
188.115.26.164,LU,Luxembourg,None,49.75,6.1667
95.147.156.79,GB,United Kingdom,Folkestone,51.0746,1.1448
79.131.203.48,GR,Greece,Nafplion,37.5636,22.8075
207.46.195.216,US,United States,Chicago,41.8483,-87.6517
207.46.204.157,US,United States,Chicago,41.8483,-87.6517
195.93.21.34,GB,United Kingdom,None,51.4964,-0.1224
195.93.21.103,GB,United Kingdom,None,51.4964,-0.1224
88.226.190.79,TR,Turkey,None,41.0214,28.9948
130.18.201.65,US,United States,Starkville,33.4156,-88.7433
65.55.106.161,US,United States,Boydton,36.6544,-78.3752
190.25.97.30,CO,Colombia,Bogotá,4.6492,-74.0628
141.65.161.69,DE,Germany,None,51.2993,9.491
66.249.71.122,US,United States,None,37.751,-97.822
69.86.163.198,US,United States,None,37.751,-97.822
138.100.13.40,ES,Spain,Madrid,40.4167,-3.6837999999999997
216.155.41.11,US,United States,None,37.751,-97.822
70.143.72.10,US,United States,Oakland,37.8431,-122.2402
66.249.65.118,US,United States,None,37.751,-97.822
66.249.65.91,US,United States,None,37.751,-97.822
220.181.7.43,CN,China,Beijing,39.9288,116.3889
84.9.15.91,GB,United Kingdom,Reading,51.4563,-0.9711
78.140.138.39,NL,Netherlands,None,52.3824,4.8995
72.94.249.38,US,United States,Phoenixville,40.1267,-75.5272
92.240.68.152,LV,Latvia,Riga,56.95,24.1
201.251.98.141,AR,Argentina,Chillar,-37.3,-59.9833
81.213.125.123,TR,Turkey,Istanbul,41.0588,28.9231
188.56.252.215,TR,Turkey,None,41.0214,28.9948
220.181.7.84,CN,China,Beijing,39.9288,116.3889
219.117.193.20,JP,Japan,Yokohama,35.3608,139.5361
131.111.30.57,GB,United Kingdom,Cambridge,52.191,0.1249
121.10.111.162,CN,China,None,23.1167,113.25
92.237.78.233,GB,United Kingdom,Hounslow,51.4667,-0.35
84.17.11.114,RU,Russia,St Petersburg,59.8944,30.2642
87.79.175.136,DE,Germany,Cologne,50.9314,6.9526
92.143.147.189,FR,France,Orcieres,44.6839,6.3258
86.149.27.173,GB,United Kingdom,Spalding,52.8054,-0.1667
87.77.155.168,DE,Germany,Berlin,52.5167,13.4
71.134.241.155,US,United States,None,37.751,-97.822
88.251.253.113,TR,Turkey,Samsun,41.0966,36.5457
66.220.153.250,US,United States,None,37.751,-97.822
207.46.195.207,US,United States,Chicago,41.8483,-87.6517
207.46.195.205,US,United States,Chicago,41.8483,-87.6517
190.184.83.117,NI,Nicaragua,None,13,-85
69.63.189.250,US,United States,None,37.751,-97.822
203.152.210.122,JP,Japan,None,35.69,139.69
134.36.36.112,GB,United Kingdom,Dundee,56.482,-2.9356
131.111.119.34,GB,United Kingdom,Cambridge,52.191,0.1249
134.36.36.105,GB,United Kingdom,Dundee,56.482,-2.9356
131.111.224.54,GB,United Kingdom,Cambridge,52.191,0.1249
131.111.37.72,GB,United Kingdom,Cambridge,52.191,0.1249
80.177.107.182,GB,United Kingdom,Leigh-on-Sea,51.5547,0.651
200.169.84.236,BR,Brazil,São Paulo,-23.627,-46.635
220.181.7.48,CN,China,Beijing,39.9288,116.3889
201.24.176.108,BR,Brazil,Goiânia,-16.6402,-49.2599
207.46.204.168,US,United States,Chicago,41.8483,-87.6517
201.17.96.9,BR,Brazil,Rio de Janeiro,-22.9201,-43.3307
207.46.12.163,US,United States,Chicago,41.8483,-87.6517
88.110.184.44,GB,United Kingdom,Doncaster,53.497,-1.1821
207.46.12.214,US,United States,Chicago,41.8483,-87.6517
150.70.66.183,JP,Japan,None,35.69,139.69
92.114.149.154,MD,Republic of Moldova,None,47.0188,28.8128
81.129.143.78,GB,United Kingdom,Leicester,52.6474,-1.0865
178.79.128.23,GB,United Kingdom,London,51.5161,-0.0949
86.29.246.143,GB,United Kingdom,Loughborough,52.7667,-1.2
58.61.164.19,CN,China,None,23.1167,113.25
207.46.12.21,US,United States,Chicago,41.8483,-87.6517
192.100.112.211,GB,United Kingdom,None,51.4964,-0.1224
207.46.12.29,US,United States,Chicago,41.8483,-87.6517
212.45.26.214,RU,Russia,Moscow,55.7522,37.6156
212.113.36.33,UA,Ukraine,None,50.45,30.5233
196.192.40.21,MG,Madagascar,None,-20,47
82.154.14.192,PT,Portugal,Sintra,38.801,-9.3783
24.89.237.110,CA,Canada,Dartmouth,44.6819,-63.5768
193.62.154.252,GB,United Kingdom,None,51.4964,-0.1224
205.178.184.155,US,United States,Jacksonville,30.1459,-81.5739
83.216.132.224,GB,United Kingdom,Chard,50.8736,-2.9627
66.249.67.52,US,United States,None,37.751,-97.822
78.169.156.26,TR,Turkey,Batman,37.8829,41.2028
221.38.234.102,JP,Japan,None,35.69,139.69
220.253.148.115,AU,Australia,Dianella,-31.8882,115.8719
88.209.214.246,HU,Hungary,Nyiregyhaza,47.95,21.7167
92.23.15.195,GB,United Kingdom,Preston,53.9008,-2.7742
200.7.224.18,EC,Ecuador,None,-2,-77.5
217.14.6.72,NO,Norway,Oslo,59.905,10.7487
205.175.121.68,US,United States,Seattle,47.6849,-122.2968
207.46.193.48,US,United States,Chicago,41.8483,-87.6517
190.216.56.34,AR,Argentina,None,-34.6033,-58.3817
207.46.204.173,US,United States,Chicago,41.8483,-87.6517
207.46.12.65,US,United States,Chicago,41.8483,-87.6517
201.213.177.111,AR,Argentina,San Fernando,-34.442,-58.5574
207.46.12.16,US,United States,Chicago,41.8483,-87.6517
129.123.172.138,US,United States,Logan,41.6412,-111.8966
76.188.204.130,US,United States,Aurora,41.3176,-81.3454
220.181.7.44,CN,China,Beijing,39.9288,116.3889
93.158.147.30,RU,Russia,None,55.7386,37.6068
84.9.15.88,GB,United Kingdom,Reading,51.4563,-0.9711
87.117.190.71,RU,Russia,Kazan’,55.75,49.1333
61.64.137.220,TW,Taiwan,None,23.5,121
86.148.224.206,GB,United Kingdom,Liverpool,53.3596,-2.8315
81.213.163.250,TR,Turkey,Istanbul,41.0177,28.9744
66.235.124.73,US,United States,None,37.751,-97.822
119.225.90.242,AU,Australia,Lugarno,-33.9827,151.0418
202.173.180.65,AU,Australia,Myrniong,-37.6167,144.35
80.4.121.82,GB,United Kingdom,Waterbeach,52.2599,0.2288
85.92.222.254,GB,United Kingdom,Northolt,51.5333,-0.3667
81.144.199.141,GB,United Kingdom,Ipswich,52.0713,1.1444
212.69.53.218,GB,United Kingdom,Hinckley,52.5139,-1.3412
81.102.15.200,GB,United Kingdom,Egham,51.422,-0.5545
200.90.194.2,CL,Chile,None,-33.4378,-70.6503
109.205.114.162,IQ,Iraq,None,33,44
93.158.147.29,RU,Russia,None,55.7386,37.6068
91.111.70.120,GB,United Kingdom,None,51.4964,-0.1224
78.105.202.139,GB,United Kingdom,None,51.4964,-0.1224
187.35.240.162,BR,Brazil,Nova Odessa,-22.7816,-47.2713
193.105.254.165,UA,Ukraine,None,50.45,30.5233
91.109.114.7,GB,United Kingdom,Rugby,52.35,-1.2833
81.192.199.83,MA,Morocco,Marrakesh,31.6315,-8.0083
190.208.109.4,CL,Chile,None,-33.4378,-70.6503
78.145.213.196,GB,United Kingdom,Tamworth,52.6158,-1.6663999999999999
62.24.222.132,GB,United Kingdom,None,51.4964,-0.1224
62.24.222.131,GB,United Kingdom,None,51.4964,-0.1224
76.119.140.119,US,United States,Boston,42.3347,-71.0375
96.21.101.144,CA,Canada,Dosquet,46.4684,-71.5285
75.180.228.114,US,United States,Bayboro,35.1526,-76.7518
205.151.118.95,CA,Canada,Shefford-Ouest,45.3501,-72.5658
72.14.164.169,CA,Canada,Hamilton,43.2055,-79.9004
72.14.164.150,CA,Canada,Hamilton,43.2055,-79.9004
67.195.111.153,US,United States,None,37.751,-97.822
72.14.164.158,CA,Canada,Hamilton,43.2055,-79.9004
66.249.67.44,US,United States,None,37.751,-97.822
72.14.164.181,CA,Canada,Hamilton,43.2055,-79.9004
72.14.164.177,CA,Canada,Hamilton,43.2055,-79.9004
72.14.164.162,CA,Canada,Hamilton,43.2055,-79.9004
72.14.164.171,CA,Canada,Hamilton,43.2055,-79.9004
72.14.164.137,CA,Canada,Hamilton,43.2055,-79.9004
129.123.205.101,US,United States,Logan,41.6412,-111.8966
72.14.164.154,CA,Canada,Hamilton,43.2055,-79.9004
72.14.164.195,CA,Canada,Hamilton,43.2055,-79.9004
72.14.164.197,CA,Canada,Hamilton,43.2055,-79.9004
72.14.164.148,CA,Canada,Hamilton,43.2055,-79.9004
72.14.164.160,CA,Canada,Hamilton,43.2055,-79.9004
72.14.164.182,CA,Canada,Hamilton,43.2055,-79.9004
72.14.164.174,CA,Canada,Hamilton,43.2055,-79.9004
84.48.34.216,NO,Norway,None,59.95,10.75
95.108.142.150,RU,Russia,None,55.7386,37.6068
119.63.198.40,JP,Japan,None,35.69,139.69
82.69.5.43,GB,United Kingdom,Hackney,51.5591,-0.0538
72.14.164.198,CA,Canada,Hamilton,43.2055,-79.9004
86.62.102.177,RU,Russia,Moscow,55.7522,37.6156
203.131.252.14,HK,Hong Kong,None,22.25,114.1667
66.249.67.15,US,United States,None,37.751,-97.822
212.178.14.145,UA,Ukraine,Odesa,46.4775,30.7326
212.117.183.163,LU,Luxembourg,None,49.75,6.1667
124.219.26.209,TW,Taiwan,None,23.5,121
65.55.107.180,US,United States,Redmond,47.6718,-122.1232
128.208.152.99,US,United States,Seattle,47.6633,-122.3022
118.100.69.159,MY,Malaysia,Johor Bahru,1.4655,103.7578
122.107.229.202,AU,Australia,Brighton East,-37.9023,145.0173
150.70.84.46,JP,Japan,None,35.69,139.69
65.55.216.53,IE,Ireland,Dublin,53.3331,-6.2489
65.55.106.132,US,United States,Boydton,36.6544,-78.3752
65.55.106.131,US,United States,Boydton,36.6544,-78.3752
65.55.106.155,US,United States,Boydton,36.6544,-78.3752
67.195.111.183,US,United States,None,37.751,-97.822
66.235.124.54,US,United States,None,37.751,-97.822
65.55.207.98,US,United States,Redmond,47.6718,-122.1232
65.55.106.181,US,United States,Boydton,36.6544,-78.3752
65.55.207.135,US,United States,Redmond,47.6718,-122.1232
65.55.216.33,IE,Ireland,Dublin,53.3331,-6.2489
98.118.208.230,US,United States,None,37.751,-97.822
121.215.214.157,AU,Australia,Baulkham Hills,-33.7588,150.9929
67.195.115.153,US,United States,None,37.751,-97.822
67.195.112.50,US,United States,None,37.751,-97.822
93.187.161.104,AM,Armenia,None,40,45
94.52.91.54,RO,Romania,Giurgiu,43.8833,25.9667
82.198.250.66,GB,United Kingdom,None,51.4964,-0.1224
200.43.249.254,AR,Argentina,None,-34.6033,-58.3817
80.162.198.240,DK,Denmark,Vejle,55.7093,9.5357
128.40.184.124,GB,United Kingdom,London,51.5161,-0.0949
91.77.235.246,RU,Russia,Moscow,55.7522,37.6156
65.244.122.243,US,United States,None,37.751,-97.822
66.249.71.27,US,United States,None,37.751,-97.822
211.232.57.21,KR,South Korea,None,37.5112,126.97409999999999
79.137.233.136,RU,Russia,None,55.7386,37.6068
61.247.222.45,KR,South Korea,None,37.5112,126.97409999999999
190.43.71.63,PE,Peru,Lima,-12.05,-77.05
128.253.177.65,US,United States,Ithaca,42.4474,-76.4837
216.38.35.125,US,United States,Pine Island,44.211,-92.6613
80.177.31.148,GB,United Kingdom,Oxford,51.7971,-1.1854
77.49.57.214,GR,Greece,Ialysos,36.4,28.1667
200.17.83.66,BR,Brazil,Venancio Aires,-29.5421,-52.2196
67.160.102.66,US,United States,Seattle,47.6116,-122.3056
129.128.152.33,CA,Canada,Edmonton,53.521,-113.5324
61.23.221.9,JP,Japan,Sagamihara,35.5298,139.404
84.29.48.147,NL,Netherlands,Venlo,51.3675,6.1476
98.192.4.251,US,United States,Atlanta,33.7984,-84.3883
192.104.39.2,US,United States,St Louis,38.6185,-90.2564
74.58.211.234,CA,Canada,Beaupre,47.0499,-70.8922
64.125.222.16,US,United States,Hutchinson,38.055,-97.9311
173.162.73.9,US,United States,Homestead,25.2846,-80.6246
38.99.97.103,US,United States,None,37.751,-97.822
220.181.7.32,CN,China,Beijing,39.9288,116.3889
24.22.125.177,US,United States,Eugene,44.0682,-123.0819
65.55.106.136,US,United States,Boydton,36.6544,-78.3752
131.112.16.220,JP,Japan,Tokyo,35.685,139.7514
74.107.163.16,US,United States,None,37.751,-97.822
187.137.24.236,MX,Mexico,Ciudad Obregón,27.4864,-109.9408
212.183.140.61,GB,United Kingdom,None,51.4964,-0.1224
203.185.133.16,TH,Thailand,Bangkok,13.754,100.5014
200.12.205.154,AR,Argentina,None,-34.6033,-58.3817
89.0.182.218,DE,Germany,Cologne,50.9685,7.0054
207.46.199.194,US,United States,Chicago,41.8483,-87.6517
141.84.65.44,DE,Germany,Munich,48.15,11.5833
151.20.39.192,IT,Italy,Milan,45.4643,9.1895
117.196.146.126,IN,India,Ernakulam,9.9833,76.2833
90.163.140.157,ES,Spain,Huesca,42.1362,-0.4087
81.204.70.179,NL,Netherlands,Amsterdam,52.3951,4.929
77.224.172.132,ES,Spain,Madrid,40.4165,-3.7026
84.18.136.2,IT,Italy,Bolzano,46.4907,11.3398
80.42.27.202,GB,United Kingdom,Peterborough,52.6,-0.2667
78.141.73.219,SK,Slovakia,Brezno,48.7357,19.4638
154.8.20.107,GB,United Kingdom,None,51.4964,-0.1224
83.17.87.206,PL,Poland,Karczew,52.08,21.2485
193.10.145.40,SE,Sweden,None,59.3247,18.056
87.64.139.75,BE,Belgium,Courcelles,50.4667,4.3667
144.13.140.135,US,United States,Menomonie,44.8718,-91.9265
144.13.137.28,US,United States,Menomonie,44.8718,-91.9265
144.13.136.63,US,United States,Menomonie,44.8718,-91.9265
84.96.6.162,FR,France,None,48.8582,2.3387000000000002
190.178.65.239,AR,Argentina,Allen,-38.9774,-67.8271
91.107.63.80,RU,Russia,Lyubertsy,55.6778,37.8833
209.159.223.8,US,United States,Spearfish,44.4958,-103.8703
80.240.220.32,RU,Russia,Ivanteyevka,55.9722,37.9306
65.55.215.75,US,United States,None,47.6062,-122.3321
65.51.46.18,US,United States,Brooklyn,40.6628,-73.9546
65.55.207.69,US,United States,Redmond,47.6718,-122.1232
142.103.144.2,CA,Canada,Vancouver,49.4635,-122.822
200.93.225.26,EC,Ecuador,Guayaquil,-2.1667,-79.9
95.7.49.168,TR,Turkey,None,41.0214,28.9948
134.121.117.71,US,United States,Pullman,46.7313,-117.1796
71.34.252.253,US,United States,Black River Falls,44.2954,-90.8313
65.55.207.119,US,United States,Redmond,47.6718,-122.1232
64.246.165.50,US,United States,None,37.751,-97.822
211.30.198.230,AU,Australia,Chatswood,-33.8,151.1833
24.201.124.118,CA,Canada,Québec,46.8528,-71.2573
200.112.70.191,CL,Chile,Talca,-35.4333,-71.6667
220.181.7.106,CN,China,Beijing,39.9288,116.3889
87.114.185.54,GB,United Kingdom,Barnstaple,51.0721,-4.0212
190.42.151.148,PE,Peru,Lima,-12.05,-77.05
118.96.3.81,ID,Indonesia,None,-6.175,106.8286
147.210.209.38,FR,France,Talence,44.8048,-0.5954
200.140.95.14,BR,Brazil,Brasília,-15.7836,-47.9343
207.46.12.200,US,United States,Chicago,41.8483,-87.6517
193.169.86.70,UA,Ukraine,None,49.2328,28.481
86.9.95.81,GB,United Kingdom,Bath,51.3934,-2.3241
66.249.65.102,US,United States,None,37.751,-97.822
190.178.74.53,AR,Argentina,Neuquén,-38.95,-68.0667
24.39.211.14,US,United States,Buffalo,42.9164,-78.8763
81.243.139.104,BE,Belgium,Aalst,50.9333,4.0333
81.105.176.121,GB,United Kingdom,Barking,51.5333,0.0833
86.181.91.73,GB,United Kingdom,London,51.4663,-0.051
130.235.101.29,SE,Sweden,Lund,55.7028,13.1927
190.246.102.231,AR,Argentina,Tandil,-37.3167,-59.15
66.249.65.107,US,United States,None,37.751,-97.822
86.176.120.79,GB,United Kingdom,Hackney,51.546,-0.0758
201.19.121.73,BR,Brazil,Rio de Janeiro,-22.9201,-43.3307
217.39.77.7,GB,United Kingdom,Barnet,51.6493,-0.1482
86.26.11.184,GB,United Kingdom,Redhill,51.2406,-0.1004
88.251.114.154,TR,Turkey,Istanbul,41.0177,28.9744
190.235.209.81,PE,Peru,Lima,-12.05,-77.05
86.132.179.113,GB,United Kingdom,Evesham,52.0833,-1.9333
74.6.149.198,US,United States,None,37.751,-97.822
67.195.115.37,US,United States,None,37.751,-97.822
66.249.65.226,US,United States,None,37.751,-97.822
68.142.243.60,US,United States,None,37.751,-97.822
24.210.70.237,US,United States,West Mansfield,40.4043,-83.5243
67.195.112.253,US,United States,None,37.751,-97.822
67.202.29.142,US,United States,Ashburn,39.0481,-77.4728
190.16.157.253,AR,Argentina,Buenos Aires,-34.6033,-58.3816
190.40.196.11,PE,Peru,Lambayeque,-6.7011,-79.9061
24.2.38.93,US,United States,Roseville,38.7346,-121.234
65.55.110.219,US,United States,Redmond,47.6718,-122.1232
76.231.191.114,US,United States,None,37.751,-97.822
66.30.224.4,US,United States,Manchester Center,43.1693,-73.0474
122.181.142.195,IN,India,None,20,77
87.65.247.5,BE,Belgium,Brussels,50.8466,4.3528
84.108.123.203,IL,Israel,Ramat Gan,32.0806,34.8142
195.13.163.99,LV,Latvia,Riga,56.95,24.1
64.56.64.57,US,United States,Los Angeles,34.0584,-118.278
64.56.67.154,US,United States,Los Angeles,34.0584,-118.278
85.211.39.207,GB,United Kingdom,Croydon,51.35,-0.0333
131.220.121.193,DE,Germany,Bonn,50.7333,7.1
201.51.253.234,BR,Brazil,None,-22.8305,-43.2192
218.186.11.249,SG,Singapore,None,1.3667,103.8
218.186.11.10,SG,Singapore,None,1.3667,103.8
190.95.187.2,EC,Ecuador,None,-2,-77.5
75.121.142.191,US,United States,Platteville,42.7393,-90.4854
168.96.255.130,AR,Argentina,Maipu,-32.9667,-68.7833
151.65.34.41,IT,Italy,Brescia,45.5356,10.2147
88.131.106.30,SE,Sweden,None,59.3247,18.056
24.16.157.102,US,United States,Bellevue,47.615,-122.1663
210.69.75.17,TW,Taiwan,Taipei,25.0478,121.5318
79.197.82.85,DE,Germany,Roigheim,49.3647,9.34
86.9.165.23,GB,United Kingdom,South Normanton,53.1,-1.3333
85.114.130.150,DE,Germany,None,51.2993,9.491
86.9.117.23,GB,United Kingdom,Hinckley,52.5139,-1.3412
217.44.249.153,GB,United Kingdom,Uckfield,50.9956,0.1845
74.107.164.170,US,United States,None,37.751,-97.822
93.139.123.124,HR,Croatia,Zagreb,45.7333,15.9667
202.36.154.162,NZ,New Zealand,None,-41,174
196.3.50.253,None,None,None,47,8
95.173.45.55,LT,Republic of Lithuania,Vilnius,54.6841,25.317
66.249.71.38,US,United States,None,37.751,-97.822
207.46.199.196,US,United States,Chicago,41.8483,-87.6517
24.22.70.76,US,United States,Salem,44.9039,-123.0445
24.7.65.16,US,United States,San Pablo,37.9724,-122.3369
72.30.161.222,US,United States,None,37.751,-97.822
124.120.132.76,TH,Thailand,Bang Khae,13.7167,100.4167
65.55.109.241,US,United States,Chicago,41.8483,-87.6517
65.55.109.158,US,United States,Chicago,41.8483,-87.6517
65.55.109.168,US,United States,Chicago,41.8483,-87.6517
205.209.170.10,US,United States,San Jose,37.3249,-121.9153
132.180.252.57,DE,Germany,Bayreuth,49.9481,11.5783
67.177.129.106,US,United States,Washington,42.7262,-83.0268
198.54.202.150,ZA,South Africa,Benoni,-26.1833,28.3167
82.5.181.208,GB,United Kingdom,Reading,51.4515,-1.0141
86.9.127.200,GB,United Kingdom,Folkestone,51.089,1.1681
80.58.205.54,ES,Spain,None,40.4172,-3.684
86.132.217.143,GB,United Kingdom,Bishop's Stortford,51.9475,0.1355
81.97.238.216,GB,United Kingdom,Brighton,50.8614,-0.1204
201.10.21.92,BR,Brazil,Canoas,-29.9212,-51.1767
88.131.106.31,SE,Sweden,None,59.3247,18.056
88.106.151.57,GB,United Kingdom,Porthcawl,51.4842,-3.6781
74.182.225.230,US,United States,Gainesville,29.6813,-82.3539
62.177.82.78,CZ,Czechia,None,50.0848,14.411200000000001
94.19.101.245,RU,Russia,St Petersburg,59.8944,30.2642
188.4.8.94,GR,Greece,Athens,37.9833,23.7333
82.132.139.30,GB,United Kingdom,None,51.4964,-0.1224
65.55.207.97,US,United States,Redmond,47.6718,-122.1232
151.61.236.212,IT,Italy,Forlì,44.2218,12.0414
195.93.21.98,GB,United Kingdom,None,51.4964,-0.1224
195.93.21.99,GB,United Kingdom,None,51.4964,-0.1224
195.93.21.2,GB,United Kingdom,None,51.4964,-0.1224
195.93.21.104,GB,United Kingdom,None,51.4964,-0.1224
195.93.21.4,GB,United Kingdom,None,51.4964,-0.1224
195.93.21.72,GB,United Kingdom,None,51.4964,-0.1224
195.93.21.33,GB,United Kingdom,None,51.4964,-0.1224
195.93.21.6,GB,United Kingdom,None,51.4964,-0.1224
195.93.21.10,GB,United Kingdom,None,51.4964,-0.1224
195.93.21.65,GB,United Kingdom,None,51.4964,-0.1224
195.93.21.68,GB,United Kingdom,None,51.4964,-0.1224
195.93.21.101,GB,United Kingdom,None,51.4964,-0.1224
195.93.21.67,GB,United Kingdom,None,51.4964,-0.1224
195.93.21.106,GB,United Kingdom,None,51.4964,-0.1224
195.93.21.41,GB,United Kingdom,None,51.4964,-0.1224
195.93.21.38,GB,United Kingdom,None,51.4964,-0.1224
195.93.21.71,GB,United Kingdom,None,51.4964,-0.1224
195.93.21.97,GB,United Kingdom,None,51.4964,-0.1224
195.93.21.7,GB,United Kingdom,None,51.4964,-0.1224
195.93.21.105,GB,United Kingdom,None,51.4964,-0.1224
195.93.21.102,GB,United Kingdom,None,51.4964,-0.1224
195.93.21.39,GB,United Kingdom,None,51.4964,-0.1224
92.11.32.55,GB,United Kingdom,Lerwick,60.1464,-1.2132
200.97.125.15,BR,Brazil,Rio de Janeiro,-22.9201,-43.3307
76.181.46.204,US,United States,Fairborn,39.8053,-84.0198
86.19.96.37,GB,United Kingdom,Romford,51.5833,0.2
201.223.176.55,CL,Chile,Arica,-18.475,-70.3042
212.183.140.2,GB,United Kingdom,None,51.4964,-0.1224
66.249.66.23,US,United States,None,37.751,-97.822
220.181.7.99,CN,China,Beijing,39.9288,116.3889
87.113.244.143,GB,United Kingdom,Worksop,53.3786,-1.0625
124.115.0.168,CN,China,None,34.2583,108.9286
208.80.193.58,US,United States,None,37.751,-97.822
116.125.140.8,KR,South Korea,Gangnam-gu,37.4951,127.0628
75.52.240.89,US,United States,None,37.751,-97.822
82.77.138.134,RO,Romania,None,46,25
86.136.148.11,GB,United Kingdom,Selby,53.7667,-1.1667
61.8.252.134,SG,Singapore,Singapore,1.2931,103.8558
217.36.123.213,GB,United Kingdom,Brighton,50.8614,-0.1204
81.187.204.46,GB,United Kingdom,Royal Leamington Spa,52.3123,-1.5047000000000001
194.116.198.179,GB,United Kingdom,None,51.4964,-0.1224
85.97.191.193,TR,Turkey,Istanbul,41.0177,28.9744
184.73.19.148,US,United States,Ashburn,39.0481,-77.4728
211.100.19.216,CN,China,None,39.9289,116.3883
94.194.177.235,GB,United Kingdom,Durham,54.7667,-1.5667
199.133.185.22,US,United States,None,37.751,-97.822
82.23.63.75,GB,United Kingdom,Bolton,53.5635,-2.378
86.15.59.129,GB,United Kingdom,Oxford,51.7971,-1.1854
188.102.199.147,DE,Germany,Oschatz,51.3,13.1098
94.142.134.218,NL,Netherlands,None,52.3824,4.8995
87.117.190.35,RU,Russia,Kazan’,55.75,49.1333
66.249.67.9,US,United States,None,37.751,-97.822
67.195.112.165,US,United States,None,37.751,-97.822
220.253.102.76,AU,Australia,Ballarat,-37.5662,143.8496
200.127.245.101,AR,Argentina,Villa Ballester,-34.5457,-58.5468
187.45.20.152,BR,Brazil,Capela do Alto,-23.4687,-47.7508
173.95.155.139,US,United States,Wake Forest,35.9815,-78.5392
202.5.185.86,CA,Canada,Victoria,48.4496,-123.4193
116.55.226.131,CN,China,None,25.0389,102.7183
125.60.240.217,PH,Philippines,Antipolo,14.5886,121.1757
120.152.123.176,AU,Australia,None,-33.494,143.2104
203.88.10.131,IN,India,None,20,77
91.44.205.8,DE,Germany,Diespeck,49.6,10.6333
117.193.137.119,IN,India,Chennai,13.0833,80.2833
213.106.114.58,GB,United Kingdom,None,51.4964,-0.1224
86.141.219.243,GB,United Kingdom,Limavady,55.0443,-7.0185
200.82.88.170,AR,Argentina,San Miguel de Tucumán,-26.8167,-65.2167
82.95.143.3,NL,Netherlands,Haarlem,52.3825,4.6242
88.242.70.155,TR,Turkey,Izmir,38.3722,27.107
117.195.229.133,IN,India,Uppuguda,17.34,78.4852
86.146.252.51,GB,United Kingdom,Fareham,50.8831,-1.2437
65.55.218.159,US,United States,Chicago,41.8483,-87.6517
193.218.134.246,PL,Poland,None,52.2394,21.0362
38.100.41.113,US,United States,Washington,38.9067,-77.0312
86.168.58.134,GB,United Kingdom,Maidenhead,51.5238,-0.7287
200.42.143.173,AR,Argentina,Buenos Aires,-34.6033,-58.3816
86.91.155.159,NL,Netherlands,Maasbree,51.3603,6.0487
79.74.133.33,GB,United Kingdom,Dorchester,50.7167,-2.4333
84.188.249.24,DE,Germany,Weinheim,49.5489,8.667
213.106.93.89,GB,United Kingdom,None,51.4964,-0.1224
83.34.114.163,ES,Spain,Las Palmas de Gran Canaria,28.0997,-15.4134
69.63.180.247,US,United States,None,37.751,-97.822
88.131.106.21,SE,Sweden,None,59.3247,18.056
82.35.50.57,GB,United Kingdom,Southend-on-Sea,51.571,0.7832
61.215.163.136,JP,Japan,None,35.69,139.69
119.63.198.36,JP,Japan,None,35.69,139.69
217.42.31.71,GB,United Kingdom,Maidstone,51.2539,0.5327
89.210.83.36,GR,Greece,Athens,37.9833,23.7333
186.3.1.155,EC,Ecuador,None,-2,-77.5
24.189.174.196,US,United States,The Bronx,40.852,-73.9129
68.51.108.20,US,United States,Connersville,39.6435,-85.1464
157.249.83.68,NO,Norway,None,59.95,10.75
65.243.185.247,US,United States,Port Angeles,48.1065,-123.4384
220.181.7.14,CN,China,Beijing,39.9288,116.3889
187.4.27.209,BR,Brazil,Uruguaiana,-29.75,-57.0833
201.130.223.180,MX,Mexico,None,19.4371,-99.0111
114.249.207.46,CN,China,Beijing,39.9288,116.3889
114.249.206.35,CN,China,Beijing,39.9288,116.3889
207.46.194.165,IE,Ireland,Dublin,53.3331,-6.2489
173.160.158.254,US,United States,Mercer Island,47.5603,-122.2281
119.86.99.163,CN,China,Chongqing,29.5628,106.5528
92.244.25.242,SE,Sweden,Stockholm,59.3333,18.05
195.229.242.53,AE,United Arab Emirates,Abu Dhabi,24.4667,54.3667
85.75.166.211,GR,Greece,Preveza,38.95,20.75
92.238.72.160,GB,United Kingdom,Richmond,51.45,-0.2833
87.74.13.122,GB,United Kingdom,None,51.4964,-0.1224
67.195.113.224,US,United States,None,37.751,-97.822
119.153.0.221,PK,Pakistan,None,30,70
222.124.3.12,ID,Indonesia,None,-6.175,106.8286
142.103.144.26,CA,Canada,Vancouver,49.4635,-122.822
174.129.152.208,US,United States,Ashburn,39.0481,-77.4728
79.173.144.50,GB,United Kingdom,London,51.5085,-0.1257
208.80.193.36,US,United States,None,37.751,-97.822
125.89.152.187,CN,China,Shaoguan,24.8,113.5833
68.163.208.65,US,United States,None,37.751,-97.822
129.100.68.174,CA,Canada,London,43.0147,-81.3049
87.236.29.87,RU,Russia,Moscow,55.7522,37.6156
193.206.79.46,IT,Italy,Pavia,45.1921,9.1592
91.214.45.233,LU,Luxembourg,None,49.75,6.1667
192.86.100.36,US,United States,Washington,38.9144,-77.074
83.82.147.135,NL,Netherlands,Breda,51.5881,4.7755
67.212.67.7,CA,Canada,Montreal,45.5061,-73.5573
190.234.5.185,PE,Peru,Lima,-12.05,-77.05
72.194.98.121,US,United States,San Clemente,33.4361,-117.6231
97.118.27.81,US,United States,Denver,39.8671,-104.9227
85.108.246.108,TR,Turkey,None,41.0214,28.9948
218.185.56.178,AU,Australia,None,-33.494,143.2104
190.40.173.252,PE,Peru,Puente de Piedra,-11.8667,-77.0833
204.11.225.76,US,United States,San Jose,37.2568,-121.8896
66.249.71.155,US,United States,None,37.751,-97.822
96.42.119.166,US,United States,Saint Cloud,45.5713,-94.2036
67.142.162.38,US,United States,None,37.751,-97.822
71.202.151.131,US,United States,Brentwood,37.9324,-121.6894
88.71.69.23,DE,Germany,Essen,51.434,7.0161
80.200.101.58,BE,Belgium,Ghent,51.05,3.7167
208.70.189.142,US,United States,None,37.751,-97.822
139.18.63.84,DE,Germany,Leipzig,51.3442,12.3865
95.15.70.77,TR,Turkey,Trabzon,40.9965,39.7275
200.51.93.243,AR,Argentina,Buenos Aires,-34.6033,-58.3816
65.55.106.228,US,United States,Chicago,41.8483,-87.6517
92.40.164.35,GB,United Kingdom,None,51.4964,-0.1224
112.202.177.6,PH,Philippines,None,14.5955,120.9721
91.205.175.4,DE,Germany,Munich,48.1089,11.6074
63.130.248.38,GB,United Kingdom,None,51.4964,-0.1224
38.127.134.3,US,United States,None,37.751,-97.822
80.65.107.50,NL,Netherlands,Nunspeet,52.3777,5.7766
65.55.106.112,SG,Singapore,Singapore,1.2931,103.8558
81.154.247.103,GB,United Kingdom,Leominster,52.2331,-2.7725999999999997
95.149.29.151,GB,United Kingdom,Weymouth,50.6077,-2.4593
190.64.101.1,UY,Uruguay,None,-33,-56
94.9.19.98,GB,United Kingdom,Ilford,51.5905,0.0637
189.29.16.20,BR,Brazil,Araraquara,-21.8276,-48.2011
80.58.205.98,ES,Spain,None,40.4172,-3.684
157.92.44.72,AR,Argentina,Buenos Aires,-34.6033,-58.3816
71.3.207.181,US,United States,Fort Myers,26.6204,-81.8725
85.122.30.2,RO,Romania,Iași,47.1667,27.6
75.111.31.182,US,United States,Fortuna,40.5835,-124.1473
195.248.193.121,FK,Falkland Islands,None,-51.75,-59
85.174.224.69,RU,Russia,Vasyurinskaya,45.1169,39.4228
60.224.132.144,AU,Australia,Kew,-37.8064,145.0309
119.63.198.32,JP,Japan,None,35.69,139.69
66.249.67.120,US,United States,None,37.751,-97.822
173.55.27.157,US,United States,None,37.751,-97.822
190.22.140.252,CL,Chile,Santiago,-33.45,-70.6667
66.249.65.88,US,United States,None,37.751,-97.822
190.49.46.79,AR,Argentina,La Plata,-34.9314,-57.9489
150.70.84.41,JP,Japan,None,35.69,139.69
220.181.7.108,CN,China,Beijing,39.9288,116.3889
67.202.41.30,US,United States,Ashburn,39.0481,-77.4728
77.250.147.41,NL,Netherlands,Apeldoorn,52.1974,6.0006
91.212.127.100,PL,Poland,None,52.2394,21.0362
204.244.11.121,CA,Canada,Parksville,49.3,-124.3167
86.156.68.62,GB,United Kingdom,Manchester,53.55,-2.3
66.249.65.181,US,United States,None,37.751,-97.822
66.249.65.129,US,United States,None,37.751,-97.822
220.181.7.100,CN,China,Beijing,39.9288,116.3889
212.84.120.115,GB,United Kingdom,None,51.4964,-0.1224
62.122.211.4,RU,Russia,Moscow,55.7522,37.6156
70.36.101.58,US,United States,Los Angeles,34.0584,-118.278
74.222.3.202,US,United States,Los Angeles,34.0584,-118.278
194.136.238.200,FI,Finland,Kerava,60.419200000000004,25.0952
115.238.100.218,CN,China,None,30.2936,120.1614
82.169.153.173,NL,Netherlands,None,52.3824,4.8995
66.249.65.188,US,United States,None,37.751,-97.822
58.61.164.40,CN,China,None,23.1167,113.25
204.68.97.131,US,United States,None,37.751,-97.822
58.61.164.141,CN,China,None,23.1167,113.25
77.255.46.240,PL,Poland,Lodz,52.214,16.6336
66.249.82.65,None,None,None,35,105
86.12.71.220,GB,United Kingdom,Grimsby,53.5367,-0.0911
109.153.161.208,GB,United Kingdom,Merthyr Tydfil,51.7303,-3.372
81.133.182.201,GB,United Kingdom,Biggleswade,52.0865,-0.2649
188.3.162.140,TR,Turkey,Bornova,38.4697,27.2211
209.85.226.82,US,United States,None,37.751,-97.822
86.31.194.166,GB,United Kingdom,Ilford,51.5597,0.0708
86.160.134.54,GB,United Kingdom,Stafford,52.8517,-2.12
121.52.147.11,PK,Pakistan,Dhok Parāli,33.1479,72.55
124.115.0.109,CN,China,None,34.2583,108.9286
77.99.11.16,GB,United Kingdom,Bristol,51.4767,-2.5572
64.246.165.170,US,United States,None,37.751,-97.822
66.249.65.183,US,United States,None,37.751,-97.822
85.103.107.43,TR,Turkey,Istanbul,41.0034,28.936
86.164.137.238,GB,United Kingdom,Dalkeith,55.9028,-3.0778
79.203.126.137,DE,Germany,None,51.2993,9.491
66.220.153.246,US,United States,None,37.751,-97.822
65.55.2.140,US,United States,Redmond,47.6718,-122.1232
66.220.156.246,US,United States,None,37.751,-97.822
66.249.65.186,US,United States,None,37.751,-97.822
90.41.186.83,FR,France,La Roche-sur-Foron,46.0666,6.3122
65.55.51.110,US,United States,Redmond,47.6718,-122.1232
187.59.124.151,BR,Brazil,Igarassu,-7.7927,-34.9592
119.63.198.57,JP,Japan,None,35.69,139.69
212.44.26.65,GB,United Kingdom,Birmingham,52.4585,-1.9573
75.8.124.166,US,United States,None,37.751,-97.822
66.249.65.39,US,United States,None,37.751,-97.822
201.223.62.242,CL,Chile,Mejillones,-23.1,-70.45
81.234.195.253,SE,Sweden,Lund,55.7028,13.1927
65.55.207.27,US,United States,Redmond,47.6718,-122.1232
66.249.65.51,US,United States,None,37.751,-97.822
66.249.65.24,US,United States,None,37.751,-97.822
41.250.23.52,MA,Morocco,None,32,-5
41.221.202.142,CV,Cabo Verde,None,15.1111,-23.6167
203.185.214.42,AU,Australia,None,-33.494,143.2104
64.184.228.230,US,United States,Hereford,31.4035,-110.2047
65.55.207.101,US,United States,Redmond,47.6718,-122.1232
76.65.207.92,CA,Canada,Toronto,43.7223,-79.4504
219.89.226.84,NZ,New Zealand,None,-41,174
113.36.218.92,JP,Japan,Nerima,35.7468,139.5863
119.82.126.162,IN,India,Bengaluru,12.9833,77.5833
86.31.79.206,GB,United Kingdom,None,51.4964,-0.1224
81.245.237.236,BE,Belgium,Brussels,50.8466,4.3528
79.246.95.46,DE,Germany,Leipzig,51.3667,12.3833
86.7.16.122,GB,United Kingdom,Leicester,52.6386,-1.1317
110.55.170.18,PH,Philippines,None,14.5955,120.9721
62.43.184.15,ES,Spain,Inca,39.7211,2.9109
64.129.85.90,US,United States,None,30.0815,-81.5477
192.188.55.4,EC,Ecuador,Quito,-0.2167,-78.5
81.222.236.2,RU,Russia,None,55.7386,37.6068
148.236.5.92,MX,Mexico,Villahermosa,17.9869,-92.9303
85.92.209.135,GB,United Kingdom,Islington,51.5333,-0.1
157.92.44.71,AR,Argentina,Buenos Aires,-34.6033,-58.3816
200.85.200.234,CL,Chile,None,-33.4378,-70.6503
189.19.60.31,BR,Brazil,Guarulhos,-23.412,-46.4435
202.37.78.13,NZ,New Zealand,None,-41,174
82.178.69.34,OM,Oman,None,21,57
82.16.99.188,GB,United Kingdom,Southampton,50.9463,-1.4055
152.2.14.157,US,United States,Chapel Hill,36.0525,-79.1077
66.249.65.2,US,United States,None,37.751,-97.822
190.177.68.207,AR,Argentina,Banfield,-34.75,-58.4
119.63.198.35,JP,Japan,None,35.69,139.69
190.177.72.119,AR,Argentina,Jose Maria Ezeiza,-34.8381,-58.5172
91.125.209.235,GB,United Kingdom,Medstead,51.1167,-1.0667
129.116.69.235,US,United States,Austin,30.2896,-97.7396
204.236.132.156,US,United States,San Jose,37.3388,-121.8914
201.222.254.205,CL,Chile,None,-33.4378,-70.6503
74.125.46.81,FI,Finland,Lappeenranta,61.0645,28.176
74.125.46.82,FI,Finland,Lappeenranta,61.0645,28.176
69.63.182.123,US,United States,None,37.751,-97.822
192.43.227.18,AU,Australia,Adelaide,-34.9287,138.5986
145.72.98.1,NL,Netherlands,None,52.3824,4.8995
121.157.218.46,KR,South Korea,Gwangju,37.41,127.2572
117.204.68.4,IN,India,Bhaisa,19.1,77.9667
144.41.33.62,DE,Germany,None,48.7667,9.1833
84.164.79.108,DE,Germany,Solingen,51.1825,7.0454
217.228.242.181,DE,Germany,Schwarzheide,51.4767,13.8556
72.14.164.138,CA,Canada,Hamilton,43.2055,-79.9004
82.69.254.6,GB,United Kingdom,Marlow,51.557,-0.7756
72.14.164.179,CA,Canada,Hamilton,43.2055,-79.9004
72.14.164.175,CA,Canada,Hamilton,43.2055,-79.9004
72.14.164.141,CA,Canada,Hamilton,43.2055,-79.9004
72.14.164.163,CA,Canada,Hamilton,43.2055,-79.9004
72.14.164.166,CA,Canada,Hamilton,43.2055,-79.9004
72.14.164.149,CA,Canada,Hamilton,43.2055,-79.9004
72.14.164.184,CA,Canada,Hamilton,43.2055,-79.9004
72.14.164.156,CA,Canada,Hamilton,43.2055,-79.9004
72.14.164.180,CA,Canada,Hamilton,43.2055,-79.9004
72.14.164.132,CA,Canada,Hamilton,43.2055,-79.9004
65.55.106.108,SG,Singapore,Singapore,1.2931,103.8558
72.14.164.142,CA,Canada,Hamilton,43.2055,-79.9004
72.14.164.186,CA,Canada,Hamilton,43.2055,-79.9004
72.14.164.183,CA,Canada,Hamilton,43.2055,-79.9004
72.14.164.151,CA,Canada,Hamilton,43.2055,-79.9004
72.14.164.129,CA,Canada,Hamilton,43.2055,-79.9004
91.84.211.17,GB,United Kingdom,Finchley,51.6077,-0.166
72.14.164.188,CA,Canada,Hamilton,43.2055,-79.9004
72.14.164.139,CA,Canada,Hamilton,43.2055,-79.9004
72.14.164.145,CA,Canada,Hamilton,43.2055,-79.9004
72.14.164.144,CA,Canada,Hamilton,43.2055,-79.9004
72.14.164.170,CA,Canada,Hamilton,43.2055,-79.9004
72.14.164.194,CA,Canada,Hamilton,43.2055,-79.9004
72.14.164.196,CA,Canada,Hamilton,43.2055,-79.9004
59.95.55.121,IN,India,Gwalior,26.2236,78.1792
72.14.164.173,CA,Canada,Hamilton,43.2055,-79.9004
72.14.164.189,CA,Canada,Hamilton,43.2055,-79.9004
72.14.164.131,CA,Canada,Hamilton,43.2055,-79.9004
72.14.164.167,CA,Canada,Hamilton,43.2055,-79.9004
66.220.146.246,US,United States,None,37.751,-97.822
193.132.78.42,GB,United Kingdom,None,51.4964,-0.1224
217.112.115.34,NL,Netherlands,Veenendaal,52.0334,5.5489
72.14.164.199,CA,Canada,Hamilton,43.2055,-79.9004
72.14.164.159,CA,Canada,Hamilton,43.2055,-79.9004
72.14.164.136,CA,Canada,Hamilton,43.2055,-79.9004
72.14.164.140,CA,Canada,Hamilton,43.2055,-79.9004
72.14.164.187,CA,Canada,Hamilton,43.2055,-79.9004
72.14.164.193,CA,Canada,Hamilton,43.2055,-79.9004
72.14.164.191,CA,Canada,Hamilton,43.2055,-79.9004
41.204.224.14,NG,Nigeria,None,10,8
72.14.164.161,CA,Canada,Hamilton,43.2055,-79.9004
94.111.114.16,BE,Belgium,Oostmalle,51.3,4.7083
75.101.220.102,US,United States,Ashburn,39.0481,-77.4728
77.103.93.169,GB,United Kingdom,Chorley,53.65,-2.6167
72.14.164.134,CA,Canada,Hamilton,43.2055,-79.9004
72.14.164.176,CA,Canada,Hamilton,43.2055,-79.9004
72.14.164.146,CA,Canada,Hamilton,43.2055,-79.9004
128.227.41.189,US,United States,Gainesville,29.6813,-82.3539
72.14.164.172,CA,Canada,Hamilton,43.2055,-79.9004
190.178.74.122,AR,Argentina,Neuquén,-38.95,-68.0667
72.14.164.155,CA,Canada,Hamilton,43.2055,-79.9004
72.14.164.130,CA,Canada,Hamilton,43.2055,-79.9004
72.14.164.128,CA,Canada,Hamilton,43.2055,-79.9004
131.211.213.116,NL,Netherlands,Utrecht,52.0916,5.1228
72.14.164.147,CA,Canada,Hamilton,43.2055,-79.9004
72.14.164.164,CA,Canada,Hamilton,43.2055,-79.9004
72.14.164.168,CA,Canada,Hamilton,43.2055,-79.9004
72.14.164.185,CA,Canada,Hamilton,43.2055,-79.9004
72.14.164.178,CA,Canada,Hamilton,43.2055,-79.9004
72.14.164.165,CA,Canada,Hamilton,43.2055,-79.9004
193.136.1.22,PT,Portugal,Oeiras,38.691,-9.3108
72.14.164.153,CA,Canada,Hamilton,43.2055,-79.9004
89.35.98.94,RO,Romania,None,46,25
41.202.74.171,CI,Ivory Coast,Ledi,8.2495,-3.1245
75.101.179.42,US,United States,Ashburn,39.0481,-77.4728
72.14.164.192,CA,Canada,Hamilton,43.2055,-79.9004
131.111.151.217,GB,United Kingdom,Cambridge,52.191,0.1249
220.181.7.38,CN,China,Beijing,39.9288,116.3889
72.14.164.152,CA,Canada,Hamilton,43.2055,-79.9004
72.14.164.157,CA,Canada,Hamilton,43.2055,-79.9004
66.249.71.172,US,United States,None,37.751,-97.822
41.235.233.101,EG,Egypt,Cairo,30.0771,31.2859
72.14.164.133,CA,Canada,Hamilton,43.2055,-79.9004
164.77.156.115,CL,Chile,Los Ángeles,-37.4667,-72.35
200.51.96.85,AR,Argentina,None,-34.6033,-58.3817
123.125.66.40,CN,China,Beijing,39.9288,116.3889
84.119.45.159,DE,Germany,Willich,51.2637,6.5473
66.249.65.206,US,United States,None,37.751,-97.822
75.101.203.73,US,United States,Ashburn,39.0481,-77.4728
96.240.51.44,US,United States,None,37.751,-97.822
66.249.65.204,US,United States,None,37.751,-97.822
67.164.92.15,US,United States,Concord,37.9504,-122.0263
187.149.66.189,MX,Mexico,Badiraguato,25.3031,-107.2544
24.108.22.0,CA,Canada,Victoria,48.4765,-123.3145
66.249.65.202,US,United States,None,37.751,-97.822
201.132.83.201,MX,Mexico,Guadalupe,22.7475,-102.5187
141.48.46.38,DE,Germany,Halle,51.483,11.972
87.118.88.79,DE,Germany,None,51.2993,9.491
79.99.118.12,IT,Italy,Gemona,46.2741,13.1224
65.55.109.91,US,United States,Chicago,41.8483,-87.6517
65.55.109.45,US,United States,Chicago,41.8483,-87.6517
62.171.194.4,GB,United Kingdom,None,51.4964,-0.1224
65.55.110.171,US,United States,Redmond,47.6718,-122.1232
65.55.109.48,US,United States,Chicago,41.8483,-87.6517
131.111.55.95,GB,United Kingdom,Cambridge,52.191,0.1249
94.28.27.102,RU,Russia,Astrakhan,46.34,48.04
62.25.109.195,GB,United Kingdom,Maidstone,51.2738,0.497
71.150.80.84,US,United States,Lakeside,32.8562,-116.9201
89.123.119.76,RO,Romania,Tartaria,45.9336,23.413
79.123.118.242,GB,United Kingdom,Belper,53.0031,-1.5514999999999999
89.248.168.41,SC,Seychelles,None,-4.5833,55.6667
95.24.157.247,RU,Russia,Moscow,55.7522,37.6156
96.224.32.26,US,United States,New York,40.7547,-73.9925
88.240.165.15,TR,Turkey,Magnesia ad Sipylum,38.5267,27.785
216.73.249.89,US,United States,Brooklyn,40.6412,-74.0133
85.141.200.64,RU,Russia,None,55.7386,37.6068
174.116.106.206,CA,Canada,St. John's,47.55,-52.6667
129.173.35.133,CA,Canada,Halifax,44.6344,-63.5822
70.246.96.182,US,United States,None,37.751,-97.822
72.214.129.36,US,United States,Hailey,43.5239,-114.3064
198.53.195.96,CA,Canada,Edson,53.5834,-116.4356
86.162.160.4,GB,United Kingdom,Aberdeen,57.1437,-2.0981
150.131.78.221,US,United States,Missoula,46.8721,-113.994
83.36.247.216,ES,Spain,La Palma del Condado,37.386,-6.5523
194.78.48.108,BE,Belgium,Tervuren,50.8167,4.5167
65.243.184.91,US,United States,Port Angeles,48.1065,-123.4384
134.107.216.137,DE,Germany,Münster,51.9858,7.648
145.253.249.226,DE,Germany,Borken,51.8438,6.8577
121.200.67.50,KR,South Korea,Yongin-si,37.2336,127.201
110.139.190.100,ID,Indonesia,Denpasar,-8.65,115.2167
74.6.18.221,US,United States,None,37.751,-97.822
196.46.246.21,NG,Nigeria,None,10,8
65.55.207.102,US,United States,Redmond,47.6718,-122.1232
59.97.96.29,IN,India,Pune,18.5333,73.8667
194.75.238.105,GB,United Kingdom,None,51.4964,-0.1224
95.146.230.96,GB,United Kingdom,Royal Leamington Spa,52.2705,-1.5219
147.231.140.32,CZ,Czechia,Prague,50.0765,14.5104
24.18.156.14,US,United States,Seattle,47.6379,-122.3643
84.46.77.95,DE,Germany,Hamburg,53.6663,10.0057
66.235.124.57,US,United States,None,37.751,-97.822
82.84.216.247,IT,Italy,Monserrato,39.2564,9.1444
190.15.128.68,EC,Ecuador,None,-2,-77.5
62.190.148.25,GB,United Kingdom,Hinckley,52.5139,-1.3412
90.202.46.148,GB,United Kingdom,Northampton,52.2136,-0.8858
65.8.164.144,US,United States,Seattle,47.5413,-122.3129
92.29.93.3,GB,United Kingdom,Bournemouth,50.7655,-1.9096
4.79.205.35,US,United States,Roanoke,37.2704,-79.9535
78.179.242.253,TR,Turkey,Izmir,38.4,27.1
66.249.65.166,US,United States,None,37.751,-97.822
81.37.69.179,ES,Spain,El Medano,28.0462,-16.5363
94.242.151.114,RU,Russia,Maloyaroslavets,55.0139,36.4725
190.178.79.114,AR,Argentina,Allen,-38.9774,-67.8271
119.63.198.61,JP,Japan,None,35.69,139.69
189.59.55.182,BR,Brazil,Cuiabá,-15.596,-56.097
122.106.209.49,AU,Australia,Belrose,-33.7395,151.2103
95.148.135.232,GB,United Kingdom,Lincoln,53.15,-0.4
78.149.8.120,GB,United Kingdom,Bristol,51.462,-2.5519
82.6.105.185,GB,United Kingdom,Rugby,52.3913,-1.2866
80.87.90.243,GH,Ghana,None,8,-2
201.191.156.226,CR,Costa Rica,Siquirres,10.1589,-83.4546
24.186.166.147,US,United States,Millbrook,41.7803,-73.6885
213.78.125.170,GB,United Kingdom,Wolverhampton,52.6299,-2.2015000000000002
207.46.199.16,US,United States,Chicago,41.8483,-87.6517
190.42.8.48,PE,Peru,Lima,-12.05,-77.05
174.121.88.26,US,United States,Dallas,32.9322,-96.8353
220.181.7.20,CN,China,Beijing,39.9288,116.3889
190.160.130.212,CL,Chile,Santiago,-33.45,-70.6667
174.121.75.26,US,United States,Dallas,32.9322,-96.8353
207.46.12.161,US,United States,Chicago,41.8483,-87.6517
84.9.15.85,GB,United Kingdom,Reading,51.4563,-0.9711
125.167.253.65,ID,Indonesia,Banjarmasin,-3.3236,114.5889
207.46.204.172,US,United States,Chicago,41.8483,-87.6517
95.14.85.80,TR,Turkey,Istanbul,41.0177,28.9744
207.46.204.211,US,United States,Chicago,41.8483,-87.6517
109.195.140.140,RU,Russia,None,55.7386,37.6068
207.46.204.212,US,United States,Chicago,41.8483,-87.6517
207.46.12.122,US,United States,Chicago,41.8483,-87.6517
207.46.12.115,US,United States,Chicago,41.8483,-87.6517
207.46.199.26,US,United States,Chicago,41.8483,-87.6517
207.46.204.218,US,United States,Chicago,41.8483,-87.6517
212.44.6.81,GB,United Kingdom,Altrincham,53.35,-2.3333
78.161.37.154,TR,Turkey,Istanbul,41.0514,28.9962
151.12.58.2,IT,Italy,Rome,41.8919,12.5113
207.46.195.217,US,United States,Chicago,41.8483,-87.6517
207.46.12.160,US,United States,Chicago,41.8483,-87.6517
201.35.212.98,BR,Brazil,Tubarao,-28.4926,-49.0365
190.177.151.143,AR,Argentina,Neuquén,-38.95,-68.0667
207.46.12.73,US,United States,Chicago,41.8483,-87.6517
84.92.211.193,GB,United Kingdom,Rushden,52.306,-0.5934
163.247.40.160,CL,Chile,Santiago,-33.45,-70.6667
150.214.36.10,ES,Spain,Granada,37.1882,-3.6067
74.252.104.34,US,United States,Homestead,25.2846,-80.6246
85.146.136.183,NL,Netherlands,The Hague,52.0637,4.3022
201.67.172.104,BR,Brazil,Lages,-27.9449,-50.3525
69.168.210.10,US,United States,None,37.751,-97.822
77.21.66.203,DE,Germany,Braunschweig,52.2258,10.5271
119.63.198.13,JP,Japan,None,35.69,139.69
38.99.96.81,US,United States,None,37.751,-97.822
95.172.9.202,GB,United Kingdom,None,51.4964,-0.1224
72.37.171.196,US,United States,None,37.751,-97.822
200.90.175.181,CL,Chile,Los Ángeles,-37.4667,-72.35
88.247.71.192,TR,Turkey,Ankara,39.9683,32.7308
210.210.149.157,ID,Indonesia,None,-6.175,106.8286
71.35.202.75,US,United States,None,37.751,-97.822
71.141.254.202,US,United States,None,37.751,-97.822
208.43.179.10,US,United States,Seattle,47.6062,-122.3321
203.87.205.158,PH,Philippines,None,14.5955,120.9721
114.246.77.84,CN,China,Beijing,39.9288,116.3889
195.229.242.59,AE,United Arab Emirates,Abu Dhabi,24.4667,54.3667
195.229.235.38,AE,United Arab Emirates,Dubai,25.2582,55.3047
212.219.116.109,GB,United Kingdom,Cambridge,52.2093,0.1482
83.105.17.60,GB,United Kingdom,None,51.4964,-0.1224
91.82.140.34,HU,Hungary,Bekesszentandras,46.8667,20.4833
85.12.64.153,GB,United Kingdom,None,51.4964,-0.1224
134.176.167.17,DE,Germany,Giessen,50.5873,8.6755
123.237.232.118,IN,India,None,20,77
213.7.101.10,CY,Cyprus,Paphos,34.7667,32.4167
208.89.76.203,US,United States,Fort Myers,26.5567,-81.9034
200.117.204.175,AR,Argentina,San Miguel de Tucumán,-26.8167,-65.2167
96.57.194.234,US,United States,None,37.751,-97.822
74.242.235.23,US,United States,Apex,35.7225,-78.8408
152.2.15.133,US,United States,Chapel Hill,36.0525,-79.1077
152.2.14.191,US,United States,Chapel Hill,36.0525,-79.1077
93.133.64.221,DE,Germany,Mönchengladbach,51.1977,6.3911
196.41.20.251,ZA,South Africa,Uitenhage,-33.7653,25.4022
119.63.198.53,JP,Japan,None,35.69,139.69
86.165.186.113,GB,United Kingdom,Kidbrooke,51.4667,0.0333
74.125.46.80,FI,Finland,Lappeenranta,61.0645,28.176
201.191.155.142,CR,Costa Rica,Alajuela,10.0281,-84.2573
76.173.94.153,US,United States,Waianae,21.4352,-158.1781
220.181.7.19,CN,China,Beijing,39.9288,116.3889
66.249.65.84,US,United States,None,37.751,-97.822
71.231.87.126,US,United States,Seattle,47.4511,-122.353
98.198.155.56,US,United States,Santa Fe,29.4032,-95.0734
121.121.173.106,MY,Malaysia,None,2.5,112.5
86.146.178.197,GB,United Kingdom,Weybridge,51.3722,-0.453
70.33.184.37,US,United States,None,37.751,-97.822
213.229.219.129,SI,Slovenia,Rogaška Slatina,46.2375,15.6397
66.249.71.166,US,United States,None,37.751,-97.822
24.44.139.8,US,United States,Farmingdale,40.7315,-73.4327
67.202.8.74,US,United States,Ashburn,39.0481,-77.4728
82.83.182.84,DE,Germany,Stuttgart,48.7667,9.1833
95.148.135.130,GB,United Kingdom,Lincoln,53.15,-0.4
81.32.94.90,ES,Spain,A Coruña,43.3666,-8.4068
24.207.250.197,US,United States,St Louis,38.5814,-90.2625
87.228.211.94,CY,Cyprus,Paphos,34.7667,32.4167
207.46.199.195,US,United States,Chicago,41.8483,-87.6517
85.185.137.4,IR,Iran,None,35.6961,51.4231
24.197.139.109,US,United States,Anderson,34.5261,-82.6304
86.167.181.97,GB,United Kingdom,March,52.4974,-0.0246
141.52.175.61,DE,Germany,Karlsruhe,49.0083,8.3979
69.28.58.6,US,United States,Los Angeles,34.0729,-118.2606
123.125.71.29,CN,China,Beijing,39.9288,116.3889
220.181.108.84,CN,China,Beijing,39.9288,116.3889
65.52.51.178,US,United States,Chicago,41.8483,-87.6517
67.195.114.247,US,United States,None,37.751,-97.822
110.75.174.19,CN,China,None,34.7725,113.7266
110.75.174.2,CN,China,None,34.7725,113.7266
110.75.171.102,CN,China,None,34.7725,113.7266
123.125.71.35,CN,China,Beijing,39.9288,116.3889
220.181.108.92,CN,China,Beijing,39.9288,116.3889
64.233.172.20,US,United States,None,37.751,-97.822
74.125.75.19,US,United States,Charleston,32.7766,-79.9309
74.125.66.83,US,United States,None,37.751,-97.822
74.125.64.84,US,United States,None,37.751,-97.822
119.63.196.101,JP,Japan,None,35.69,139.69
123.125.71.14,CN,China,Beijing,39.9288,116.3889
189.227.26.65,MX,Mexico,None,19.4371,-99.0111
114.80.93.56,CN,China,None,31.0456,121.3997
123.125.71.24,CN,China,Beijing,39.9288,116.3889
220.181.108.97,CN,China,Beijing,39.9288,116.3889
65.52.53.243,US,United States,Chicago,41.8483,-87.6517
65.52.109.61,US,United States,Boydton,36.6544,-78.3752
95.108.151.244,RU,Russia,None,55.7386,37.6068
190.178.69.77,AR,Argentina,Bariloche,-41.15,-71.3
220.181.108.94,CN,China,Beijing,39.9288,116.3889
208.80.194.26,US,United States,None,37.751,-97.822
98.137.72.231,US,United States,None,37.751,-97.822
98.137.72.233,US,United States,None,37.751,-97.822
65.52.49.75,US,United States,Chicago,41.8483,-87.6517
123.125.71.13,CN,China,Beijing,39.9288,116.3889
123.125.71.20,CN,China,Beijing,39.9288,116.3889
220.181.108.93,CN,China,Beijing,39.9288,116.3889
65.52.49.140,US,United States,Chicago,41.8483,-87.6517
208.80.194.30,US,United States,None,37.751,-97.822
65.52.53.245,US,United States,Chicago,41.8483,-87.6517
123.125.71.21,CN,China,Beijing,39.9288,116.3889
157.55.116.34,US,United States,Chicago,41.8483,-87.6517
123.125.71.16,CN,China,Beijing,39.9288,116.3889
220.181.108.89,CN,China,Beijing,39.9288,116.3889
65.52.49.77,US,United States,Chicago,41.8483,-87.6517
158.194.93.34,CZ,Czechia,None,50.0848,14.411200000000001
220.181.108.78,CN,China,Beijing,39.9288,116.3889
207.46.12.236,US,United States,Chicago,41.8483,-87.6517
66.249.71.26,US,United States,None,37.751,-97.822
213.186.120.196,UA,Ukraine,None,50.45,30.5233
194.81.127.246,GB,United Kingdom,Bridgnorth,52.5571,-2.5372
117.199.139.40,IN,India,Madurai,9.9333,78.1167
190.177.69.186,AR,Argentina,Banfield,-34.75,-58.4
220.181.108.91,CN,China,Beijing,39.9288,116.3889
83.69.244.141,RU,Russia,Moscow,55.7522,37.6156
65.52.110.65,US,United States,Boydton,36.6544,-78.3752
123.125.71.17,CN,China,Beijing,39.9288,116.3889
220.181.108.87,CN,China,Beijing,39.9288,116.3889
125.37.25.180,CN,China,Tianjin,39.1422,117.1767
65.52.108.13,US,United States,Boydton,36.6544,-78.3752
123.125.71.33,CN,China,Beijing,39.9288,116.3889
220.181.108.80,CN,China,Beijing,39.9288,116.3889
87.105.190.50,PL,Poland,Wrocław,51.0982,17.0035
190.176.228.219,AR,Argentina,Mariano Moreno,-34.4633,-58.9292
149.155.96.6,GB,United Kingdom,None,51.4964,-0.1224
218.38.12.29,KR,South Korea,Gangnam-gu,37.4951,127.0628
123.125.71.27,CN,China,Beijing,39.9288,116.3889
220.181.108.77,CN,China,Beijing,39.9288,116.3889
58.61.164.140,CN,China,None,23.1167,113.25
190.178.79.223,AR,Argentina,Allen,-38.9774,-67.8271
84.108.116.253,IL,Israel,Haifa,32.8156,34.9892
114.80.93.71,CN,China,None,31.0456,121.3997
123.125.71.23,CN,China,Beijing,39.9288,116.3889
122.164.177.64,IN,India,Chennai,13.0833,80.2833
88.191.108.76,FR,France,Paris,48.8534,2.3487999999999998
123.125.71.25,CN,China,Beijing,39.9288,116.3889
220.181.108.76,CN,China,Beijing,39.9288,116.3889
66.249.72.81,US,United States,None,37.751,-97.822
123.125.71.22,CN,China,Beijing,39.9288,116.3889
213.5.71.163,NL,Netherlands,None,52.3824,4.8995
190.42.199.201,PE,Peru,Cajamarca,-7.1667,-78.5167
123.125.71.34,CN,China,Beijing,39.9288,116.3889
72.14.194.65,US,United States,None,37.751,-97.822
69.28.58.2,US,United States,Los Angeles,34.0729,-118.2606
98.137.72.254,US,United States,None,37.751,-97.822
98.137.72.234,US,United States,None,37.751,-97.822
207.46.12.240,US,United States,Chicago,41.8483,-87.6517
98.137.72.247,US,United States,None,37.751,-97.822
84.86.159.244,NL,Netherlands,Hellendoorn,52.3977,6.4496
173.49.24.118,US,United States,Boyertown,40.3339,-75.6604
220.181.108.81,CN,China,Beijing,39.9288,116.3889
98.137.72.229,US,United States,None,37.751,-97.822
220.181.108.88,CN,China,Beijing,39.9288,116.3889
123.125.71.112,CN,China,Beijing,39.9288,116.3889
123.125.71.115,CN,China,Beijing,39.9288,116.3889
123.125.71.95,CN,China,Beijing,39.9288,116.3889
98.137.72.216,US,United States,None,37.751,-97.822
65.52.110.68,US,United States,Boydton,36.6544,-78.3752
98.137.72.227,US,United States,None,37.751,-97.822
68.154.35.64,US,United States,Atlanta,33.8513,-84.287
123.125.71.28,CN,China,Beijing,39.9288,116.3889
220.181.108.82,CN,China,Beijing,39.9288,116.3889
66.249.65.145,US,United States,None,37.751,-97.822
200.35.39.231,CO,Colombia,Bello,6.3373,-75.558
58.61.164.39,CN,China,None,23.1167,113.25
99.181.55.173,US,United States,Dallas,32.8958,-96.8588
114.80.93.73,CN,China,None,31.0456,121.3997
124.115.4.198,CN,China,None,34.2583,108.9286
124.115.0.100,CN,China,None,34.2583,108.9286
124.115.0.101,CN,China,None,34.2583,108.9286
124.115.4.193,CN,China,None,34.2583,108.9286
114.80.93.53,CN,China,None,31.0456,121.3997
123.125.71.32,CN,China,Beijing,39.9288,116.3889
220.181.108.95,CN,China,Beijing,39.9288,116.3889
114.80.93.51,CN,China,None,31.0456,121.3997
114.80.93.54,CN,China,None,31.0456,121.3997
114.80.93.57,CN,China,None,31.0456,121.3997
124.115.4.192,CN,China,None,34.2583,108.9286
114.80.93.50,CN,China,None,31.0456,121.3997
124.115.4.191,CN,China,None,34.2583,108.9286
124.115.4.195,CN,China,None,34.2583,108.9286
61.135.167.74,CN,China,Beijing,39.9288,116.3889
124.115.4.201,CN,China,None,34.2583,108.9286
124.115.4.203,CN,China,None,34.2583,108.9286
114.80.93.55,CN,China,None,31.0456,121.3997
124.115.5.11,CN,China,None,34.2583,108.9286
138.75.200.5,SG,Singapore,Singapore,1.2931,103.8558
124.115.0.164,CN,China,None,34.2583,108.9286
114.80.93.52,CN,China,None,31.0456,121.3997
200.59.253.77,AR,Argentina,Plottier,-38.9667,-68.2333
124.115.4.194,CN,China,None,34.2583,108.9286
124.115.4.205,CN,China,None,34.2583,108.9286
124.115.4.199,CN,China,None,34.2583,108.9286
186.2.44.66,BO,Bolivia,None,-17,-65
124.115.4.190,CN,China,None,34.2583,108.9286
174.132.16.36,US,United States,Dallas,32.9322,-96.8353
124.115.4.204,CN,China,None,34.2583,108.9286
124.115.0.22,CN,China,None,34.2583,108.9286
124.115.4.196,CN,China,None,34.2583,108.9286
124.115.4.200,CN,China,None,34.2583,108.9286
124.115.4.197,CN,China,None,34.2583,108.9286
65.52.49.76,US,United States,Chicago,41.8483,-87.6517
220.181.108.86,CN,China,Beijing,39.9288,116.3889
209.85.228.82,US,United States,None,37.751,-97.822
83.20.169.14,PL,Poland,Wolsztyn,52.1144,16.1174
66.249.67.72,US,United States,None,37.751,-97.822
88.103.54.103,CZ,Czechia,None,50.0848,14.411200000000001
65.52.53.244,US,United States,Chicago,41.8483,-87.6517
220.181.108.90,CN,China,Beijing,39.9288,116.3889
110.75.176.7,CN,China,None,34.7725,113.7266
65.52.110.69,US,United States,Boydton,36.6544,-78.3752
69.28.58.4,US,United States,Los Angeles,34.0729,-118.2606
220.181.108.96,CN,China,Beijing,39.9288,116.3889
209.85.226.81,US,United States,None,37.751,-97.822
89.121.138.72,RO,Romania,None,46,25
66.249.82.1,None,None,None,35,105
123.125.71.18,CN,China,Beijing,39.9288,116.3889
66.249.85.65,BR,Brazil,None,-22.8305,-43.2192
95.108.158.233,RU,Russia,None,55.7386,37.6068
130.76.96.149,US,United States,None,37.751,-97.822
66.249.65.139,US,United States,None,37.751,-97.822
74.125.152.84,US,United States,None,37.751,-97.822
72.14.202.87,US,United States,None,37.751,-97.822
72.14.202.84,US,United States,None,37.751,-97.822
72.14.202.85,US,United States,None,37.751,-97.822
74.125.152.83,US,United States,None,37.751,-97.822
74.125.152.86,US,United States,None,37.751,-97.822
74.125.152.81,US,United States,None,37.751,-97.822
72.14.202.81,US,United States,None,37.751,-97.822
220.249.99.187,CN,China,Wuhan,30.5801,114.2734
72.237.90.227,US,United States,Jeannette,40.3295,-79.6144
91.140.111.114,GR,Greece,Keratsini,37.9625,23.6197
220.181.108.83,CN,China,Beijing,39.9288,116.3889
189.97.241.212,BR,Brazil,None,-22.8305,-43.2192
65.52.49.141,US,United States,Chicago,41.8483,-87.6517
132.230.191.154,DE,Germany,Freiburg,48,7.85
95.135.136.198,UA,Ukraine,Kharkiv,49.9808,36.2527
74.125.16.68,CN,China,Taoyuan,26.7688,115.065
123.125.71.94,CN,China,Beijing,39.9288,116.3889
123.125.71.110,CN,China,Beijing,39.9288,116.3889
213.60.230.232,ES,Spain,Pontevedra,42.431,-8.6444
209.249.53.110,US,United States,Kansas City,39.1157,-94.6271
74.201.117.226,US,United States,None,37.751,-97.822
137.122.30.184,CA,Canada,Ottawa,45.4289,-75.6844
123.125.71.12,CN,China,Beijing,39.9288,116.3889
207.46.194.140,IE,Ireland,Dublin,53.3331,-6.2489
65.52.51.179,US,United States,Chicago,41.8483,-87.6517
218.213.130.92,HK,Hong Kong,None,22.25,114.1667
95.119.103.180,DE,Germany,None,51.2993,9.491
80.162.231.63,DK,Denmark,Beder,56.0602,10.2118
208.80.194.31,US,United States,None,37.751,-97.822
66.181.244.222,US,United States,Nogales,31.377,-110.9435
207.46.194.134,IE,Ireland,Dublin,53.3331,-6.2489
123.125.71.31,CN,China,Beijing,39.9288,116.3889
123.125.71.36,CN,China,Beijing,39.9288,116.3889
123.125.71.102,CN,China,Beijing,39.9288,116.3889
186.122.12.58,AR,Argentina,None,-34.6033,-58.3817
218.213.130.181,HK,Hong Kong,None,22.25,114.1667
201.251.7.253,AR,Argentina,Oriente,-38.7333,-60.6167
24.5.31.221,US,United States,Pleasanton,37.6873,-121.8957
207.46.195.105,US,United States,Chicago,41.8483,-87.6517
65.52.110.53,US,United States,Boydton,36.6544,-78.3752
119.63.196.124,JP,Japan,None,35.69,139.69
220.181.108.85,CN,China,Beijing,39.9288,116.3889
62.231.141.193,GB,United Kingdom,Mansfield,53.1333,-1.2
157.55.16.231,US,United States,Chicago,41.8483,-87.6517
207.46.195.106,US,United States,Chicago,41.8483,-87.6517
157.55.17.103,US,United States,Chicago,41.8483,-87.6517
65.52.110.55,US,United States,Boydton,36.6544,-78.3752
77.126.198.13,IL,Israel,Tel Aviv,32.0678,34.7647
196.215.92.17,ZA,South Africa,None,-29,24
123.125.71.15,CN,China,Beijing,39.9288,116.3889
84.249.66.34,FI,Finland,Turku,60.4587,22.3141
190.177.74.248,AR,Argentina,Lomas de Zamora,-34.7667,-58.4
77.222.43.19,RU,Russia,None,55.7386,37.6068
145.236.161.158,HU,Hungary,Paks,46.6333,18.8667
157.55.16.230,US,United States,Chicago,41.8483,-87.6517
190.177.80.148,AR,Argentina,Luis Guillon,-34.8,-58.45
184.72.189.16,US,United States,Ashburn,39.0481,-77.4728
205.209.143.61,US,United States,San Jose,37.3249,-121.9153
81.178.210.32,GB,United Kingdom,Northwich,53.3159,-2.533
65.52.49.139,US,United States,Chicago,41.8483,-87.6517
77.99.127.12,GB,United Kingdom,Plymouth,50.4,-4.1667
123.125.71.30,CN,China,Beijing,39.9288,116.3889
91.178.59.141,BE,Belgium,La Hulpe,50.7333,4.4833
76.113.236.89,US,United States,Saint Paul,45.08,-93.0223
74.50.100.8,US,United States,Tampa,28.0091,-82.5034
88.224.173.65,TR,Turkey,Tokat Province,40.3908,36.6117
77.125.99.123,IL,Israel,Rehovot,31.8969,34.8186
207.46.195.107,US,United States,Chicago,41.8483,-87.6517
78.86.241.29,GB,United Kingdom,None,51.4964,-0.1224
124.115.0.170,CN,China,None,34.2583,108.9286
124.115.0.18,CN,China,None,34.2583,108.9286
124.115.0.158,CN,China,None,34.2583,108.9286
201.165.126.176,MX,Mexico,None,19.4371,-99.0111
124.115.0.139,CN,China,None,34.2583,108.9286
124.115.0.156,CN,China,None,34.2583,108.9286
66.249.67.116,US,United States,None,37.751,-97.822
124.115.0.157,CN,China,None,34.2583,108.9286
124.115.0.26,CN,China,None,34.2583,108.9286
124.115.0.21,CN,China,None,34.2583,108.9286
124.115.0.104,CN,China,None,34.2583,108.9286
98.196.57.213,US,United States,Cypress,29.9766,-95.6358
71.8.121.48,US,United States,Fort Worth,32.7233,-97.269
189.101.74.142,BR,Brazil,Curitiba,-25.5039,-49.2908
71.234.229.2,US,United States,Mystic,41.3616,-71.9774
69.255.117.151,US,United States,Shepherdstown,39.4311,-77.8158
67.88.123.195,US,United States,Denver,39.7331,-104.9524
68.35.184.115,US,United States,Huntsville,34.7269,-86.5673
124.115.0.166,CN,China,None,34.2583,108.9286
97.119.130.150,US,United States,Omaha,41.2955,-96.1008
173.18.36.238,US,United States,Streator,41.1225,-88.8307
66.236.154.162,US,United States,None,37.751,-97.822
66.214.82.211,US,United States,Duarte,34.1407,-117.9567
74.233.57.44,US,United States,Hollywood,25.9921,-80.2712
98.250.131.249,US,United States,Clinton Township,42.5938,-82.9133
68.50.105.98,US,United States,Greenwood,39.596,-86.1309
24.236.217.191,US,United States,Reed City,43.8868,-85.513
68.81.198.137,US,United States,Harleysville,40.2659,-75.3883
76.124.60.49,US,United States,Philadelphia,39.9925,-75.1133
70.89.92.33,US,United States,Forked River,39.8444,-74.1973
67.190.159.184,US,United States,Colorado Springs,38.905,-104.6982
93.35.230.72,IT,Italy,None,43.1479,12.1097
71.14.99.47,US,United States,Taylors,34.9245,-82.3197
99.22.8.92,US,United States,Clovis,36.8432,-119.6518
66.30.168.63,US,United States,North Easton,42.059,-71.1123
24.118.93.108,US,United States,Saint Paul,44.9684,-93.0488
24.112.158.242,US,United States,Street,39.6574,-76.3713
71.228.205.99,US,United States,Murfreesboro,35.871,-86.4181
69.248.84.249,US,United States,East Brunswick,40.4284,-74.4064
75.61.138.187,US,United States,None,37.751,-97.822
186.84.91.201,CO,Colombia,Bogotá,4.6492,-74.0628
97.87.99.197,US,United States,Jackson,37.3879,-89.6519
71.225.172.137,US,United States,Garnet Valley,39.852,-75.5007
74.125.156.82,US,United States,None,37.751,-97.822
190.152.48.224,EC,Ecuador,Loja,-4,-79.2167
220.181.108.75,CN,China,Beijing,39.9288,116.3889
24.98.254.92,US,United States,Atlanta,33.832,-84.3851
173.190.231.81,US,United States,Kershaw,34.5578,-80.5546
76.126.32.77,US,United States,San Francisco,37.7593,-122.4836
74.125.112.86,FI,Finland,Lappeenranta,61.0645,28.176
74.125.114.82,US,United States,None,37.751,-97.822
74.125.114.80,US,United States,None,37.751,-97.822
74.125.114.81,US,United States,None,37.751,-97.822
74.125.112.81,FI,Finland,Lappeenranta,61.0645,28.176
74.125.112.83,FI,Finland,Lappeenranta,61.0645,28.176
74.125.112.82,FI,Finland,Lappeenranta,61.0645,28.176
209.203.93.196,US,United States,San Simon,32.0423,-109.1748
76.231.163.26,US,United States,Aurora,41.7523,-88.2453
65.52.109.59,US,United States,Boydton,36.6544,-78.3752
67.188.179.212,US,United States,Cupertino,37.318,-122.0449
58.61.164.139,CN,China,None,23.1167,113.25
68.58.219.6,US,United States,Oak Park,42.4662,-83.184
98.234.179.185,US,United States,Sunnyvale,37.3764,-122.0238
123.8.142.51,CN,China,None,34.6836,113.5325
68.9.93.217,US,United States,Glastonbury,41.707300000000004,-72.5727
173.12.50.33,US,United States,None,37.751,-97.822
93.13.181.122,FR,France,Brunoy,48.6942,2.4922
24.34.191.64,US,United States,Chelsea,42.3963,-71.0325
68.55.72.78,US,United States,Rochester,42.6626,-83.1837
76.99.48.91,US,United States,None,37.751,-97.822
68.38.235.185,US,United States,Indianapolis,39.7924,-86.2875
98.207.131.25,US,United States,San Jose,37.3042,-121.8099
140.239.54.70,US,United States,None,37.751,-97.822
68.5.190.201,US,United States,Irvine,33.7419,-117.7467
75.150.54.249,US,United States,Richmond,37.5133,-77.5646
67.170.13.185,US,United States,None,37.751,-97.822
68.99.132.62,US,United States,Gilbert,33.3354,-111.8153
124.115.1.8,CN,China,None,34.2583,108.9286
157.100.229.27,EC,Ecuador,Quito,-0.2167,-78.5
212.246.66.238,FI,Finland,None,60.1708,24.9375
98.163.227.30,US,United States,New Orleans,30.0056,-90.0644
24.179.151.130,US,United States,Saint Paul,44.7497,-93.2029
66.190.129.183,US,United States,Millstadt,38.4443,-90.0888
98.225.51.144,US,United States,Redmond,47.6462,-122.0386
98.200.101.184,US,United States,Houston,29.594,-95.2218
72.220.162.66,US,United States,San Diego,32.7423,-117.0947
68.44.182.107,US,United States,Fishers,39.9575,-86.023
63.151.141.71,US,United States,Murray,36.6099,-88.3032
67.176.58.119,US,United States,None,37.751,-97.822
98.214.248.189,US,United States,Greenwood,39.596,-86.1309
64.244.130.34,US,United States,None,37.751,-97.822
65.52.51.180,US,United States,Chicago,41.8483,-87.6517
76.26.229.139,US,United States,Kissimmee,28.3078,-81.3681
150.70.64.194,JP,Japan,None,35.69,139.69
68.47.16.207,US,United States,Minneapolis,44.8266,-93.375
68.199.178.139,US,United States,Howell Township,40.1481,-74.2137
74.129.176.213,US,United States,Lexington,37.9651,-84.4708
124.115.1.7,CN,China,None,34.2583,108.9286
98.229.146.5,US,United States,Boston,42.3492,-71.0768
68.37.27.54,US,United States,Brighton,42.57,-83.7484
99.172.158.249,US,United States,Jacksonville,30.2687,-81.7473
75.68.27.95,US,United States,Londonderry,42.8656,-71.3772
67.183.42.228,US,United States,Snohomish,47.8954,-122.0716
208.80.194.29,US,United States,None,37.751,-97.822
208.80.194.37,US,United States,None,37.751,-97.822
68.55.121.177,US,United States,Ferndale,42.4586,-83.1363
71.231.113.168,US,United States,None,37.751,-97.822
76.23.152.4,US,United States,Naugatuck,41.492,-73.0493
68.6.190.149,US,United States,San Diego,32.7423,-117.0947
93.136.48.177,HR,Croatia,Donja Bistra,45.9078,15.8544
76.124.184.240,US,United States,Philadelphia,39.9207,-75.1595
71.56.236.220,US,United States,Boulder,40.0497,-105.2143
24.205.129.206,US,United States,Alhambra,34.0914,-118.1293
71.227.220.140,US,United States,Bellingham,48.7974,-122.4448
70.176.245.68,US,United States,Sahuarita,31.9452,-111.0002
199.19.249.196,GB,United Kingdom,London,51.5161,-0.0949
195.77.128.4,ES,Spain,Madrid,40.4165,-3.7026
188.25.239.58,RO,Romania,Bucharest,44.4333,26.1
24.130.248.2,US,United States,Oakland,37.8126,-122.2443
173.80.81.2,US,United States,Beckley,37.7932,-81.2061
69.224.50.241,US,United States,None,37.751,-97.822
219.76.144.54,HK,Hong Kong,Lo Fu Ngam,22.3333,114.1833
97.126.184.78,US,United States,None,37.751,-97.822
99.23.190.87,US,United States,None,37.751,-97.822
194.103.228.50,SE,Sweden,Gothenburg,57.7072,11.9668
121.52.154.72,PK,Pakistan,None,30,70
192.167.209.10,IT,Italy,Ferrara,44.838,11.6206
112.198.79.5,PH,Philippines,Mandaluyong City,14.5832,121.0409
190.178.89.73,AR,Argentina,Neuquén,-38.95,-68.0667
71.193.216.156,US,United States,Vancouver,45.6418,-122.6251
75.139.152.10,US,United States,Buford,34.1124,-83.9965
76.106.52.82,US,United States,Baltimore,39.361,-76.5891
173.24.49.53,US,United States,Angola,41.6563,-85.0198
80.153.157.44,DE,Germany,Chemnitz,50.7963,12.9199
194.94.136.71,DE,Germany,Gatersleben,51.8223,11.2873
65.52.110.67,US,United States,Boydton,36.6544,-78.3752
38.101.148.124,US,United States,None,37.751,-97.822
110.75.174.7,CN,China,None,34.7725,113.7266
110.75.175.45,CN,China,None,34.7725,113.7266
190.230.30.63,AR,Argentina,Alta Gracia,-31.6667,-64.4333
141.163.186.48,GB,United Kingdom,Plymouth,50.3879,-4.1271
200.124.14.101,PA,Panama,None,9,-80
109.165.131.57,BA,Bosnia and Herzegovina,Laktasi,44.9086,17.3014
131.111.119.84,GB,United Kingdom,Cambridge,52.191,0.1249
168.216.16.50,US,United States,Saint Albans,38.3774,-81.8305
123.125.71.100,CN,China,Beijing,39.9288,116.3889
79.240.64.50,DE,Germany,Sankt Wendel,49.4663,7.1681
200.132.210.78,BR,Brazil,Rio Grande,-32.0781,-52.3501
119.235.237.92,JP,Japan,None,35.69,139.69
85.240.54.184,PT,Portugal,Evora,38.5667,-7.9
84.74.185.7,CH,Switzerland,Zurich,47.3667,8.55
110.75.176.50,CN,China,None,34.7725,113.7266
128.135.149.33,US,United States,Chicago,41.7813,-87.6051
206.176.219.6,US,United States,None,37.751,-97.822
69.28.58.35,US,United States,Los Angeles,34.0729,-118.2606
88.198.38.230,DE,Germany,Munich,48.15,11.5833
190.189.85.66,AR,Argentina,La Plata,-34.9314,-57.9489
82.233.28.58,FR,France,Parmain,49.1125,2.2149
124.115.0.27,CN,China,None,34.2583,108.9286
124.115.0.103,CN,China,None,34.2583,108.9286
124.115.0.28,CN,China,None,34.2583,108.9286
124.115.0.142,CN,China,None,34.2583,108.9286
124.115.0.17,CN,China,None,34.2583,108.9286
124.115.0.141,CN,China,None,34.2583,108.9286
124.115.0.106,CN,China,None,34.2583,108.9286
124.115.0.25,CN,China,None,34.2583,108.9286
76.22.186.206,US,United States,Murfreesboro,35.871,-86.4181
124.115.0.165,CN,China,None,34.2583,108.9286
124.115.0.162,CN,China,None,34.2583,108.9286
124.115.0.107,CN,China,None,34.2583,108.9286
124.115.0.24,CN,China,None,34.2583,108.9286
124.115.0.140,CN,China,None,34.2583,108.9286
124.115.0.169,CN,China,None,34.2583,108.9286
220.181.125.72,CN,China,Beijing,39.9288,116.3889
220.181.94.217,CN,China,Beijing,39.9288,116.3889
124.115.0.111,CN,China,None,34.2583,108.9286
119.63.198.22,JP,Japan,None,35.69,139.69
124.115.0.171,CN,China,None,34.2583,108.9286
124.115.0.108,CN,China,None,34.2583,108.9286
124.115.0.15,CN,China,None,34.2583,108.9286
124.115.0.20,CN,China,None,34.2583,108.9286
124.115.0.14,CN,China,None,34.2583,108.9286
124.115.0.19,CN,China,None,34.2583,108.9286
66.249.65.40,US,United States,None,37.751,-97.822
94.76.115.103,UA,Ukraine,Kyiv,50.4547,30.5238
212.84.106.244,GB,United Kingdom,None,51.4964,-0.1224
220.181.7.13,CN,China,Beijing,39.9288,116.3889
66.249.65.25,US,United States,None,37.751,-97.822
66.249.65.53,US,United States,None,37.751,-97.822
62.44.82.142,GB,United Kingdom,None,51.4964,-0.1224
207.46.199.246,US,United States,Chicago,41.8483,-87.6517
66.249.65.17,US,United States,None,37.751,-97.822
65.52.108.59,US,United States,Boydton,36.6544,-78.3752
121.121.81.13,MY,Malaysia,Petaling Jaya,3.1149,101.5869
66.249.65.15,US,United States,None,37.751,-97.822
66.249.65.3,US,United States,None,37.751,-97.822
218.248.47.31,IN,India,Mangalore,12.8639,74.8353
58.168.45.141,AU,Australia,Kellyville,-33.6994,150.9536
88.110.174.201,GB,United Kingdom,Rotherham,53.4044,-1.3465
221.13.79.34,CN,China,None,29.65,91.1
95.147.157.25,GB,United Kingdom,Glanamman,51.7928,-3.9882999999999997
82.29.230.103,GB,United Kingdom,Manchester,53.5041,-2.191
66.249.65.44,US,United States,None,37.751,-97.822
66.249.65.249,US,United States,None,37.751,-97.822
86.31.131.11,GB,United Kingdom,Bristol,51.4767,-2.5572
77.20.131.215,DE,Germany,Hanover,52.3973,9.7707
74.125.154.86,US,United States,None,37.751,-97.822
217.35.89.39,GB,United Kingdom,Tadley,51.3374,-1.1659
91.84.110.171,GB,United Kingdom,None,51.4964,-0.1224
72.14.212.86,US,United States,None,37.751,-97.822
74.125.154.85,US,United States,None,37.751,-97.822
74.125.154.81,US,United States,None,37.751,-97.822
98.240.179.226,US,United States,Saint Paul,45.0788,-93.1872
213.180.207.227,RU,Russia,None,55.7386,37.6068
200.98.197.72,BR,Brazil,None,-22.8305,-43.2192
119.63.198.100,JP,Japan,None,35.69,139.69
119.63.198.80,JP,Japan,None,35.69,139.69
66.249.65.244,US,United States,None,37.751,-97.822
208.80.194.32,US,United States,None,37.751,-97.822
173.178.232.48,CA,Canada,Berthier-Sur-Mer,46.9333,-70.7333
123.125.67.162,CN,China,Beijing,39.9288,116.3889
123.125.67.164,CN,China,Beijing,39.9288,116.3889
190.27.151.33,CO,Colombia,Bogotá,4.6492,-74.0628
125.74.72.5,CN,China,None,36.0564,103.7922
125.74.92.152,CN,China,None,36.0564,103.7922
67.172.124.157,US,United States,Chico,39.8032,-121.8673
69.140.154.51,US,United States,Bethesda,39.0003,-77.1022
66.249.65.193,US,United States,None,37.751,-97.822
190.40.161.231,PE,Peru,Lima,-12.05,-77.05
190.42.209.5,PE,Peru,Lima,-12.05,-77.05
98.245.31.195,US,United States,Denver,39.7783,-104.7557
137.108.145.250,GB,United Kingdom,Milton Keynes,52.0292,-0.7279
203.127.156.178,SG,Singapore,None,1.3667,103.8
95.121.201.235,ES,Spain,Guadalajara,40.6286,-3.1618
78.183.210.192,TR,Turkey,Istanbul,41.0186,28.9322
86.133.60.160,GB,United Kingdom,Irthlingborough,52.3344,-0.5984
66.249.66.69,US,United States,None,37.751,-97.822
92.11.204.108,GB,United Kingdom,Cricklewood,51.5608,-0.2233
82.166.163.12,IL,Israel,Qiryat Tiv`on,32.7239,35.1272
82.166.163.10,IL,Israel,Qiryat Tiv`on,32.7239,35.1272
193.194.69.37,DZ,Algeria,None,36.7642,3.1468
94.179.22.60,UA,Ukraine,Kharkiv,49.9808,36.2527
221.79.18.137,JP,Japan,None,35.69,139.69
164.73.160.15,UY,Uruguay,None,-33,-56
212.117.175.52,LU,Luxembourg,None,49.75,6.1667
88.237.212.59,TR,Turkey,Istanbul,41.0177,28.9744
170.210.241.133,AR,Argentina,None,-34.6033,-58.3817
201.197.69.26,CR,Costa Rica,San Pedro,9.9337,-84.046
81.107.46.69,GB,United Kingdom,St Albans,51.75,-0.3333
91.212.226.56,Not found,Not found,Not found,Not found,Not found
88.131.106.2,SE,Sweden,None,59.3247,18.056
88.131.106.8,SE,Sweden,None,59.3247,18.056
200.121.157.192,PE,Peru,Chancay,-11.5597,-77.2711
93.96.151.21,GB,United Kingdom,None,51.4964,-0.1224
212.113.35.162,UA,Ukraine,None,50.45,30.5233
128.187.0.183,US,United States,Provo,40.3563,-111.7325
64.56.64.83,US,United States,Los Angeles,34.0584,-118.278
88.131.106.1,SE,Sweden,None,59.3247,18.056
88.131.106.7,SE,Sweden,None,59.3247,18.056
78.97.202.54,RO,Romania,Cluj-Napoca,46.7667,23.6
85.150.201.32,NL,Netherlands,Nieuwegein,52.0483,5.0759
82.32.41.64,GB,United Kingdom,Airdrie,55.866,-3.9802999999999997
88.131.106.5,SE,Sweden,None,59.3247,18.056
88.131.106.6,SE,Sweden,None,59.3247,18.056
187.133.157.147,MX,Mexico,Carrillo,23.204,-102.9868
207.46.194.62,IE,Ireland,Dublin,53.3331,-6.2489
158.195.106.40,SK,Slovakia,Bratislava,48.1482,17.1067
66.249.66.87,US,United States,None,37.751,-97.822
220.181.7.50,CN,China,Beijing,39.9288,116.3889
84.9.15.119,GB,United Kingdom,Reading,51.4563,-0.9711
201.240.89.203,PE,Peru,Tacna,-18.0056,-70.2483
82.9.80.234,GB,United Kingdom,Neath,51.6561,-3.8022
66.249.65.55,US,United States,None,37.751,-97.822
87.66.176.239,BE,Belgium,Aarschot,50.9833,4.8333
66.249.65.50,US,United States,None,37.751,-97.822
78.163.97.51,TR,Turkey,Trabzon,40.921,39.8766
61.222.216.248,TW,Taiwan,Taipei,25.0478,121.5318
207.46.12.28,US,United States,Chicago,41.8483,-87.6517
125.25.136.72,TH,Thailand,Bangkok,13.754,100.5014
77.176.172.85,DE,Germany,Waldkirch,48.0959,7.9637
74.222.5.226,US,United States,Los Angeles,34.0584,-118.278
94.30.63.42,GB,United Kingdom,Presteigne,52.2664,-3.044
99.178.174.222,US,United States,Raleigh,35.7645,-78.7112
86.17.195.117,GB,United Kingdom,Darlington,54.5243,-1.5504
134.93.246.83,DE,Germany,Mainz,49.9873,8.2965
219.149.151.12,CN,China,None,37.7269,112.4708
124.115.0.23,CN,China,None,34.2583,108.9286
124.115.0.138,CN,China,None,34.2583,108.9286
190.42.32.78,PE,Peru,Arequipa,-16.3989,-71.535
124.115.0.163,CN,China,None,34.2583,108.9286
71.15.46.86,US,United States,Mandeville,30.3666,-90.0487
65.55.2.141,US,United States,Redmond,47.6718,-122.1232
129.67.180.27,GB,United Kingdom,Oxford,51.7158,-1.2925
202.143.86.43,JP,Japan,None,35.69,139.69
124.115.0.105,CN,China,None,34.2583,108.9286
66.249.65.9,US,United States,None,37.751,-97.822
124.115.0.161,CN,China,None,34.2583,108.9286
124.115.0.159,CN,China,None,34.2583,108.9286
124.115.0.167,CN,China,None,34.2583,108.9286
86.138.56.48,GB,United Kingdom,Waltham Cross,51.7079,-0.0374
124.115.0.16,CN,China,None,34.2583,108.9286
124.115.0.102,CN,China,None,34.2583,108.9286
124.115.0.160,CN,China,None,34.2583,108.9286
119.63.198.59,JP,Japan,None,35.69,139.69
188.138.56.55,DE,Germany,None,51.45,7.0167
205.209.170.2,US,United States,San Jose,37.3249,-121.9153
202.28.35.3,TH,Thailand,Maha Sarakham,16.1848,103.3007
88.227.153.125,TR,Turkey,Ankara,39.9821,32.8246
66.220.153.248,US,United States,None,37.751,-97.822
93.97.64.94,GB,United Kingdom,None,51.4964,-0.1224
217.230.95.128,DE,Germany,Düsseldorf,51.2249,6.7743
83.232.171.115,NL,Netherlands,None,52.3824,4.8995
91.84.179.18,GB,United Kingdom,None,51.4964,-0.1224
84.10.34.235,PL,Poland,Łódź,51.7614,19.4623
66.249.65.247,US,United States,None,37.751,-97.822
89.240.170.129,GB,United Kingdom,Luton,51.9322,-0.4568
175.157.70.240,LK,Sri Lanka,None,7,81
66.220.153.249,US,United States,None,37.751,-97.822
38.99.96.26,US,United States,None,37.751,-97.822
41.234.250.54,EG,Egypt,Cairo,30.0771,31.2859
93.232.196.178,DE,Germany,Bad Muenstereifel,50.5567,6.7642
66.249.65.215,US,United States,None,37.751,-97.822
85.138.224.98,PT,Portugal,Almada,38.679,-9.1569
72.14.202.80,US,United States,None,37.751,-97.822
80.165.184.69,DK,Denmark,Troldhede,55.9915,8.7447
189.114.88.87,BR,Brazil,Cachoeirinha,-29.9218,-51.0958
88.228.111.39,TR,Turkey,Elâzığ,38.7546,39.0623
88.104.52.235,GB,United Kingdom,Nottingham,52.9536,-1.1505
63.245.15.21,HN,Honduras,None,15,-86.5
69.117.130.68,US,United States,Union City,40.7674,-74.0323
201.81.53.165,BR,Brazil,São Paulo,-23.627,-46.635
65.55.25.153,US,United States,Chicago,41.8483,-87.6517
67.67.221.106,US,United States,None,37.751,-97.822
78.149.129.26,GB,United Kingdom,Lochwinnoch,55.7952,-4.6303
211.184.197.28,KR,South Korea,None,37.5112,126.97409999999999
193.153.59.17,ES,Spain,Granada,37.1882,-3.6067
221.120.69.12,TW,Taiwan,None,23.5,121
207.46.12.238,US,United States,Chicago,41.8483,-87.6517
209.85.226.85,US,United States,None,37.751,-97.822
78.165.162.176,TR,Turkey,Ankara,39.923,32.8378
194.80.225.3,GB,United Kingdom,None,51.4964,-0.1224
85.12.76.63,GB,United Kingdom,Cambridge,52.2093,0.1482
24.203.199.62,CA,Canada,Longueuil,45.5679,-73.4761
64.5.40.122,US,United States,Dallas,32.9322,-96.8353
217.127.207.201,ES,Spain,Ávila,40.6572,-4.6995000000000005
125.26.24.228,TH,Thailand,Saraburi,14.5333,100.9167
94.23.47.174,FR,France,None,48.8582,2.3387000000000002
91.125.64.155,GB,United Kingdom,Reading,51.4396,-0.9292
75.92.139.40,US,United States,None,37.751,-97.822
64.56.66.178,US,United States,Los Angeles,34.0584,-118.278
123.125.66.25,CN,China,Beijing,39.9288,116.3889
123.125.66.20,CN,China,Beijing,39.9288,116.3889
87.89.71.164,FR,France,None,48.8582,2.3387000000000002
69.236.181.116,US,United States,None,37.751,-97.822
201.250.14.1,AR,Argentina,Boca de la Zanja,-43.4185,-66.0111
76.127.179.45,US,United States,New Haven,41.3072,-72.8654
66.249.71.23,US,United States,None,37.751,-97.822
115.70.127.1,AU,Australia,Spearwood,-32.1053,115.778
88.23.128.126,ES,Spain,Baiona,42.182,-8.7608
188.65.178.159,GB,United Kingdom,None,53.25,-1.4167
208.80.194.33,US,United States,None,37.751,-97.822
202.127.145.232,CN,China,None,34.7725,113.7266
219.204.60.168,JP,Japan,None,35.69,139.69
66.249.72.110,US,United States,None,37.751,-97.822
118.3.214.5,JP,Japan,None,35.69,139.69
95.105.24.22,RU,Russia,Sterlitamak,53.6331,55.9464
81.233.208.72,SE,Sweden,Simrishamn,55.5565,14.3504
123.125.71.97,CN,China,Beijing,39.9288,116.3889
222.165.130.214,LK,Sri Lanka,None,7,81
202.216.241.194,JP,Japan,None,35.69,139.69
201.19.143.85,BR,Brazil,Rio de Janeiro,-22.9201,-43.3307
208.99.244.15,US,United States,Stamford,41.1352,-73.5684
117.198.87.166,IN,India,Gondia,21.45,80.2
81.88.8.124,SE,Sweden,Kaevlinge,55.7919,13.1102
213.61.192.83,DE,Germany,None,51.2993,9.491
89.179.88.36,RU,Russia,Balakovo,52.0247,47.7941
91.45.168.244,DE,Germany,Rastatt,48.8585,8.2096
189.236.46.36,MX,Mexico,Mexico City,19.4357,-99.1439
86.8.137.67,GB,United Kingdom,Hinckley,52.5139,-1.3412
123.125.71.108,CN,China,Beijing,39.9288,116.3889
190.82.29.8,CL,Chile,Puerto Natales,-51.7333,-72.5167
24.190.3.171,US,United States,Passaic,40.8601,-74.1283
74.125.154.84,US,United States,None,37.751,-97.822
187.136.63.71,MX,Mexico,None,19.4371,-99.0111
83.163.102.85,NL,Netherlands,Amsterdam,52.3463,4.9305
178.120.10.6,BY,Belarus,Brest,52.0975,23.6878
96.48.155.59,CA,Canada,Surrey,49.141,-122.8569
74.125.112.85,FI,Finland,Lappeenranta,61.0645,28.176
74.125.112.84,FI,Finland,Lappeenranta,61.0645,28.176
74.125.112.87,FI,Finland,Lappeenranta,61.0645,28.176
74.125.112.80,FI,Finland,Lappeenranta,61.0645,28.176
190.177.92.250,AR,Argentina,Wilde,-34.6947,-58.3129
67.195.112.153,US,United States,None,37.751,-97.822
74.77.177.107,US,United States,None,37.751,-97.822
141.161.133.153,US,United States,Washington,38.893299999999996,-77.0146
203.12.2.160,AU,Australia,None,-33.494,143.2104
153.107.97.156,AU,Australia,None,-33.494,143.2104
190.82.46.149,CL,Chile,Punta Arenas,-53.15,-70.9167
207.46.12.202,US,United States,Chicago,41.8483,-87.6517
119.63.196.120,JP,Japan,None,35.69,139.69
116.43.35.30,KR,South Korea,None,37.5112,126.97409999999999
74.125.152.82,US,United States,None,37.751,-97.822
74.125.152.87,US,United States,None,37.751,-97.822
218.213.130.161,HK,Hong Kong,None,22.25,114.1667
70.129.143.211,US,United States,Rockwall,32.9492,-96.4418
109.230.246.100,IR,Iran,Tehran,35.7261,51.3304
65.52.110.20,US,United States,Boydton,36.6544,-78.3752
72.14.202.82,US,United States,None,37.751,-97.822
190.3.1.11,AR,Argentina,Bahía Blanca,-38.7167,-62.2833
200.7.224.121,EC,Ecuador,None,-2,-77.5
65.52.110.56,US,United States,Boydton,36.6544,-78.3752
203.33.199.33,IN,India,Mumbai,18.975,72.8258
123.125.71.26,CN,China,Beijing,39.9288,116.3889
41.226.216.58,TN,Tunisia,None,34,9
219.124.174.187,JP,Japan,Takamatsu,34.3621,134.1415
62.171.194.19,GB,United Kingdom,None,51.4964,-0.1224
132.180.32.10,DE,Germany,Bayreuth,49.9481,11.5783
134.36.37.58,GB,United Kingdom,Dundee,56.482,-2.9356
109.120.144.247,RU,Russia,None,55.7386,37.6068
190.177.69.137,AR,Argentina,Banfield,-34.75,-58.4
201.251.112.236,AR,Argentina,La Consulta,-33.7358,-69.1218
95.67.179.101,RU,Russia,Samara,53.1835,50.1182
123.125.66.39,CN,China,Beijing,39.9288,116.3889
208.131.181.126,JM,Jamaica,Kingston,18,-76.8
65.183.8.194,JM,Jamaica,Kingston,18,-76.8
200.16.241.26,AR,Argentina,None,-34.6033,-58.3817
88.235.92.107,TR,Turkey,Sirnak,37.5228,42.4594
168.169.246.34,US,United States,None,37.751,-97.822
116.50.214.210,PH,Philippines,Quezon City,14.6466,121.0509
212.113.37.106,UA,Ukraine,None,50.45,30.5233
208.115.111.71,US,United States,Cle Elum,47.2063,-120.9685
136.177.20.92,US,United States,Denver,39.7435,-105.1009
62.45.11.242,NL,Netherlands,Schiedam,51.9173,4.4099
163.247.40.50,CL,Chile,Santiago,-33.45,-70.6667
66.249.71.55,US,United States,None,37.751,-97.822
62.45.11.146,NL,Netherlands,Schiedam,51.9173,4.4099
187.79.24.47,BR,Brazil,Fortaleza,-3.7227,-38.5247
189.104.117.220,BR,Brazil,None,-22.8305,-43.2192
78.147.207.190,GB,United Kingdom,York,53.9576,-1.0827
62.24.181.134,GB,United Kingdom,None,51.4964,-0.1224
80.189.159.104,GB,United Kingdom,Colchester,51.8892,0.9042
168.169.218.173,US,United States,Buffalo,42.9255,-78.7481
212.95.54.211,DE,Germany,None,51.2993,9.491
148.226.28.30,MX,Mexico,Xalapa,19.5518,-96.9526
220.181.19.81,CN,China,Beijing,39.9288,116.3889
201.235.214.42,AR,Argentina,Bahía Blanca,-38.7167,-62.2833
189.21.214.194,BR,Brazil,None,-22.8305,-43.2192
123.125.71.109,CN,China,Beijing,39.9288,116.3889
184.154.7.186,US,United States,Chicago,41.8785,-87.633
207.210.234.226,US,United States,Garland,32.9227,-96.6248
64.66.124.116,US,United States,Fredonia,42.4333,-79.3339
99.135.46.206,US,United States,Miami,25.6992,-80.3618
213.5.64.179,NL,Netherlands,None,52.3824,4.8995
80.152.132.137,DE,Germany,Miltenberg,49.7045,9.2673
77.93.2.81,LV,Latvia,Riga,56.95,24.1
67.248.184.24,US,United States,Clifton Park,42.8499,-73.7851
194.44.171.0,UA,Ukraine,Rivne,50.6231,26.2274
86.14.237.19,GB,United Kingdom,Bracknell,51.4007,-0.7635
82.6.104.140,GB,United Kingdom,Nuneaton,52.5167,-1.4667
66.249.71.43,US,United States,None,37.751,-97.822
88.234.141.141,TR,Turkey,Istanbul,40.9887,29.0236
88.224.214.191,TR,Turkey,Pursaklar,40.0384,32.897
213.74.238.127,TR,Turkey,Izmir,38.4067,27.14
78.179.190.171,TR,Turkey,Kecioeren,40.0067,32.8562
78.166.98.22,TR,Turkey,Istanbul,41.0177,28.9744
69.153.192.161,US,United States,Hempstead,30.092,-96.0716
82.45.75.197,GB,United Kingdom,Glasgow,55.7641,-4.1767
86.183.223.89,GB,United Kingdom,Woking,51.2992,-0.4607
212.103.103.123,RU,Russia,Volgograd,48.7194,44.5018
86.2.101.35,GB,United Kingdom,Portsmouth,50.8183,-1.0719
189.4.36.27,BR,Brazil,Curitiba,-25.5039,-49.2908
119.63.198.55,JP,Japan,None,35.69,139.69
66.249.65.141,US,United States,None,37.751,-97.822
200.111.191.106,CL,Chile,Santiago,-33.45,-70.6667
83.21.114.48,PL,Poland,Poznan,52.3726,16.8958
190.82.56.38,CL,Chile,Punta Arenas,-53.15,-70.9167
202.188.40.25,MY,Malaysia,Petaling Jaya,3.144,101.5875
71.38.211.186,US,United States,Las Vegas,36.2471,-115.221
192.31.21.150,US,United States,None,37.751,-97.822
119.194.129.68,KR,South Korea,Seongnam-si,37.4386,127.1378
66.249.65.133,US,United States,None,37.751,-97.822
66.249.65.180,US,United States,None,37.751,-97.822
59.93.242.131,IN,India,Machilipatnam,16.1667,81.1333
120.17.201.253,AU,Australia,Sydney,-33.8678,151.2073
66.249.65.179,US,United States,None,37.751,-97.822
192.91.247.212,CH,Switzerland,Geneva,46.2058,6.1416
88.131.106.3,SE,Sweden,None,59.3247,18.056
81.187.240.239,GB,United Kingdom,Rayleigh,51.5833,0.6167
62.49.242.126,GB,United Kingdom,None,51.4964,-0.1224
193.62.194.248,GB,United Kingdom,Cambridge,52.2333,0.15
62.43.59.94,ES,Spain,Alaquas,39.4557,-0.461
77.161.112.163,NL,Netherlands,Rodenrijs,51.9943,4.476
131.111.37.225,GB,United Kingdom,Cambridge,52.191,0.1249
112.135.38.200,LK,Sri Lanka,None,7,81
88.196.244.221,EE,Estonia,Viimsi,59.4967,24.8422
85.12.96.12,GB,United Kingdom,Southend-on-Sea,51.5405,0.7293
208.80.194.34,US,United States,None,37.751,-97.822
92.43.64.72,GB,United Kingdom,Grimsby,53.4827,-0.0332
132.230.190.44,DE,Germany,Freiburg,48,7.85
88.74.17.94,DE,Germany,Hattingen,51.4,7.1667
189.98.102.40,BR,Brazil,None,-22.8305,-43.2192
201.230.61.92,PE,Peru,None,-12.0433,-77.0283
116.14.14.249,SG,Singapore,Singapore,1.2931,103.8558
81.137.117.17,GB,United Kingdom,Hertford,51.8114,-0.1166
207.244.147.95,US,United States,Seattle,47.6151,-122.3447
208.80.194.60,US,United States,None,37.751,-97.822
208.80.194.58,US,United States,None,37.751,-97.822
92.113.45.116,UA,Ukraine,Kropyvnytskyi,48.5132,32.2597
208.80.194.62,US,United States,None,37.751,-97.822
52.129.8.52,CA,Canada,None,43.6319,-79.3716
195.191.54.115,Not found,Not found,Not found,Not found,Not found
216.73.67.133,CA,Canada,Steinbach,49.5258,-96.6845
190.139.111.98,AR,Argentina,None,-34.6033,-58.3817
69.28.58.10,US,United States,Los Angeles,34.0729,-118.2606
80.137.217.246,DE,Germany,Remchingen,48.9513,8.5732
64.25.151.66,US,United States,Turner,44.8476,-122.9501
190.82.39.10,CL,Chile,Punta Arenas,-53.15,-70.9167
123.125.66.53,CN,China,Beijing,39.9288,116.3889
123.125.66.19,CN,China,Beijing,39.9288,116.3889
142.13.18.101,CA,Canada,Brandon,49.8174,-99.9565
66.220.147.247,US,United States,None,37.751,-97.822
62.38.61.146,GR,Greece,Piraeus,37.9614,23.6389
72.73.169.204,US,United States,None,37.751,-97.822
190.210.79.129,AR,Argentina,Buenos Aires,-34.6033,-58.3816
200.12.202.94,AR,Argentina,None,-34.6033,-58.3817
67.195.112.178,US,United States,None,37.751,-97.822
67.19.79.218,US,United States,Dallas,32.9322,-96.8353
200.116.139.222,CO,Colombia,None,4.5981,-74.0758
66.249.72.139,US,United States,None,37.751,-97.822
216.145.5.42,US,United States,None,37.751,-97.822
65.52.110.13,US,United States,Boydton,36.6544,-78.3752
186.205.184.187,BR,Brazil,Rio de Janeiro,-22.9201,-43.3307
117.206.19.173,IN,India,Thrissur,10.5167,76.2167
65.52.110.79,US,United States,Boydton,36.6544,-78.3752
117.20.154.45,SG,Singapore,None,1.3667,103.8
123.125.71.116,CN,China,Beijing,39.9288,116.3889
123.125.71.113,CN,China,Beijing,39.9288,116.3889
92.85.172.215,RO,Romania,Suraia,45.6833,27.4
78.162.131.236,TR,Turkey,Ankara,39.9213,32.8505
79.116.178.80,RO,Romania,Reşiţa,45.3008,21.8892
208.80.194.36,US,United States,None,37.751,-97.822
207.189.121.54,US,United States,None,37.751,-97.822
222.124.156.242,ID,Indonesia,Sumedang,-6.8586,107.9164
186.81.67.60,CO,Colombia,Tuluá,4.0847,-76.1954
69.28.58.5,US,United States,Los Angeles,34.0729,-118.2606
123.125.71.19,CN,China,Beijing,39.9288,116.3889
65.52.110.77,US,United States,Boydton,36.6544,-78.3752
74.55.208.66,US,United States,Dallas,32.9322,-96.8353
189.106.119.74,BR,Brazil,Nilopolis,-22.8211,-43.427
82.124.194.221,FR,France,Saint-Germain-en-Laye,48.9,2.0833
119.159.192.30,PK,Pakistan,Karachi,24.9056,67.0822
65.52.110.85,US,United States,Boydton,36.6544,-78.3752
65.52.110.90,US,United States,Boydton,36.6544,-78.3752
79.234.92.211,DE,Germany,Frankfurt am Main,50.0974,8.6735
207.46.195.213,US,United States,Chicago,41.8483,-87.6517
70.70.220.118,CA,Canada,White Rock,49.0333,-122.8167
200.83.15.165,CL,Chile,Santiago,-33.45,-70.6667
201.231.156.224,AR,Argentina,Salta,-24.7833,-65.4167
71.62.123.77,US,United States,Mechanicsville,37.6281,-77.3395
65.52.110.74,US,United States,Boydton,36.6544,-78.3752
188.127.226.86,RU,Russia,None,55.7386,37.6068
186.16.138.161,PY,Paraguay,None,-23,-58
220.253.173.110,AU,Australia,Perth,-31.9674,115.8621
201.241.178.230,CL,Chile,Santiago,-33.45,-70.6667
121.72.16.21,NZ,New Zealand,None,-41,174
76.28.138.157,US,United States,Tacoma,47.2948,-122.3983
108.7.72.138,US,United States,Belmont,42.3959,-71.1787
108.12.23.43,US,United States,Cicero,43.1707,-76.0962
69.159.19.167,CA,Canada,Montreal,45.4805,-73.5554
159.226.100.225,CN,China,None,34.7725,113.7266
66.249.65.175,US,United States,None,37.751,-97.822
66.249.65.135,US,United States,None,37.751,-97.822
89.123.60.205,RO,Romania,Checea,45.753,20.836
124.180.11.89,AU,Australia,None,-33.494,143.2104
121.247.162.171,IN,India,None,20,77
69.28.58.7,US,United States,Los Angeles,34.0729,-118.2606
81.144.199.142,GB,United Kingdom,Ipswich,52.0713,1.1444
74.205.121.229,US,United States,San Antonio,29.4969,-98.4032
190.50.96.152,AR,Argentina,Remedios de Escalada,-34.7333,-58.3833
208.80.194.27,US,United States,None,37.751,-97.822
208.80.194.35,US,United States,None,37.751,-97.822
190.160.117.70,CL,Chile,Santiago,-33.45,-70.6667
91.86.150.144,BE,Belgium,Liège,50.6412,5.5718
114.26.163.80,TW,Taiwan,Taichung,24.1469,120.6839
187.140.5.243,MX,Mexico,Celaya,20.531,-100.8048
96.237.242.211,US,United States,North Reading,42.5819,-71.0947
79.114.230.112,RO,Romania,Satu Mare,47.7993,22.8625
69.136.235.77,US,United States,Arlington,38.8415,-77.0905
205.178.190.235,US,United States,Jacksonville,30.1459,-81.5739
205.178.190.234,US,United States,Jacksonville,30.1459,-81.5739
205.178.190.237,US,United States,Jacksonville,30.1459,-81.5739
90.211.77.72,GB,United Kingdom,Sheffield,53.386,-1.4097
72.27.74.180,JM,Jamaica,Kingston,18,-76.8
129.15.117.212,US,United States,Norman,35.2204,-97.4577
74.125.64.82,US,United States,None,37.751,-97.822
74.125.64.86,US,United States,None,37.751,-97.822
74.125.46.86,FI,Finland,Lappeenranta,61.0645,28.176
74.125.158.82,US,United States,None,37.751,-97.822
74.125.46.85,FI,Finland,Lappeenranta,61.0645,28.176
74.125.66.85,US,United States,None,37.751,-97.822
74.125.44.89,US,United States,Rockville,39.087,-77.168
74.125.44.82,US,United States,Rockville,39.087,-77.168
190.131.15.111,EC,Ecuador,Guayaquil,-2.1667,-79.9
88.190.13.201,FR,France,Nantes,47.2165,-1.5524
190.235.63.107,PE,Peru,Charcani Grande,-16.2667,-71.45
131.111.8.35,GB,United Kingdom,Cambridge,52.191,0.1249
184.167.25.75,US,United States,Jackson,43.4528,-110.7393
66.249.72.138,US,United States,None,37.751,-97.822
72.47.139.182,US,United States,White Hall,34.274,-92.091
93.219.88.149,DE,Germany,Berlin,52.5078,13.3439
65.52.110.32,US,United States,Boydton,36.6544,-78.3752
68.50.131.178,US,United States,Logansport,40.7604,-86.3599
217.218.233.58,IR,Iran,None,35.6961,51.4231
203.185.68.163,TH,Thailand,None,13.75,100.4667
62.8.115.122,GB,United Kingdom,Sheffield,53.3529,-1.2915
131.203.124.145,NZ,New Zealand,Wellington,-41.2866,174.7756
69.28.58.33,US,United States,Los Angeles,34.0729,-118.2606
65.52.110.78,US,United States,Boydton,36.6544,-78.3752
88.97.24.83,GB,United Kingdom,London,51.5299,-0.1747
76.185.65.115,US,United States,Arlington,32.6954,-97.0876
109.230.220.32,GB,United Kingdom,London,51.5161,-0.0949
200.2.119.115,CL,Chile,Valdivia,-39.8,-73.2333
88.237.62.196,TR,Turkey,UEskuedar,41.025,29.0328
180.147.92.207,JP,Japan,Ōtsu,35.0784,136.0735
91.201.66.6,IT,Italy,None,43.1479,12.1097
74.125.66.81,US,United States,None,37.751,-97.822
201.54.203.139,BR,Brazil,Blumenau,-26.8742,-49.1023
88.247.168.128,TR,Turkey,Magnesia ad Sipylum,38.5267,27.785
123.125.71.99,CN,China,Beijing,39.9288,116.3889
190.177.100.101,AR,Argentina,Esteban Echeverria,-34.815,-58.4792
87.78.38.33,DE,Germany,Cologne,51.0198,6.8684
200.89.74.74,CL,Chile,Santiago,-33.45,-70.6667
64.233.182.80,US,United States,Mountain View,37.4056,-122.0775
92.228.120.9,DE,Germany,Dortmund,51.5208,7.5184
201.215.3.67,CL,Chile,Santiago,-33.45,-70.6667
157.55.112.205,US,United States,None,37.751,-97.822
66.249.71.148,US,United States,None,37.751,-97.822
184.73.4.56,US,United States,Ashburn,39.0481,-77.4728
190.232.119.48,PE,Peru,Lima,-12.05,-77.05
190.174.219.51,AR,Argentina,Moron,-34.6425,-58.6181
123.125.71.96,CN,China,Beijing,39.9288,116.3889
189.5.94.209,BR,Brazil,Goiânia,-16.6402,-49.2599
68.92.9.129,US,United States,Wichita Falls,33.8633,-98.534
110.75.173.49,CN,China,None,34.7725,113.7266
110.75.173.38,CN,China,None,34.7725,113.7266
189.104.113.1,BR,Brazil,None,-22.8305,-43.2192
110.75.173.18,CN,China,None,34.7725,113.7266
74.15.88.34,CA,Canada,Toronto,43.6655,-79.4378
110.75.173.7,CN,China,None,34.7725,113.7266
76.102.80.250,US,United States,Pleasant Hill,37.954,-122.0737
65.52.110.80,US,United States,Boydton,36.6544,-78.3752
200.27.48.146,CL,Chile,Santiago,-33.45,-70.6667
119.63.196.117,JP,Japan,None,35.69,139.69
128.36.27.54,US,United States,New Haven,41.3184,-72.9318
70.64.162.212,CA,Canada,None,43.6319,-79.3716
99.10.212.81,US,United States,Palm Beach Gardens,26.8234,-80.1387
65.52.110.51,US,United States,Boydton,36.6544,-78.3752
119.27.62.254,US,United States,None,37.751,-97.822
121.97.98.183,PH,Philippines,None,14.5955,120.9721
65.52.110.29,US,United States,Boydton,36.6544,-78.3752
84.237.118.156,RU,Russia,Novosibirsk,55.0411,82.9344
79.135.143.126,LV,Latvia,Rēzekne,56.5,27.3167
220.181.7.29,CN,China,Beijing,39.9288,116.3889
212.35.66.11,JO,Hashemite Kingdom of Jordan,None,31,36
92.158.22.20,FR,France,Lamanon,43.7006,5.0886
210.212.237.233,IN,India,Thiruvananthapuram,8.5069,76.9569
77.22.26.119,DE,Germany,Delmenhorst,53.0509,8.6291
141.5.18.141,DE,Germany,Halle,51.483,11.972
186.210.101.192,BR,Brazil,Uberaba,-19.5483,-47.9414
143.107.252.76,BR,Brazil,São Paulo,-23.627,-46.635
116.71.171.50,PK,Pakistan,None,30,70
129.242.192.230,NO,Norway,Tromsø,69.6667,18.9667
99.229.166.38,CA,Canada,Richmond Hill,43.9394,-79.4349
222.222.194.187,CN,China,Baoding,38.8511,115.4903
83.145.51.167,SE,Sweden,Johanneshov,59.3333,18.05
200.75.86.45,CO,Colombia,Medellín,6.2518,-75.5636
131.111.188.207,GB,United Kingdom,Cambridge,52.191,0.1249
84.121.19.109,ES,Spain,Valencia,39.3667,-0.4333
193.61.170.134,GB,United Kingdom,Comber,54.55,-5.7
89.178.234.169,RU,Russia,Moscow,55.7522,37.6156
65.52.110.54,US,United States,Boydton,36.6544,-78.3752
146.155.109.113,CL,Chile,Nunoa,-33.4667,-70.6
132.235.104.14,US,United States,Athens,39.3178,-82.102
187.32.150.148,BR,Brazil,Campinas,-22.897,-47.0444
124.197.33.223,NZ,New Zealand,Auckland,-36.8485,174.7635
190.173.225.51,AR,Argentina,Chascomus,-35.5567,-57.84
129.24.125.191,US,United States,Albuquerque,35.0443,-106.6729
97.112.108.116,US,United States,None,37.751,-97.822
81.183.15.212,HU,Hungary,Debrecen,47.5333,21.6333
193.47.80.143,FR,France,None,48.8582,2.3387000000000002
92.43.110.80,DE,Germany,Bad Windsheim,49.5027,10.4154
65.52.110.66,US,United States,Boydton,36.6544,-78.3752
190.152.130.84,EC,Ecuador,Ambato,-1.25,-78.6167
190.228.123.6,AR,Argentina,None,-34.6033,-58.3817
190.196.172.140,CL,Chile,Santiago,-33.45,-70.6667
69.63.181.249,US,United States,None,37.751,-97.822
190.203.47.127,VE,Venezuela,San Felipe,10.3406,-68.7372
91.146.61.3,RU,Russia,Izhevsk,56.85,53.2333
85.70.23.139,CZ,Czechia,Hronov,50.4833,16.1833
94.27.71.147,UA,Ukraine,None,50.45,30.5233
91.23.151.248,DE,Germany,Neuss,51.2154,6.6631
207.46.12.111,US,United States,Chicago,41.8483,-87.6517
186.20.102.43,CL,Chile,Santiago,-33.45,-70.6667
209.85.228.83,US,United States,None,37.751,-97.822
92.137.201.73,FR,France,None,48.8582,2.3387000000000002
209.85.228.80,US,United States,None,37.751,-97.822
209.85.228.81,US,United States,None,37.751,-97.822
209.85.228.85,US,United States,None,37.751,-97.822
161.139.195.224,MY,Malaysia,None,2.5,112.5
91.60.36.201,DE,Germany,Sinsheim,49.2529,8.8787
72.14.194.17,US,United States,None,37.751,-97.822
69.28.58.9,US,United States,Los Angeles,34.0729,-118.2606
186.57.152.106,AR,Argentina,None,-34.6033,-58.3817
201.251.14.196,AR,Argentina,Toay,-36.6667,-64.35
86.140.122.59,GB,United Kingdom,Southampton,50.9171,-1.4248
190.172.172.45,AR,Argentina,Quilmes,-34.6813,-58.3225
201.217.99.206,EC,Ecuador,Quito,-0.2167,-78.5
118.3.190.49,JP,Japan,Sakai,34.5818,135.5179
186.105.215.82,CL,Chile,Santiago,-33.45,-70.6667
201.48.51.213,BR,Brazil,Belo Horizonte,-19.8993,-43.957
190.43.103.30,PE,Peru,Lima,-12.05,-77.05
136.142.132.139,US,United States,Pittsburgh,40.4432,-79.9531
119.63.196.15,JP,Japan,None,35.69,139.69
187.25.155.38,BR,Brazil,Rio de Janeiro,-22.8751,-43.2775
69.58.178.58,US,United States,None,37.751,-97.822
220.181.7.31,CN,China,Beijing,39.9288,116.3889
79.212.77.19,DE,Germany,Bensheim,49.6837,8.6184
46.17.97.13,NL,Netherlands,None,52.3824,4.8995
89.236.59.246,SE,Sweden,Umeå,63.8284,20.2597
86.208.78.92,FR,France,Peronne,49.9333,2.9333
190.177.71.196,AR,Argentina,Banfield,-34.75,-58.4
65.52.110.83,US,United States,Boydton,36.6544,-78.3752
205.178.190.236,US,United States,Jacksonville,30.1459,-81.5739
157.157.197.76,IS,Iceland,Hvolsvollur,63.7507,-20.2245
150.70.172.106,JP,Japan,None,35.69,139.69
123.100.117.179,NZ,New Zealand,Auckland,-36.8485,174.7635
74.66.235.75,US,United States,Saint Albans,40.6958,-73.7617
62.43.103.97,ES,Spain,Lorca,37.6712,-1.7017
188.60.204.182,CH,Switzerland,Chur,46.8499,9.5329
71.255.121.124,US,United States,Bedford,42.9403,-71.5213
94.14.165.112,GB,United Kingdom,Dunfermline,56.0367,-3.4987
94.120.247.248,TR,Turkey,Istanbul,41.0177,28.9744
76.110.220.143,US,United States,Jupiter,26.9339,-80.1201
89.153.221.48,PT,Portugal,Esposende,41.5361,-8.782
188.138.84.8,DE,Germany,None,51.45,7.0167
95.28.124.222,RU,Russia,Elektrostal,55.7919,38.4422
80.5.27.51,GB,United Kingdom,Swansea,51.6833,-3.9
66.249.65.46,US,United States,None,37.751,-97.822
66.249.65.60,US,United States,None,37.751,-97.822
65.52.192.56,US,United States,Chicago,41.8483,-87.6517
66.249.65.54,US,United States,None,37.751,-97.822
66.249.65.35,US,United States,None,37.751,-97.822
66.249.65.33,US,United States,None,37.751,-97.822
207.46.204.221,US,United States,Chicago,41.8483,-87.6517
220.181.7.35,CN,China,Beijing,39.9288,116.3889
131.162.135.54,CA,Canada,Wolfville,45.0467,-64.3502
207.46.12.241,US,United States,Chicago,41.8483,-87.6517
202.28.181.11,TH,Thailand,Bangkok,13.7167,100.4167
95.147.240.120,GB,United Kingdom,Leeds,53.7995,-1.5107
95.134.188.223,UA,Ukraine,Kyiv,50.4333,30.5167
150.70.66.178,JP,Japan,None,35.69,139.69
92.201.186.46,DE,Germany,None,51.2993,9.491
67.202.27.97,US,United States,Ashburn,39.0481,-77.4728
67.202.40.158,US,United States,Ashburn,39.0481,-77.4728
79.125.65.174,IE,Ireland,Dublin,53.3331,-6.2489
72.14.212.80,US,United States,None,37.751,-97.822
80.139.117.254,DE,Germany,Kempen,51.3643,6.4186
62.163.142.48,NL,Netherlands,Hoogvliet,51.8681,4.368
119.63.198.26,JP,Japan,None,35.69,139.69
190.8.7.50,AR,Argentina,None,-34.6033,-58.3817
69.37.38.84,US,United States,None,37.751,-97.822
66.219.58.39,US,United States,Boulder,40.0497,-105.2143
119.63.196.14,JP,Japan,None,35.69,139.69
65.52.110.52,US,United States,Boydton,36.6544,-78.3752
65.52.110.17,US,United States,Boydton,36.6544,-78.3752
221.248.147.101,JP,Japan,Saitama,35.8654,139.6601
157.55.50.75,US,United States,Boydton,36.6544,-78.3752
207.182.146.170,US,United States,Columbus,40.081,-82.9383
81.106.104.58,GB,United Kingdom,Cwmbran,51.6531,-3.0267
122.168.233.79,IN,India,None,20,77
188.115.144.7,UA,Ukraine,Odesa,46.4775,30.7326
65.52.108.12,US,United States,Boydton,36.6544,-78.3752
65.52.110.23,US,United States,Boydton,36.6544,-78.3752
69.28.58.42,US,United States,Los Angeles,34.0729,-118.2606
157.55.50.77,US,United States,Boydton,36.6544,-78.3752
213.192.25.2,CZ,Czechia,Olomouc,49.65,17.3333
208.80.194.28,US,United States,None,37.751,-97.822
157.55.50.76,US,United States,Boydton,36.6544,-78.3752
91.44.202.22,DE,Germany,Blankenhagen,54.1685,12.3404
123.125.71.117,CN,China,Beijing,39.9288,116.3889
123.125.71.107,CN,China,Beijing,39.9288,116.3889
123.125.71.105,CN,China,Beijing,39.9288,116.3889
123.125.71.111,CN,China,Beijing,39.9288,116.3889
123.125.71.114,CN,China,Beijing,39.9288,116.3889
123.125.71.101,CN,China,Beijing,39.9288,116.3889
74.125.46.88,FI,Finland,Lappeenranta,61.0645,28.176
74.125.44.88,US,United States,Rockville,39.087,-77.168
186.98.233.155,CO,Colombia,None,4.5981,-74.0758
190.13.97.30,CO,Colombia,Santiago de Cali,3.4372,-76.5225
157.55.50.11,US,United States,Boydton,36.6544,-78.3752
157.55.50.13,US,United States,Boydton,36.6544,-78.3752
38.99.96.243,US,United States,None,37.751,-97.822
86.133.141.69,GB,United Kingdom,Alnwick,55.4,-1.6
71.39.50.240,US,United States,Peyton,38.9541,-104.5472
201.40.152.35,BR,Brazil,Cacapava do Sul,-30.61,-53.4723
190.177.75.149,AR,Argentina,Lomas de Zamora,-34.7667,-58.4
46.52.108.228,SA,Saudi Arabia,None,25,45
86.51.35.38,SA,Saudi Arabia,Makkah,21.4267,39.8261
24.238.46.21,US,United States,Sparta,41.0277,-74.6407
207.46.194.85,IE,Ireland,Dublin,53.3331,-6.2489
175.158.29.208,KR,South Korea,None,37.5112,126.97409999999999
90.23.111.72,FR,France,Dieppe,49.9333,1.0833
119.235.237.78,JP,Japan,None,35.69,139.69
74.125.154.82,US,United States,None,37.751,-97.822
115.87.84.141,TH,Thailand,None,13.75,100.4667
221.226.2.179,CN,China,None,32.0617,118.7778
66.249.65.43,US,United States,None,37.751,-97.822
137.132.250.14,SG,Singapore,Singapore,1.2931,103.8558
87.83.212.224,GB,United Kingdom,Redhill,51.2406,-0.1004
190.178.216.113,AR,Argentina,Villa Madero,-34.6854,-58.4954
112.203.232.198,PH,Philippines,Quezon City,14.6488,121.0509
174.129.160.156,US,United States,Ashburn,39.0481,-77.4728
90.189.148.126,RU,Russia,Novosibirsk,55.0411,82.9344
78.172.9.79,TR,Turkey,None,41.0214,28.9948
124.120.153.226,TH,Thailand,Bangkok,13.6,100.6
95.108.158.242,RU,Russia,None,55.7386,37.6068
95.131.64.134,GB,United Kingdom,None,51.4964,-0.1224
186.42.4.43,EC,Ecuador,None,-2,-77.5
78.185.141.169,TR,Turkey,Istanbul,41.0186,28.9322
86.162.158.36,GB,United Kingdom,Pickering,54.25,-0.7667
24.161.126.4,US,United States,Pine Bush,41.6178,-74.3263
74.47.136.52,US,United States,None,37.751,-97.822
92.30.177.96,GB,United Kingdom,Dunfermline,56.1174,-3.5345
202.14.81.49,AU,Australia,Canberra,-35.276,149.1344
150.70.64.204,JP,Japan,None,35.69,139.69
119.63.198.54,JP,Japan,None,35.69,139.69
87.7.30.243,IT,Italy,Massa e Cozzile,43.9092,10.7444
119.63.196.109,JP,Japan,None,35.69,139.69
190.47.70.63,CL,Chile,Concepción,-36.8333,-73.05
68.202.50.146,US,United States,Orlando,28.5559,-81.3535
69.159.16.200,CA,Canada,Montreal,45.4805,-73.5554
65.52.110.81,US,United States,Boydton,36.6544,-78.3752
77.21.146.83,DE,Germany,Chemnitz,50.8213,12.884
68.113.162.90,US,United States,Plattsburgh,44.6927,-73.466
65.52.104.37,US,United States,Redmond,47.6718,-122.1232
65.52.104.42,US,United States,Redmond,47.6718,-122.1232
114.150.131.4,JP,Japan,None,35.69,139.69
65.52.110.31,US,United States,Boydton,36.6544,-78.3752
141.76.40.246,DE,Germany,Dresden,51.05,13.75
198.106.189.76,US,United States,None,37.751,-97.822
65.52.104.36,US,United States,Redmond,47.6718,-122.1232
218.205.243.91,CN,China,Shanghai,31.0456,121.3997
218.201.204.243,CN,China,Guiyang,26.5833,106.7167
99.67.180.52,US,United States,St Louis,38.6746,-90.3747
59.90.6.151,IN,India,Gadag,15.4167,75.6167
161.111.45.163,ES,Spain,None,40.4172,-3.684
14.139.62.34,IN,India,Gurgaon,28.4667,77.0333
194.199.60.68,FR,France,Lorient,47.75,-3.3667
125.46.34.27,CN,China,None,34.6836,113.5325
65.52.110.93,US,United States,Boydton,36.6544,-78.3752
65.52.110.39,US,United States,Boydton,36.6544,-78.3752
218.186.17.11,SG,Singapore,None,1.3667,103.8
201.55.38.2,BR,Brazil,None,-22.8305,-43.2192
157.55.112.226,US,United States,None,37.751,-97.822
190.216.7.247,AR,Argentina,Mendoza,-32.8,-68.6333
200.18.33.232,BR,Brazil,Santa Maria,-29.7742,-53.8276
184.82.196.209,TH,Thailand,Bangkok,13.7625,100.531
193.60.89.247,GB,United Kingdom,Cambridge,52.191,0.1249
206.107.148.145,US,United States,None,37.751,-97.822
134.76.190.212,DE,Germany,Göttingen,51.5333,9.9333
81.158.88.129,GB,United Kingdom,Hull,53.7321,-0.1396
65.52.110.14,US,United States,Boydton,36.6544,-78.3752
72.175.255.226,US,United States,Sheridan,44.7849,-106.9648
131.111.21.21,GB,United Kingdom,Cambridge,52.191,0.1249
217.109.39.27,FR,France,Bastia,42.7028,9.45
152.74.211.254,CL,Chile,Concepción,-36.8333,-73.05
204.111.168.35,US,United States,Hardy,37.2145,-79.8127
74.253.6.7,US,United States,None,37.751,-97.822
213.229.80.22,GB,United Kingdom,None,51.4964,-0.1224
207.66.14.2,US,United States,None,37.751,-97.822
147.210.209.41,FR,France,Talence,44.8048,-0.5954
66.249.71.168,US,United States,None,37.751,-97.822
217.125.225.175,ES,Spain,Paterna,39.5,-0.4333
186.2.9.62,BO,Bolivia,None,-17,-65
86.165.230.224,GB,United Kingdom,Macclesfield,53.1996,-2.0421
192.197.114.41,CA,Canada,None,43.6319,-79.3716
158.227.224.137,ES,Spain,Leioa,43.3333,-2.9833
190.132.127.138,UY,Uruguay,None,-33,-56
65.52.110.88,US,United States,Boydton,36.6544,-78.3752
207.46.199.189,US,United States,Chicago,41.8483,-87.6517
200.41.130.92,AR,Argentina,None,-34.6033,-58.3817
92.253.44.25,JO,Hashemite Kingdom of Jordan,Amman,31.95,35.9333
85.222.182.147,RS,Serbia,None,44,21
12.156.135.162,US,United States,None,37.751,-97.822
78.105.26.223,GB,United Kingdom,None,51.4964,-0.1224
69.168.39.175,US,United States,Hartwell,34.3571,-82.9296
119.63.196.108,JP,Japan,None,35.69,139.69
190.49.2.181,AR,Argentina,Villa Elisa,-34.8523,-58.0829
70.126.137.60,US,United States,Seffner,27.9922,-82.2863
209.11.177.202,US,United States,Grand Prairie,32.6605,-97.0311
65.52.110.33,US,United States,Boydton,36.6544,-78.3752
87.177.153.69,DE,Germany,Linz am Rhein,50.5761,7.2754
190.19.46.142,AR,Argentina,None,-34.5875,-58.6725
140.127.27.245,TW,Taiwan,None,23.5,121
140.127.27.152,TW,Taiwan,None,23.5,121
140.127.27.5,TW,Taiwan,None,23.5,121
140.127.27.70,TW,Taiwan,None,23.5,121
140.127.27.71,TW,Taiwan,None,23.5,121
140.127.27.72,TW,Taiwan,None,23.5,121
140.127.27.69,TW,Taiwan,None,23.5,121
140.127.27.189,TW,Taiwan,None,23.5,121
186.69.181.59,EC,Ecuador,Quito,-0.2167,-78.5
157.55.112.220,US,United States,None,37.751,-97.822
67.195.111.43,US,United States,None,37.751,-97.822
67.195.115.241,US,United States,None,37.751,-97.822
80.210.80.41,DK,Denmark,None,55.7123,12.0564
66.249.67.69,US,United States,None,37.751,-97.822
213.173.185.94,CH,Switzerland,Geneva,46.2022,6.1457
119.153.9.85,PK,Pakistan,None,30,70
212.59.55.66,DE,Germany,Laatzen,52.3151,9.7974
164.100.6.58,IN,India,Delhi,28.6667,77.2167
131.165.209.116,DK,Denmark,Lemvig,56.5486,8.3102
81.145.54.194,GB,United Kingdom,Kings Langley,51.7089,-0.4706
197.128.158.71,MA,Morocco,Rabat,34.0138,-6.8443000000000005
94.194.80.57,GB,United Kingdom,Northwich,53.2738,-2.6087
74.54.205.122,US,United States,Dallas,32.9322,-96.8353
74.125.158.81,US,United States,None,37.751,-97.822
161.111.45.159,ES,Spain,None,40.4172,-3.684
119.224.37.197,NZ,New Zealand,Christchurch,-43.5333,172.6333
66.249.67.229,US,United States,None,37.751,-97.822
69.28.58.8,US,United States,Los Angeles,34.0729,-118.2606
201.214.10.248,CL,Chile,Antofagasta,-23.65,-70.4
88.227.8.43,TR,Turkey,Ankara,39.9591,32.8441
58.83.227.150,CN,China,None,39.9289,116.3883
64.255.180.122,US,United States,Santa Clara,37.3483,-121.9844
169.237.77.34,US,United States,Davis,38.5538,-121.7418
75.85.4.56,US,United States,'Ewa Beach,21.3274,-158.0103
201.214.253.35,CL,Chile,Santiago,-33.45,-70.6667
119.147.6.60,CN,China,None,23.1167,113.25
75.74.92.185,US,United States,Homestead,25.4906,-80.438
65.60.188.160,US,United States,Naperville,41.7328,-88.1282
65.52.110.24,US,United States,Boydton,36.6544,-78.3752
186.10.59.209,CL,Chile,Santiago,-33.45,-70.6667
200.59.206.162,AR,Argentina,Las Flores,-33.7451,-59.9082
66.183.86.28,CA,Canada,Quesnel,52.9784,-122.4931
61.143.210.230,CN,China,None,23.1167,113.25
201.231.59.163,AR,Argentina,Córdoba,-31.4,-64.1833
190.232.39.150,PE,Peru,Lima,-12.05,-77.05
186.214.135.38,BR,Brazil,Recife,-8.0117,-34.9529
189.216.4.27,MX,Mexico,None,19.4371,-99.0111
65.52.110.49,US,United States,Boydton,36.6544,-78.3752
65.52.110.41,US,United States,Boydton,36.6544,-78.3752
119.63.196.31,JP,Japan,None,35.69,139.69
88.191.64.28,FR,France,Paris,48.8835,2.3219
